name,ESTABLISH,address,telno,HPADDR,OPERTIME,lng,lat
서울정심초등학교병설유치원,공립(병설),서울특별시 금천구 독산로78다길 89,02-851-7792,http://www.jungshim.es.kr,09시20분~19시30분,126.9083194,37.4717104
서울솔방울유치원,공립(단설),서울특별시 송파구 오금로24길 25,02-6481-6001,https://www.서울솔방울유치원.kr:497/home/,09시30분~20시00분,127.1174041,37.5048591
란키즈유치원,사립(사인),서울특별시 송파구 새말로8길 22-5,.02-404-4045,,09시00분~19시00분,127.1262919,37.4807678
서울신현초등학교병설유치원,공립(병설),서울특별시 중랑구 봉화산로 188,02-6956-0147,http://shinhyun.sen.es.kr/,09시30분~19시30분,127.0934712,37.6057842
다우림유치원,사립(사인),서울특별시 은평구 증산로21길 22,.02-375-2237,,09시00분~17시00분,126.9123345,37.5962346
서울소의초등학교병설유치원,공립(병설),서울특별시 마포구 마포대로24길 42,02-362-6512,http://soeui.sen.es.kr,09시00분~19시30분,126.9606729,37.5525105
서울상계초등학교병설유치원,공립(병설),서울특별시 노원구 상계로9길 39,02-933-6888,http://www.sanggye.es.kr,09시00분~16시00분,127.0662315,37.6593454
서울신구유치원,공립(단설),서울특별시 강남구 압구정로18길 28,02-3446-7480,http://서울신구유치원.kr/,09시30분~17시30분,127.0240581,37.523272
서울세명유치원,공립(단설),서울특별시 강남구 자곡로 55,02-3411-0890,http://www.서울세명유치원.kr,09시30분~17시30분,127.0910368,37.468707
한신유치원,사립(법인),서울특별시 서초구 잠원로3길 31,02-593-3100,,09시00분~17시00분,127.0047772,37.5090548
서울강월초등학교병설유치원,공립(병설),서울특별시 양천구 신월로 97,02-2605-1702,http://gangwol.es.kr/,09시30분~17시30분,126.8340784,37.516107
강남유치원,사립(사인),서울특별시 강남구 선릉로129길 31,02-546-1673,http://www.knk.or.kr,08시40분~17시40분,127.0390458,37.5154927
서울연광초등학교병설유치원,공립(병설),서울특별시 은평구 연서로35길 37,02-353-5977,http://www.yeonkwang.es.kr,09시00분~17시00분,126.9240864,37.6239138
서울원명초등학교병설유치원,공립(병설),서울특별시 서초구 고무래로 90-6,02-593-4490,http://www.wonmyong.es.kr/index/index.do,09시00분~17시00분,127.0166394,37.5006572
홍익대학교사범대학부속유치원,사립(법인),서울특별시 마포구 성미산로 111,02-3140-1107,http://www.hiuk.kg.kr,09시00분~17시00분,126.9193604,37.5629881
서울마장초등학교병설유치원,공립(병설),서울특별시 성동구 마장로35나길 31,02-2282-2831,http://www.majang.es.kr,09시00분~19시30분,127.0421148,37.5682918
서울우솔초등학교병설유치원,공립(병설),서울특별시 서초구 양재대로2길 74,3463-9073,http://www.woosol.es.kr,09시00분~17시00분,127.019279,37.4570592
서울언주초등학교병설유치원,공립(병설),서울특별시 강남구 남부순환로363길 19,02-3462-5280,http://www.eonju.es.kr,09시00분~19시30분,127.0367819,37.4865596
서울개원초등학교병설유치원,공립(병설),서울특별시 강남구 선릉로 29,02-574-1231,http://www.gaewon.es.kr,09시00분~20시00분,127.0586929,37.4813839
한별유치원,사립(사인),서울특별시 관악구 남부순환로144길 65,02-855-6659,http://www.hanbyeol.co.kr,09시00분~18시00분,126.9135018,37.4784169
서울백산초등학교병설유치원,공립(병설),서울특별시 금천구 시흥대로38길 78,02-803-5883,http://backsan.sen.es.kr/112708/subMenu.do,09시30분~20시00분,126.9052701,37.4466872
서울아람유치원,사립(사인),서울특별시 구로구 고척로25길 62,02-2612-3269,,09시00분~18시30분,126.846133,37.5045931
성모유치원,사립(법인),서울특별시 영등포구 가마산로89길 7,02-842-2903,http://cafe.daum.net/ntdsm,09시00분~18시00분,126.9211873,37.5053294
새서울유치원,사립(사인),서울특별시 양천구 목동서로 340,02-2646-1100,http://www.새서울유치원.com,09시00분~17시00분,126.8635267,37.5188449
샘터유치원,사립(사인),서울특별시 양천구 신월로 99,02-2691-1424,http://www.isaemter.co.kr,09시00분~17시00분,126.8342108,37.5177753
서울경인유치원,공립(단설),서울특별시 양천구 안양천로 1009,02-2646-4906,http://www.서울경인유치원.com,09시00분~20시00분,126.8863263,37.532929
서울공항초등학교병설유치원,공립(병설),서울특별시 강서구 마곡서1로 68,02-2661-4560,http://www.konghang.es.kr,09시30분~20시00분,126.8216429,37.5630894
새일문유치원,사립(사인),서울특별시 동대문구 장한로 165,02-2212-6229,http://cafe.naver.com/saeilmoon,09시00분~18시30분,127.0716761,37.5751686
서울중곡초등학교병설유치원,공립(병설),서울특별시 중랑구 면목로23길 20,02-2209-1281,http://cg.sen.es.kr/167553/subMenu.do,09시00분~20시00분,127.0838531,37.574597
한울유치원,사립(사인),서울특별시 노원구 덕릉로122길 12-6,02-935-3345,http:// www.hanulkid.co.kr,09시00분~17시00분,127.0808184,37.6684973
햇살유치원,사립(사인),서울특별시 도봉구 우이천로32길 38,02-904-6248,,09시00분~17시00분,127.0252454,37.6492197
효천유치원,사립(사인),서울특별시 노원구 중계로18길 14,02-930-8891,http://hyochunkids.com/,09시00분~17시00분,127.0782191,37.6513755
궁전유치원,사립(사인),서울특별시 은평구 갈현로33길 24,02-383-1667,http://kj16667.happyihome.com,09시00분~17시00분,126.9141669,37.6220839
꿀벌유치원,사립(사인),서울특별시 송파구 양산로8길 8,02-3401-1752,,09시00분~19시30분,127.1444814,37.4909477
송원유치원,사립(사인),서울특별시 강동구 성안로 64,02-476-8938,,09시00분~18시00분,127.1316333,37.5291939
행복한유치원,사립(사인),서울특별시 도봉구 시루봉로6길 86,02-900-8001,,09시00분~17시00분,127.0321759,37.6591881
성아유치원,사립(사인),서울특별시 은평구 응암로14길 21,02-303-6004,http://sungakids.moapp.kr,09시00분~20시00분,126.919696,37.589905
성균관유치원,사립(사인),서울특별시 은평구 연서로27길 23,02-356-5373,http://www.skkokok.com,09시00분~17시00분,126.9169405,37.6182981
백주유치원,사립(사인),서울특별시 동대문구 서울시립대로18길 19,02-2249-5170,http://cafe.daum.net/baekjukids,08시00분~19시00분,127.0528029,37.5806322
동산유치원,사립(법인),서울특별시 은평구 증산서길 53-9,02-372-3030,http://dongsankid.kidis.co.kr,09시00분~17시00분,126.904405,37.5817449
강변유치원,사립(법인),서울특별시 용산구 이촌로84길 9-7,02-792-2652,,09시00분~17시00분,126.9774032,37.518309
개동유치원,사립(법인),서울특별시 성북구 보국문로 143,02-915-5721,https://cafe.naver.com/kaedongyuchiwon20,09시00분~17시00분,127.0049982,37.6158297
영광유치원,사립(사인),서울특별시 성북구 북악산로 913,02-923-5900,http://cafe.daum.net/ykkindergarten,09시00분~18시30분,127.023405,37.5958815
은영유치원,사립(법인),서울특별시 성북구 보문사길 18,02-926-9278,http://cafe.daum.net/dmsdud9278,09시00분~18시00분,127.0166907,37.5846258
솔샘유치원,사립(사인),서울특별시 양천구 목동서로 130,02-2646-2343,,09시30분~20시00분,126.8715989,37.5319242
한나유치원,사립(사인),서울특별시 강서구 금낭화로 287-19,02-2666-1004,,09시30분~20시00분,126.810416,37.577231
화곡유치원,사립(법인),서울특별시 강서구 까치산로 60,02-2697-3104,,09시00분~19시00분,126.8466017,37.5439457
정훈유치원,사립(사인),서울특별시 구로구 경인로 382,02-2683-6833,,08시00분~17시00분,126.8625384,37.4952643
큰나무유치원,사립(사인),서울특별시 영등포구 도신로 31,02-832-3904,http://bigtreekid.co.kr,09시00분~18시00분,126.895455,37.505443
평강유치원,사립(사인),서울특별시 영등포구 신길로 27,02-848-0502,,09시00분~17시00분,126.9081736,37.494938
선희유치원,사립(사인),서울특별시 도봉구 해등로 241,02-906-1614,,09시00분~18시30분,127.029896,37.6575835
슬기유치원,사립(사인),서울특별시 도봉구 도봉로180나길 33-29,02-954-7771,http://www.seulgi.co.kr,09시00분~17시00분,127.0478424,37.6846434
영은유치원,사립(사인),서울특별시 노원구 동일로213길 78,02-932-1001,,07시00분~20시00분,127.0576124,37.6481222
서울마포초등학교병설유치원,공립(병설),서울특별시 마포구 도화2길 64,02-712-1170,http://mapo.sen.es.kr/140251/subMenu.do,09시30분~19시30분,126.9494735,37.5384634
서울상암초등학교병설유치원,공립(병설),서울특별시 마포구 월드컵북로 353,02-376-4110,http://www.sangam.es.kr,09시00분~17시00분,126.8920638,37.5764307
서울신도초등학교병설유치원,공립(병설),서울특별시 은평구 진관1로 77-23,02-352-3693,http://www.sindo.es.kr,09시00분~19시00분,126.9292019,37.6329345
서일유치원,사립(사인),서울특별시 마포구 새터산16길 14,02-308-2114,http://www.seoilkids.com,09시00분~20시00분,126.9082025,37.5674627
선경유치원,사립(법인),서울특별시 광진구 뚝섬로66길 14,02-447-0852,http://www.sk-kinder.net,09시00분~18시00분,127.0898897,37.5334389
성산유치원,사립(법인),서울특별시 광진구 뚝섬로59길 18,02-455-0581,,09시00분~17시00분,127.084171,37.5329081
자양유치원,사립(사인),서울특별시 광진구 자양로5길 36,02-446-4345,http://www.jayangkids.com/,09시00분~20시00분,127.0837848,37.5311751
프라임유치원,사립(사인),서울특별시 광진구 광나루로56길 5,02-453-0671,http://www.primekid.co.kr,09시30분~17시00분,127.0973514,37.537686
서울신천초등학교병설유치원,공립(병설),서울특별시 송파구 올림픽로 215,02-412-5488,http://www.서울신천병설유치원.com/,09시00분~17시00분,127.0953993,37.5138113
장미유치원,사립(법인),서울특별시 송파구 올림픽로35길 118,02-424-0090,http://www.jangmikid.kr,09시00분~17시30분,127.1008361,37.5179255
연유치원,사립(사인),서울특별시 서대문구 명지대길 39-4,02-307-4091,http://cafe.daum.net/yeunkids,09시00분~19시00분,126.9240694,37.5818447
도곡렉슬유치원,사립(사인),서울특별시 강남구 선릉로 221,02-579-7736,,09시00분~18시00분,127.0506359,37.4935287
두산효자유치원,사립(사인),서울특별시 성북구 화랑로48길 16,02-963-8334,http://dshyoja.kidswon.com,09시00분~17시00분,127.0687991,37.6125481
동원유치원,사립(사인),서울특별시 관악구 행운1길 96,02-875-3456,,09시00분~17시00분,126.9565734,37.4828328
서울관악초등학교병설유치원,공립(병설),서울특별시 관악구 청룡4길 49,02-883-0932,http://seoul-kwanak.sen.es.kr,09시00분~17시00분,126.9428751,37.4808279
키즈위즈유치원,사립(사인),서울특별시 노원구 덕릉로86길 65,02-930-5525,,09시00분~16시00분,127.0787221,37.6611106
새싹유치원,사립(법인),서울특별시 성북구 정릉로 282,02-914-6529,http://www.saessakid.co.kr,09시10분~16시50분,127.0145446,37.6031332
한영중고등학교병설한영유치원,사립(법인),서울특별시 강동구 동남로 832,02-426-1697,,09시00분~17시00분,127.1581016,37.5488933
서울월촌초등학교병설유치원,공립(병설),서울특별시 양천구 목동중앙로 132,02-2643-3477,http://www.swc.kg.kr,09시30분~17시30분,126.87645,37.5403951
선미유치원,사립(법인),서울특별시 강서구 까치산로2길 43,02-2606-3341,https://cafe.naver.com/sunmikinder3341,09시00분~18시00분,126.8436403,37.5393305
솔밭유치원,사립(사인),서울특별시 양천구 신월로10길 2-1,02-2693-0242,,09시00분~18시00분,126.8401178,37.5169054
미림유치원,사립(사인),서울특별시 구로구 개봉로18길 37,02-2612-1006,http://www.미림유치원.kr/,09시30분~19시20분,126.8579799,37.4908773
예일유치원,사립(사인),서울특별시 동대문구 사가정로 190,02-2215-0084,,09시00분~18시00분,127.0650026,37.5774226
은하유치원,사립(법인),서울특별시 영등포구 당산로28길 11,02-2068-0109,,08시30분~18시00분,126.8981898,37.5248319
서울은로초등학교병설유치원,공립(병설),서울특별시 동작구 서달로 115,02-826-5787,http://eunlo.sen.es.kr/index.do,09시00분~19시00분,126.9602142,37.5032286
서울은천초등학교병설유치원,공립(병설),서울특별시 관악구 은천로 69,02-883-6421,http://www.euncheon.kg.kr,09시00분~20시00분,126.9428019,37.4868282
예림유치원,사립(사인),서울특별시 동작구 현충로 151,02-817-1455,http://www.enterkids.com/yerim/,09시00분~17시00분,126.9703021,37.5065607
보나유치원,사립(사인),서울특별시 도봉구 해등로 307,02-956-3197,,09시00분~17시00분,127.0218935,37.6568056
공릉 사라유치원,사립(사인),서울특별시 노원구 동일로198가길 13,02-974-7766,http://cafe.naver.com/sarayouchwon,09시00분~19시00분,127.0718911,37.6298723
상원유치원,사립(사인),서울특별시 노원구 노원로19길 33,02-949-0217,,09시00분~19시00분,127.0687851,37.6445437
서울수락초등학교병설유치원,공립(병설),서울특별시 노원구 동일로 1745,02-951-4146,http://www.surak.es.kr,09시00분~20시00분,127.0547845,37.6843659
육사유치원,사립(사인),서울특별시 노원구 화랑로 574,02-972-0451,,09시30분~17시30분,127.0986687,37.6236916
이레유치원,사립(사인),서울특별시 노원구 월계로55길 16,02-979-8293~4,http://jireh.kidis.co.kr/,09시00분~20시00분,127.0611171,37.6325713
정의유치원,사립(법인),서울특별시 도봉구 노해로49길 69,02-992-5108,http://www.jeongeui.kg.kr/main/main.html,09시00분~19시00분,127.0317587,37.6529135
청아유치원,사립(사인),서울특별시 도봉구 노해로69가길 11,02-907-3811,https://cheonga.kidsnote.ac,09시00분~17시00분,127.0492272,37.6578671
배영유치원,사립(사인),서울특별시 마포구 잔다리로6길 11,02-334-3405,http://www.bykkid.co.kr,09시00분~18시00분,126.9198173,37.5525043
영암유치원,사립(법인),서울특별시 성북구 안암로7길 66,02-922-4773,https://cafe.naver.com/youngahmkindergarten,09시00분~20시00분,127.0234596,37.5821681
성신유치원,사립(법인),서울특별시 성북구 보문로34다길 2,02-920-7384,http://www.sskid.or.kr,09시30분~18시00분,127.0217818,37.5918494
영동제일유치원,사립(사인),서울특별시 강남구 삼성로120길 28,02-544-3111,,09시00분~17시00분,127.0534312,37.5175461
석문유치원,사립(법인),서울특별시 서초구 서초대로64길 73,02-585-5881,https://cafe.naver.com/smu5881,09시00분~18시00분,127.0218106,37.4926448
여나유치원,사립(사인),서울특별시 서초구 서초중앙로 200,02-536-1116,,09시00분~16시10분,127.0156289,37.4983692
영유유치원,사립(사인),서울특별시 서초구 효령로34길 72,02-586-7516,,09시00분~18시00분,127.0007487,37.4786374
서울충무초등학교병설유치원,공립(병설),서울특별시 중구 퇴계로50길 13,02-2265-4840,http://www.seoulchungmu.es.kr,09시00분~17시00분,127.0014252,37.5619627
서울한남초등학교병설유치원,공립(병설),서울특별시 용산구 한남대로 112,02-749-2393,http://hannam.sen.es.kr,09시00분~19시30분,127.005213,37.5392795
영락유치원,사립(법인),서울특별시 중구 수표로 33,02-2277-5878,http://ynchild.net,09시00분~17시00분,126.9890498,37.5639298
옥인유치원,사립(사인),서울특별시 종로구 자하문로 69,02-735-3984,http://okin.kidis.co.kr,09시10분~17시10분,126.9703364,37.5822303
충신유치원,사립(사인),서울특별시 용산구 이촌로71길 14,02-793-4266,http://kids.choongshin.or.kr/,09시00분~17시00분,126.9731239,37.52102
새움유치원,사립(사인),서울특별시 송파구 중대로27길 2,02-430-4399,,09시00분~19시00분,127.1285829,37.5035274
예랑유치원,사립(사인),서울특별시 도봉구 해등로4길 9,02-991-0652,http://www.yerangkid.com,09시00분~19시00분,127.044054,37.6485447
서울장곡초등학교병설유치원,공립(병설),서울특별시 성북구 장월로23길 16,02-919-9128,http://www.janggokcho.es.kr,09시00분~19시30분,127.048029,37.6167704
서울세곡초등학교병설유치원,공립(병설),서울특별시 구로구 고척로33길 34,02-2060-2686,http://www.segok.es.kr,09시00분~19시30분,126.8493064,37.5049033
서울면동초등학교병설유치원,공립(병설),서울특별시 중랑구 면목로57길 32,02-496-7922,http://www.myeondong.es.kr,09시00분~19시30분,127.0864262,37.5854475
삼성유치원,사립(사인),서울특별시 동대문구 사가정로 65,02-2213-0080,http://www.sskinder.com,09시30분~17시30분,127.0521428,37.5764371
참사랑유치원,사립(사인),서울특별시 금천구 벚꽃로 73,02-896-5881,http://cafe.daum.net/H-truelove/,09시00분~18시00분,126.8904264,37.4623261
온누리유치원,사립(사인),서울특별시 노원구 동일로227길 47,02-933-2083,http://cafe.daum.net/onnuri2018,09시00분~17시00분,127.0543257,37.6669183
서울자양초등학교병설유치원,공립(병설),서울특별시 광진구 아차산로44길 26,02-455-8051,http://www.chayang.es.kr,09시00분~17시00분,127.0795502,37.5369539
금성유치원,사립(사인),서울특별시 강북구 한천로123길 9,02-905-6638,,09시00분~19시30분,127.0315334,37.6362246
동명유치원,사립(사인),서울특별시 강북구 오패산로 130,02-989-5723,http://cyworld.com/dongmyoungkid,09시00분~17시00분,127.0343304,37.6135776
신극동유치원,사립(사인),서울특별시 강북구 인수봉로 260,02-904-3733,http://cafe.naver.com/sinkukdong,08시00분~22시00분,127.0115277,37.6419604
준현유치원,사립(법인),서울특별시 강동구 성내로3가길 61,02-477-0287,,09시00분~19시00분,127.1266178,37.5304544
서울신성초등학교병설유치원,공립(병설),서울특별시 관악구 신림로 114,070-8622-8144,http://www.sss.es.kr,09시00분~20시00분,126.9371588,37.4717121
꽃동산유치원,사립(법인),서울특별시 노원구 공릉로 257,02-948-9483,http://www.flowergardenkids.com,09시00분~18시00분,127.0741868,37.6302057
고덕유치원,사립(법인),서울특별시 강동구 구천면로 645,02-440-5302,,09시00분~18시00분,127.1691484,37.5508097
서울진관유치원,공립(단설),서울특별시 은평구 진관2로 111-16,02-352-9042,http://www.서울진관유치원.kr/,09시00분~17시00분,126.9309549,37.6347344
서울은빛유치원,공립(단설),서울특별시 은평구 진관3로 73-11,02-353-2230,http://www.seouleunbit.kg.kr/,09시00분~19시30분,126.9202558,37.6428182
서울공진초등학교병설유치원,공립(병설),서울특별시 강서구 마곡서로 33,02-2223-2391,http://kongjin.sen.es.kr,09시00분~20시00분,126.8226879,37.5578198
선일유치원,사립(법인),서울특별시 은평구 갈현로29길 27,02-355-2049,http://www.sunilkids.co.kr,09시00분~18시00분,126.9126858,37.6195564
서울상도유치원,공립(단설),서울특별시 동작구 만양로3길 48,02-827-0037,http://www.서울상도유치원.kr,09시00분~20시00분,126.9433476,37.5082869
총신대부속유치원,사립(법인),서울특별시 동작구 사당로 143,02-3479-0550,http://www.csuk.kr/,09시00분~18시00분,126.9668836,37.4886992
큰솔유치원,사립(사인),서울특별시 관악구 관악로30길 12,02-889-8381,,09시00분~19시30분,126.9594723,37.4849669
현대유치원,사립(사인),서울특별시 관악구 관악로40길 55,02-884-3809,http://hdkid.co.kr,09시00분~19시00분,126.959337,37.4922732
서울개봉초등학교병설유치원,공립(병설),서울특별시 구로구 개봉로16길 30-11,02-2616-8755,http://gaebong.sen.es.kr,09시00분~20시00분,126.8583927,37.489764
서울영서초등학교병설유치원,공립(병설),서울특별시 구로구 도림로20길 57,02-861-6971,http://www.youngseo.es.kr,09시30분~19시00분,126.8948349,37.4884256
서울윤중초등학교병설유치원,공립(병설),서울특별시 영등포구 여의나루로2길 14,02-783-0407,http://www.yunjung.es.kr,09시10분~19시30분,126.9227221,37.5197331
광남유치원,사립(사인),서울특별시 광진구 아차산로70길 40,02-455-6774,http://kwangnam.kidswon.com,09시00분~18시30분,127.1007099,37.5416312
보라유치원,사립(사인),서울특별시 강서구 공항대로39길 100,02-2658-1154,http://www.borakid.com,09시00분~20시00분,126.8467,37.5625349
서강유치원,사립(사인),서울특별시 강서구 금낭화로 35,02-2664-7428,http://cafe.naver.com/seokangkids,09시00분~18시30분,126.8114597,37.5685466
서울전동초등학교병설유치원,공립(병설),서울특별시 동대문구 전농로16길 61,02-2214-1528,http://www.jeon-dong.kg.kr,09시00분~20시00분,127.0612116,37.5790955
자람유치원,사립(사인),서울특별시 동대문구 고산자로 534,02-3295-3469,,09시00분~20시00분,127.0391902,37.5888748
신일유치원,사립(사인),서울특별시 중랑구 면목로44길 55,02-493-7962,http://cafe.naver.com/sinil7962,09시00분~17시00분,127.0916651,37.5810728
아랑유치원,사립(사인),서울특별시 중랑구 중랑역로 47,02-433-4976,,09시00분~20시00분,127.0767133,37.5981396
학여울유치원,사립(사인),서울특별시 노원구 동일로207길 186,02-975-6611,http://cafe.daum.net/hnukids,08시30분~19시30분,127.0617091,37.6359458
효자유치원,사립(사인),서울특별시 노원구 마들로 111,02-977-8333,http://hyojak.kidswon.com,09시00분~19시00분,127.0654547,37.6245595
우일유치원,사립(사인),서울특별시 송파구 토성로 38-6,02-475-2011,http://www.wooilkids.net,09시00분~18시00분,127.1129745,37.5293616
석촌유치원,사립(사인),서울특별시 송파구 백제고분로40길 20,02-414-6692,http://www.seokchon.kg.kr,08시40분~18시00분,127.1066942,37.5028773
서울상지초등학교병설유치원,공립(병설),서울특별시 마포구 월드컵로42길 30,02-303-8434,http://www.seoulsangji.es.kr/custom/custom.do?dcpNo=43815,09시00분~19시30분,126.8820299,37.579697
대진유치원,사립(법인),서울특별시 마포구 성미산로11길 36,02-334-3533,http://daejin.kidis.co.kr,10시00분~18시00분,126.9164176,37.5621953
예슬유치원,사립(사인),서울특별시 강동구 상암로 11,02-3013-7878,http://www.yaeseul.com,09시00분~18시00분,127.1256056,37.5522253
샛별유치원,사립(사인),서울특별시 송파구 중대로9길 53-27,02-408-1073,,09시00분~19시00분,127.1187667,37.4986249
동삼유치원,사립(사인),서울특별시 송파구 마천로41길 14,02-400-1262,,09시00분~18시30분,127.1490943,37.4970001
로뎅유치원,사립(사인),서울특별시 중랑구 봉화산로 90,02-491-2114,https://rodin.happyihome.com/,09시00분~17시00분,127.084559,37.6020031
원일유치원,사립(법인),서울특별시 양천구 목동동로 350,02-2646-4265,http://wonil.yoochiwon.kr,09시30분~17시00분,126.8808692,37.5339316
나비유치원,사립(사인),서울특별시 구로구 고척로 30,02-2612-6237,,09시20분~17시30분,126.8397416,37.4973672
조형유치원,사립(사인),서울특별시 금천구 독산로1길 3,02-803-5199,,09시30분~17시30분,126.9035199,37.4489056
준희유치원,사립(사인),서울특별시 구로구 경인로19길 8,02-2614-4845,http://www.junheekids.com,09시00분~20시00분,126.8428377,37.4960641
어린이회관유치원,사립(법인),서울특별시 광진구 광나루로 441,02-2204-6001,http://www.어린이회관유치원.com,09시00분~19시00분,127.0789343,37.5465453
영화유치원,사립(사인),서울특별시 광진구 영화사로 105,02-453-5149,,09시00분~19시30분,127.0977311,37.554061
육영유치원,사립(사인),서울특별시 서초구 방배로6길 18,02-583-8893,,09시00분~20시00분,127.0005038,37.479203
서울고명초등학교병설유치원,공립(병설),서울특별시 강동구 고덕로46길 53,02-3426-4133,http://www.gomyung.es.kr/index/index.do,09시00분~20시00분,127.1468166,37.5530382
서울명일유치원,공립(단설),서울특별시 강동구 암사19길 53,02-428-9077,http://www.서울명일유치원.com/,09시00분~17시30분,127.1419457,37.5534174
신세기유치원,사립(사인),서울특별시 강서구 허준로 47,02-2659-1257,,09시00분~19시30분,126.8472004,37.5704598
성보나유치원,사립(법인),서울특별시 강동구 고덕로83길 68,02-427-1123,http://cafe.naver.com/stbona,09시00분~18시00분,127.1691838,37.5598475
보고유치원,사립(사인),서울특별시 노원구 석계로13길 23-14,02-912-0570,,09시00분~19시30분,127.0614048,37.6195987
빛나라유치원,사립(사인),서울특별시 성북구 종암로9길 78,02-928-2004,,09시00분~20시00분,127.0329883,37.597384
생명나무유치원,사립(사인),서울특별시 송파구 송파대로8길 17,02-408-2443,https://lifetreekids.modoo.at/,09시00분~18시00분,127.1286631,37.4781272
선한유치원,사립(법인),서울특별시 성북구 길음로9길 73,02-919-2226,http://cafe.daum.net/seonhan1987,09시00분~17시00분,127.0206835,37.6039412
서울영도초등학교병설유치원,공립(병설),서울특별시 양천구 목동중앙로 70,02-2643-5978,http://www.영도병설유치원.kr,09시30분~17시30분,126.871631,37.535799
서울정곡초등학교병설유치원,공립(병설),서울특별시 강서구 방화대로50길 22,02-2666-3130,http://www.jk.es.kr,09시00분~19시00분,126.8188893,37.5769016
신영유치원,사립(사인),서울특별시 강서구 곰달래로25길 4,02-2692-2729,,09시00분~18시00분,126.849245,37.5309967
새두산유치원,사립(사인),서울특별시 구로구 도림로 59,02-854-4133,http://www.sdskinder.kr,09시00분~17시00분,126.889284,37.4891124
영은유치원,사립(사인),서울특별시 중랑구 신내로19길 42,02-3421-7557,,09시00분~18시00분,127.0909997,37.6152982
동그라미유치원,사립(사인),서울특별시 동작구 사당로28길 34,02-587-5599,http://www.donggrami.com,09시00분~19시00분,126.979384,37.4816625
세희유치원,사립(사인),서울특별시 구로구 도림로 107,02-854-3309,,09시00분~20시00분,126.8940804,37.4920497
예닮유치원,사립(사인),서울특별시 관악구 신원로3길 59-9,02-859-3677,,09시00분~18시30분,126.9252574,37.4825611
은혜유치원,사립(사인),서울특별시 동작구 성대로6길 29,02-822-3450,http://grace.kidis.co.kr,09시00분~19시00분,126.9316098,37.4985762
다솜유치원,사립(사인),서울특별시 도봉구 해등로 195,02-900-5977,,09시00분~19시30분,127.0350685,37.6572385
대원유치원,사립(사인),서울특별시 노원구 동일로228길 29,02-938-4868,http://www.deawon.co.kr,09시00분~17시00분,127.0587579,37.6678008
보배유치원,사립(사인),서울특별시 노원구 마들로3길 37,02-977-2727,http://www.ibobae.co.kr,09시00분~16시00분,127.0624477,37.6294643
우리유치원,사립(사인),서울특별시 노원구 한글비석로 281,02-951-8383,,09시00분~14시30분,127.0777138,37.6528312
초안유치원,사립(사인),서울특별시 노원구 우이천로 102,02-996-2101,,09시00분~17시00분,127.0427123,37.631234
벧엘유치원,사립(사인),서울특별시 서대문구 연희로10길 17-6,02-333-9941,http://happybethel.co.kr,09시00분~17시00분,126.9322728,37.5663313
예그린유치원,사립(사인),서울특별시 서대문구 홍제내길 84,02-391-0291,,09시00분~20시00분,126.9358396,37.5861411
색동유치원,사립(사인),서울특별시 은평구 갈현로 212-1,02-353-5671,,08시30분~17시00분,126.9142659,37.616057
아이들세상유치원,사립(사인),서울특별시 성동구 독서당로 272,02-2299-8955,http://www.kids-world.or.kr,09시00분~18시00분,127.0201279,37.5461079
사랑유치원,사립(사인),서울특별시 성북구 월곡로7길 72,02-913-4114,,09시00분~19시00분,127.0363655,37.5998174
오송유치원,사립(사인),서울특별시 강동구 구천면로39길 26,02-484-8535~7,,08시30분~18시00분,127.131938,37.5458565
서울수서초등학교병설유치원,공립(병설),서울특별시 강남구 광평로51길 46,02-459-5926,http://suseo.sen.es.kr,09시00분~20시00분,127.101587,37.4911429
서울인왕초등학교병설유치원,공립(병설),서울특별시 서대문구 세무서길 33-9,02-391-9520,http://www.inwang.es.kr,09시30분~17시30분,126.9450778,37.5902156
선경유치원,사립(사인),서울특별시 강남구 삼성로 151,02-567-3131,,09시00분~18시00분,127.0626522,37.4920929
신아유치원,사립(사인),서울특별시 강남구 개포로110길 15,02-3411-5091,,09시00분~19시00분,127.0782552,37.4922967
신양유치원,사립(사인),서울특별시 강남구 선릉로10길 18-6,02-574-2719,http://sinyangkids.moapp.kr,09시00분~19시30분,127.0617084,37.4834713
우정유치원,사립(사인),서울특별시 서초구 서초대로70길 32,02-580-8347,,09시40분~18시00분,127.0233497,37.4934234
강서유치원,사립(사인),서울특별시 강서구 까치산로 116,02-2602-5225,,09시00분~18시00분,126.8500554,37.5482143
대유유치원,사립(법인),서울특별시 강서구 곰달래로57길 39,02-2644-0393,http://www.daeyoo1.com,09시30분~20시00분,126.8616107,37.5340089
대한유치원,사립(사인),서울특별시 양천구 오목로13길 31,02-2692-7788,,08시00분~18시40분,126.844823,37.5257455
동연유치원,사립(사인),서울특별시 양천구 목동중앙북로7길 22,02-2642-4842,,09시00분~20시00분,126.8677219,37.5488806
목성유치원,사립(사인),서울특별시 양천구 목동동로 50,02-2642-7970,http://cafe.daum.net/moksung123,09시00분~18시00분,126.8608424,37.5131065
문성유치원,사립(사인),서울특별시 강서구 우현로 8,02-2604-5543,http://www.mschild.net,09시00분~17시00분,126.8445619,37.5470704
숭의여자대학교부설유치원,사립(법인),서울특별시 중구 소파로2길 10,02-3708-9078,https://kindergarten.sewc.ac.kr/user/indexMain.do?siteId=kindergarten,09시00분~18시00분,126.9875385,37.5568347
일민유치원,사립(사인),서울특별시 용산구 효창원로 17,02-704-0915,,09시00분~19시00분,126.9504857,37.5348682
한아름유치원,사립(사인),서울특별시 종로구 혜화로6길 80,02-747-2449,http://hanarum.kidis.co.kr,10시00분~18시00분,127.0011833,37.5902532
서울휘경유치원,공립(단설),서울특별시 동대문구 망우로6길 48,02-2242-0354,http://www.hwykyung.kg.kr/,09시00분~17시00분,127.0579899,37.5858907
서울도곡초등학교병설유치원,공립(병설),서울특별시 강남구 선릉로64길 33,02-2052-1007,http://www.dogok.es.kr,09시00분~19시00분,127.054826,37.499338
하늘유치원,사립(사인),서울특별시 은평구 진관1로 77-15,02-382-5006,,09시00분~19시00분,126.9287707,37.6321917
무지개영재유치원,사립(법인),서울특별시 영등포구 양산로17길 8,02-2675-0324,http://www.rainbowi.com,09시00분~17시00분,126.893751,37.5251057
예일유치원,사립(사인),서울특별시 관악구 낙성대역14길 6,02-875-7556,,09시00분~19시00분,126.9642721,37.4739171
반석유치원,사립(사인),서울특별시 강동구 양재대로124길 89-18,02-485-8540,,09시00분~18시30분,127.1473517,37.5428242
청담몬테소리유치원,사립(사인),서울특별시 강남구 학동로67길 15,02-546-3369,http://www.cheongdamkids.com,09시00분~18시00분,127.0465642,37.5193651
동인유치원,사립(사인),서울특별시 광진구 자양로30길 6,02-457-0774,http://www.dongwon.org,09시00분~19시00분,127.0851819,37.5437015
경동유치원,사립(사인),서울특별시 성동구 금호로 100,02-2298-2277,http://www.kdchild.com,09시10분~17시30분,127.0270424,37.5521931
송곡유치원,사립(법인),서울특별시 성동구 무학로6길 41,02-2295-2111,http://songkok.co.kr,09시00분~17시00분,127.0346505,37.5651314
현대유치원,사립(사인),서울특별시 도봉구 삼양로 574-38,02-991-9483,http://:www.hyundaikids.com,09시00분~17시00분,127.0139835,37.6541899
백상유치원,사립(사인),서울특별시 금천구 탑골로3길 50,02-803-5485,,09시00분~18시00분,126.914258,37.4534919
서울혜화초등학교병설유치원,공립(병설),서울특별시 종로구 혜화로 32,02-763-0124,http://hyehwa.sen.es.kr/,09시00분~19시00분,127.0000582,37.5888651
서울구현초등학교병설유치원,공립(병설),서울특별시 은평구 갈현로15길 51,02-357-6215,http://www.guhyun.es.kr/,09시00분~19시30분,126.9058097,37.6095275
아랑유치원,사립(사인),서울특별시 성북구 북악산로 844,02-927-1636,http://www.arang.kg.kr,07시30분~19시30분,127.0178202,37.5977633
예일유치원,사립(사인),서울특별시 광진구 천호대로111길 41,02-452-5544,http://www.yeilkid.co.kr,09시00분~20시00분,127.0827855,37.5582618
우람유치원,사립(사인),서울특별시 강서구 방화대로45길 32,02-2667-0645,,09시00분~17시00분,126.8148524,37.5744644
서울면목초등학교병설유치원,공립(병설),서울특별시 중랑구 면목로 434,02-2209-4341,http://www.myeonmok.es.kr,09시00분~17시00분,127.0876445,37.5913857
서울문창초등학교병설유치원,공립(병설),서울특별시 동작구 신대방2길 14,02-836-9535,,09시00분~17시00분,126.9140157,37.4889999
잠실럭키유치원,사립(사인),서울특별시 송파구 올림픽로 135,02-424-5665,,09시00분~17시00분,127.0882921,37.514099
구룡유치원,사립(사인),서울특별시 서초구 논현로5길 31-11,02-577-1986,https://guryung.kidsnote.ac/,09시00분~19시00분,127.0490644,37.4711879
남부유치원,사립(사인),서울특별시 강남구 언주로 123,02-572-2371,,09시00분~17시00분,127.048708,37.4868184
서울도봉초등학교병설유치원,공립(병설),서울특별시 도봉구 도봉로173길 96,02-954-6672,http://www.dobong.es.kr/,09시00분~19시00분,127.038216,37.6794475
서울수암초등학교병설유치원,공립(병설),서울특별시 노원구 중계로12길 9,02-3392-0354,http://www.suam.es.kr,09시00분~19시00분,127.0814438,37.6481029
서울매봉초등학교병설유치원,공립(병설),서울특별시 구로구 고척로21길 55,070-8622-4871,http://www.maebong.es.kr,09시30분~17시30분,126.8445071,37.504415
서울서정초등학교병설유치원,공립(병설),서울특별시 양천구 목동로8길 19,02-2643-7004,http://www.sj.es.kr,09시30분~17시30분,126.8671925,37.524034
종인유치원,사립(사인),서울특별시 관악구 솔밭로 20,02-878-1332,,09시00분~20시00분,126.9634658,37.4790911
하늘유치원,사립(법인),서울특별시 관악구 양산길 18,02-871-8508,https://skykid.kidsnote.ac,09시00분~17시00분,126.9322529,37.4740556
고운유치원,사립(사인),서울특별시 노원구 동일로208길 34,02-948-6700,,09시00분~17시00분,127.0669331,37.6440335
까치유치원,사립(사인),서울특별시 노원구 덕릉로79길 23,02-937-0331,,09시00분~18시00분,127.0729468,37.6561457
서울고척초등학교병설유치원,공립(병설),서울특별시 구로구 경서로 31,02-2612-8307,http://www.gocheok.kg.kr,09시00분~19시30분,126.8570815,37.5008611
서울남유치원,사립(사인),서울특별시 구로구 구로동로17길 37-4,02-865-0137,,09시00분~17시00분,126.8818028,37.4880507
서울탑동유치원,공립(단설),서울특별시 금천구 탑골로 47-3,02-894-6056,http://www.topdong.kg.kr/,09시30분~19시30분,126.9148596,37.4525333
살레시오성미유치원,사립(법인),서울특별시 영등포구 신길로 93,02-845-7306,http://www.smi.or.kr,09시00분~17시00분,126.9090277,37.5015235
피노키오유치원,사립(사인),서울특별시 은평구 증산로15길 35-8,02-373-1253,http://pino.yoochiwon.kr,09시00분~20시00분,126.9089604,37.5899954
한양제일유치원,사립(법인),서울특별시 서대문구 통일로25길 30,02-737-5182,http://www.hyjikid.net,09시00분~19시00분,126.9471943,37.5830443
서울신원초등학교병설유치원,공립(병설),서울특별시 양천구 남부순환로58길 32,02-2608-4679,https://shinwon.es.kr,09시00분~19시30분,126.8300124,37.5294742
한별유치원,사립(사인),서울특별시 도봉구 덕릉로59아길 17,02-907-4782,http://club.cyworld.com/clubV1/Home.cy/54802175,08시30분~17시00분,127.0369785,37.6418556
경복유치원,사립(사인),서울특별시 서대문구 세검정로1길 95,02-396-8384,http://www.kyung-bok.co.kr,09시00분~20시00분,126.9446087,37.5953653
성산아트유치원,사립(사인),서울특별시 마포구 새터산2길 34,02-373-9190,https://sungsanart.moapp.kr/,09시00분~19시00분,126.9090596,37.5653532
제일무궁화유치원,사립(사인),서울특별시 송파구 동남로16길 3,02-402-9436,,09시00분~17시00분,127.1310033,37.4947419
동화나라유치원,사립(사인),서울특별시 노원구 덕릉로 780,02-939-6715,http://동화나라.kr,09시00분~18시30분,127.0796828,37.6668306
서울송전초등학교병설유치원,공립(병설),서울특별시 송파구 석촌호수로 159,02-420-6343,http://songjeon.kg.kr/,08시50분~20시00분,127.0949878,37.508546
행복유치원,사립(법인),서울특별시 동작구 양녕로23길 25,02-3280-1188,http://www.sokahappy.co.kr,08시30분~18시00분,126.9411278,37.4956795
명덕유치원,사립(사인),서울특별시 강동구 동남로83길 66,02-426-1196,,09시00분~17시30분,127.1531901,37.559887
올림픽유치원,사립(사인),서울특별시 송파구 양재대로 1218,02-400-2440,,09시30분~17시30분,127.1333804,37.5141141
예은유치원,사립(사인),서울특별시 송파구 오금로32길 13,02-424-6768,,09시00분~18시00분,127.1204031,37.5047102
목원유치원,사립(사인),서울특별시 구로구 개봉로20길 6,02-2066-6060,,09시30분~19시00분,126.858586,37.4919193
동국유치원,사립(사인),서울특별시 중랑구 용마산로 250,02-436-1035,http://www.donggukschool.co.kr/,09시00분~17시00분,127.0889774,37.574934
봄내유치원,사립(사인),서울특별시 중랑구 면목로61길 50,02-438-9711,http://bomnae.or.kr,09시00분~17시00분,127.0855593,37.5859724
유정유치원,사립(사인),서울특별시 은평구 진흥로12길 23,02-354-2411,http://yujung.platfarm.co.kr,09시00분~19시30분,126.9267583,37.6066835
와우랩유치원,사립(사인),서울특별시 은평구 응암로28길 34,02-359-6966,http://www.wowlab.co.kr,09시00분~19시00분,126.9215166,37.5939943
정님유치원,사립(사인),서울특별시 마포구 숭문6길 19,02-713-8053,http://cafe.daum.net/2001jungnim,09시30분~18시00분,126.9469124,37.5500009
서울청덕초등학교병설유치원,공립(병설),서울특별시 성북구 정릉로9라길 11,02-919-8685,http://cheongdeok.es.kr/,09시00분~19시30분,127.0003602,37.6119972
가명유치원,사립(법인),서울특별시 중구 청파로 447-1,02-362-7593,,09시00분~18시00분,126.9671908,37.5591363
근화유치원,사립(법인),서울특별시 중구 동호로20길 24,02-2237-1684,http://guenhwa.com,09시00분~17시00분,127.0090562,37.5592428
배화여자대학교 부속 배화유치원,사립(법인),서울특별시 종로구 필운대로1길 34,02-737-1433,http://www.baewha.ac.kr/mbs/child,09시00분~17시00분,126.9662387,37.5788967
탑주유치원,사립(법인),서울특별시 성북구 화랑로13길 17,02-913-5548,http://cafe.naver.com/tapju,09시00분~18시00분,127.0410587,37.6047392
성실유치원,사립(사인),서울특별시 강북구 삼각산로 143-1,02-905-8700,http://www.성실유치원.kr,09시00분~17시00분,127.0188183,37.6424628
우일유치원,사립(사인),서울특별시 강서구 곰달래로47길 88,02-2602-4026,,09시00분~18시00분,126.8552458,37.5351547
한영유치원,사립(사인),서울특별시 영등포구 영중로41길 5,02-2677-5422,,09시30분~19시00분,126.9047996,37.5284975
슬기유치원,사립(사인),서울특별시 광진구 자양로 296,02-446-0581,http://슬기유치원.com/,09시30분~17시30분,127.0926398,37.5520577
윤진유치원,사립(사인),서울특별시 광진구 아차산로21길 15,02-464-8174,,09시00분~20시00분,127.0650401,37.5427147
자양하나유치원,사립(사인),서울특별시 광진구 아차산로41길 22-5,02-456-1799,http://www.hanayoochiwon.com,09시00분~17시00분,127.0786331,37.538839
서울가락초등학교병설유치원,공립(병설),서울특별시 송파구 송파대로37길 45-0(가락동 가락초등학교),02-3402-1154,http://www.seoulgarak.es.kr,09시00분~19시00분,127.1077449,37.500119
서울길동초등학교병설유치원,공립(병설),서울특별시 강동구 양재대로116길 69,02-474-3956,http://www.gildong.es.kr,09시00분~17시00분,127.1446301,37.5383713
예원유치원,사립(사인),서울특별시 송파구 마천로 30,02-2203-9131,,09시00분~20시00분,127.1240488,37.5092246
햇빛유치원,사립(사인),서울특별시 송파구 올림픽로 419,02-421-2234,,09시00분~18시00분,127.1141316,37.5204949
계상유치원,사립(법인),서울특별시 양천구 남부순환로86길 22,02-2625-5608,http://www.kyesangkids.com,09시00분~20시00분,126.8398579,37.5125058
나사렛유치원,사립(법인),서울특별시 마포구 매봉산로 24-1,02-303-6721,,09시30분~19시00분,126.8903961,37.5743787
우리곰유치원,사립(사인),서울특별시 강서구 허준로 23,02-2659-3323,,09시00분~18시30분,126.8450479,37.5713038
희산유치원,사립(사인),서울특별시 노원구 덕릉로 459-18,02-933-2367,http://hskidschool.itrocks.kr,09시00분~20시00분,127.0609233,37.6461663
동선유치원,사립(법인),서울특별시 성북구 보문로 98,02-926-3704,http://dongsun.kidis.co.kr,09시00분~20시00분,127.0203673,37.5840077
명덕유치원,사립(사인),서울특별시 성북구 삼양로 74,02-989-0175,,09시00분~18시00분,127.0229054,37.6098343
녹원유치원,사립(사인),서울특별시 강동구 상암로63길 39-10,02-481-3141,,09시00분~18시00분,127.153579,37.5485186
서울양목초등학교병설유치원,공립(병설),서울특별시 양천구 목동로11길 30,02-2604-8297,http://www.yangmok.es.kr,09시30분~19시30분,126.8616887,37.5236657
세진유치원,사립(사인),서울특별시 양천구 월정로46길 9,02-2608-0303,,09시00분~18시00분,126.832753,37.5409173
신정유치원,사립(사인),서울특별시 양천구 신정로7길 81-4,02-2696-0136,https://blog.naver.com/sj_0136,09시00분~19시00분,126.8333713,37.5135682
동천유치원,사립(사인),서울특별시 영등포구 신길로40길 10,02-842-8972,,09시00분~18시00분,126.9122574,37.506536
명신유치원,사립(법인),서울특별시 영등포구 신길로41라길 13-9,02-832-5543,http://www.myoungshin.co.kr,09시30분~17시30분,126.9082057,37.5074898
윤경유치원,사립(사인),서울특별시 중랑구 숙선옹주로 91,02-3421-7184,,09시30분~20시00분,127.0848257,37.6162866
한양유치원,사립(사인),서울특별시 동대문구 답십리로 184,02-2249-6001,http://cafe.naver.com/hanyangkg,09시30분~19시00분,127.0603981,37.5717546
양지유치원,사립(사인),서울특별시 금천구 독산로108길 37,02-839-4769,http://www.yangjikids.co.kr/,09시00분~22시00분,126.9059872,37.4796901
우성유치원,사립(사인),서울특별시 영등포구 도신로 68-1,02-847-2525,,09시00분~19시40분,126.9006193,37.5057435
서울청룡초등학교병설유치원,공립(병설),서울특별시 관악구 관악로5길 61,02-871-2429,http://www.chungryong.es.kr/,09시00분~19시30분,126.9512119,37.4757031
양문유치원,사립(사인),서울특별시 동작구 시흥대로 644-1,02-834-6864,,09시00분~19시00분,126.9072881,37.4889649
보람유치원,사립(법인),서울특별시 은평구 갈현로4길 42,02-352-7615,,09시00분~18시30분,126.9142265,37.6000634
성심유치원,사립(법인),서울특별시 성동구 무학로10길 21,02-2293-0621,,09시00분~18시00분,127.0335849,37.5661319
화랑유치원,사립(사인),서울특별시 강동구 천중로35길 37-1,02-472-1777,,09시00분~18시00분,127.1377658,37.5429258
서울역삼초등학교병설유치원,공립(병설),서울특별시 강남구 강남대로66길 21,02-569-2731,http://www.yeoksam.sen.es.kr,09시00분~19시30분,127.0328903,37.4928441
세하유치원,사립(사인),서울특별시 동대문구 장안벚꽃로 107,02-2213-1382,https://blog.naver.com/sehakids,09시00분~18시00분,127.0743305,37.5692516
서울돈암초등학교병설유치원,공립(병설),서울특별시 성북구 동소문로13길 38,02-926-2357,http://www.donam.es.kr,09시00분~20시00분,127.0127822,37.5933783
서울수유초등학교병설유치원,공립(병설),서울특별시 강북구 삼양로74길 39,02-988-4612,http://suyu.sen.es.kr,09시00분~19시30분,127.02024,37.6308423
공항제일유치원,사립(사인),서울특별시 강서구 개화동로23길 100,02-2662-3744,,09시00분~17시00분,126.810686,37.5652411
목동다솜유치원,사립(사인),서울특별시 양천구 월정로9길 23-4,02-2692-8975,https://cafe.naver.com/mokdongdasom,09시00분~17시00분,126.838771,37.5242536
등현유치원,사립(사인),서울특별시 강서구 화곡로63가길 63,02-3662-2205,,09시00분~17시00분,126.8485276,37.5614625
상명사대부속유치원,사립(법인),서울특별시 종로구 홍지문2길 1,02-396-1602,http://www.smu-kindergarten.com,09시30분~17시30분,126.9565733,37.6005715
서울덕수초등학교병설유치원,공립(병설),서울특별시 중구 덕수궁길 140,02-720-7275,http://deoksoo.sen.es.kr,09시00분~17시00분,126.9745085,37.5686069
서울재동초등학교병설유치원,공립(병설),서울특별시 종로구 북촌로4길 7,02-764-2830,http://www.jaedong.es.kr/,09시00분~19시40분,126.985664,37.5798942
원유치원,사립(사인),서울특별시 용산구 이촌로81길 14,02-797-0038,,09시00분~17시00분,126.9768083,37.5196193
유성유치원,사립(사인),서울특별시 용산구 회나무로13가길 16,02-792-8691,http://www.yusungkids.org/,08시40분~18시00분,126.9905988,37.5405611
청룡유치원,사립(사인),서울특별시 종로구 동망산길 62,02-742-7782,,09시00분~18시30분,127.0166573,37.5794176
희망찬유치원,사립(법인),서울특별시 성북구 동소문로34길 24,02-926-6888,http://cafe.daum.net/hmcps,09시00분~20시00분,127.0237455,37.5992902
서울방이초등학교병설유치원,공립(병설),서울특별시 송파구 위례성대로10길 4,02-421-0776,http://www.bangi.es.kr,09시00분~17시00분,127.1206206,37.5131637
서울신명초등학교병설유치원,공립(병설),서울특별시 강동구 명일로24길 33,02-489-5580,,09시00분~20시00분,127.1498297,37.5408507
샛별유치원,사립(법인),서울특별시 동작구 상도로50길 36-1,02-3280-8993,http://cafe.daum.net/Stellar1004,09시00분~17시00분,126.9502778,37.4980228
강동유정유치원,사립(사인),서울특별시 강동구 상일로10길 41,428-4466,,09시00분~18시00분,127.1749344,37.5505439
보성유치원,사립(사인),서울특별시 광진구 아차산로 552,02-453-9712,http://www.bosungkid.co.kr,09시10분~17시10분,127.104593,37.5433727
아름유치원,사립(사인),서울특별시 강북구 도봉로 88,02-981-3465,http://cafe.daum.net/areum41,09시00분~20시00분,127.0304012,37.6169783
은하유치원,사립(사인),서울특별시 성북구 돌곶이로 64,02-962-7647,,09시00분~20시00분,127.0586891,37.6094855
한마음유치원,사립(사인),서울특별시 성북구 월계로 124,02-942-5353,,09시30분~16시30분,127.0411948,37.6161925
신암유치원,사립(사인),서울특별시 성북구 보문로27길 15,02-928-6004,http://www.shinam.net,09시00분~18시00분,127.0173435,37.5866496
서울미래초등학교병설유치원,공립(병설),서울특별시 구로구 새말로 73,02-858-1965,http://www.mirae.es.kr,09시00분~20시00분,126.8880525,37.5050582
성락유치원,사립(법인),서울특별시 영등포구 가마산로51길 9,02-835-3947,,09시00분~20시00분,126.9011657,37.5039645
솔샘유치원,사립(사인),서울특별시 강북구 솔샘로 159,02-984-1616,,09시00분~20시00분,127.0107551,37.6207527
유니유치원,사립(사인),서울특별시 강서구 허준로 175,02-2659-5216,,09시00분~17시00분,126.8591405,37.5632054
서울영동초등학교병설유치원,공립(병설),서울특별시 영등포구 국회대로53길 20,02-2635-0584,,09시30분~19시30분,126.9075035,37.5269547
서울연은초등학교병설유치원,공립(병설),서울특별시 은평구 백련산로2길 35,02-302-4593,http://www.yeoneun.es.kr,09시30분~19시30분,126.9250676,37.5903775
서울묵현초등학교병설유치원,공립(병설),서울특별시 중랑구 동일로157길 75,02-977-9105,http://www.mh.es.kr,09시00분~20시00분,127.0735418,37.6091525
서울남천초등학교병설유치원,공립(병설),서울특별시 송파구 성내천로 207,02-3401-0687,http://s-namcheon.es.kr,09시00분~17시00분,127.1505625,37.5011735
창문유치원,사립(법인),서울특별시 강북구 월계로 61,02-943-7780,http://changmunkids.kr,09시00분~17시00분,127.0364523,37.6132796
은아유치원,사립(사인),서울특별시 관악구 남부순환로246길 25,02-882-0018,http://www.euna.co.kr,09시00분~18시00분,126.964456,37.4753334
공능유치원,사립(사인),서울특별시 노원구 동일로186길 27,02-972-0481,http://kongneungkidis.co.kr,09시00분~18시30분,127.0740569,37.6251499
서울국악유치원,사립(법인),서울특별시 금천구 시흥대로38길 62,02-896-2093,http://www.seoulkugak.com,09시00분~19시00분,126.9065668,37.4461135
서울영등포초등학교병설유치원,공립(병설),서울특별시 영등포구 경인로 756,02-2632-9781,http://www.ydp.es.kr,09시00분~17시00분,126.8986818,37.5129067
성심유치원,사립(사인),서울특별시 영등포구 도림로 339,02-843-2220,,09시00분~17시00분,126.9005604,37.5074459
조은유치원,사립(사인),서울특별시 서대문구 증가로 191,02-309-4415,http://www.joeun.kg.kr,09시00분~18시30분,126.9165402,37.5779554
충암유치원,사립(법인),서울특별시 은평구 가좌로5길 5,02-372-8678,http://www.choongam.kg.kr,09시30분~19시00분,126.9218823,37.5851225
현대홍익유치원,사립(사인),서울특별시 서대문구 모래내로 432,02-720-3004,http://www.hdhongik.go.kr,09시00분~19시30분,126.9432737,37.5840725
방화이화유치원,사립(사인),서울특별시 강서구 양천로17길 4-55,02-2662-2017,,09시00분~17시00분,126.8135338,37.5740907
사슴유치원,사립(사인),서울특별시 양천구 곰달래로9길 12,02-2605-1357,,09시00분~20시00분,126.8358619,37.5309106
서울유치원,사립(사인),서울특별시 동대문구 한천로58길 47,02-959-9411,http://www.seoulkid.com,09시00분~18시00분,127.0685121,37.6001386
녹번유치원,사립(사인),서울특별시 은평구 은평로16길 11,02-355-0476,http://www.eungam.or.kr,09시00분~18시00분,126.9299588,37.5998917
라라유치원,사립(사인),서울특별시 은평구 갈현로 170-1,02-355-0105,http://cafe.daum.net/rarakide20,09시00분~18시00분,126.9119524,37.6131344
신예유치원,사립(사인),서울특별시 양천구 신정로 290,02-2065-7466,http://sinye.kidswon.com,09시00분~17시30분,126.852887,37.5118581
기린유치원,사립(사인),서울특별시 송파구 백제고분로41길 20,02-418-1750,,07시00분~20시00분,127.1075972,37.5077769
파란나라유치원,사립(사인),서울특별시 영등포구 도신로8길 17,02-844-7115,,09시00분~19시00분,126.8973318,37.5031809
그림유치원,사립(사인),서울특별시 송파구 동남로23나길 6,02-403-0687,,09시00분~19시00분,127.1330072,37.5023706
아이코리아부속새세대유치원,사립(법인),서울특별시 송파구 충민로6길 17,02-2144-1150,,09시00분~14시00분,127.1337599,37.4822464
나래유치원,사립(사인),서울특별시 중랑구 봉우재로41길 12,02-432-5009,http://www.naraekinder.com/,09시00분~22시00분,127.0896277,37.5940411
동일유치원,사립(법인),서울특별시 중랑구 면목로35길 21,02-432-2949,,09시00분~18시00분,127.0846466,37.5782163
미광유치원,사립(사인),서울특별시 중랑구 용마산로115나길 7,02-493-4874,http://cafe.daum.net/chris625,09시00분~17시00분,127.0966131,37.5979062
사군자유치원,사립(사인),서울특별시 동대문구 장한로5길 51,02-2245-5801,,09시00분~20시00분,127.0637857,37.5652039
산정현유치원,사립(법인),서울특별시 동대문구 회기로23가길 33,02-963-0371,,09시00분~19시00분,127.0540769,37.5926893
새샛별유치원,사립(사인),서울특별시 중랑구 망우로 458,02-433-3668,http://cafe.daum.net/star433-3668,09시00분~20시00분,127.1029979,37.5999732
서울용강초등학교병설유치원,공립(병설),서울특별시 마포구 백범로17길 9,02-711-2578,http://www.yonggang.es.kr/notice/board.do?bcfNo=1441301,09시00분~20시00분,126.9437895,37.5483511
이화여자대학교사범대학부속이화유치원,사립(법인),서울특별시 서대문구 이화여대길 52,02-362-6177,http://www.ewha-kids.com,09시00분~14시00분,126.9469295,37.5624533
인왕유치원,사립(사인),서울특별시 서대문구 통일로32길 23,02-738-1486,,09시00분~20시00분,126.9494924,37.5854795
영재유치원,사립(사인),서울특별시 성북구 종암로15길 1,02-925-4114,,09시00분~20시00분,127.034777,37.5974257
예지유치원,사립(사인),서울특별시 강서구 남부순환로11가길 89,02-2661-5969,,09시30분~18시00분,126.8132285,37.557662
진일유치원,사립(사인),서울특별시 강서구 허준로 121,02-2659-4747,,09시00분~19시30분,126.8539981,37.5663993
개봉샛별유치원,사립(법인),서울특별시 구로구 개봉로18길 11,02-2615-8812,http://cafe.daum.net/gooddaddy,09시00분~18시00분,126.8569966,37.4915886
파랑새유치원,사립(사인),서울특별시 영등포구 가마산로 384,02-834-3050,,09시00분~19시00분,126.900284,37.5023885
평화유치원,사립(사인),서울특별시 영등포구 선유동2로 40,02-2635-0525,http://www.평화유치원.kr/,09시00분~17시30분,126.8968115,37.5323787
선덕유치원,사립(사인),서울특별시 노원구 섬밭로 190,02-973-1500,,09시00분~18시30분,127.0671382,37.6330696
염광유치원,사립(법인),서울특별시 노원구 월계로45가길 9,02-902-5024,http://ykkids.com,09시30분~19시00분,127.0493314,37.6292422
서울북성유치원,공립(단설),서울특별시 서대문구 북아현로1나길 32,02-365-2061,http://www.서울북성유치원.com/,09시30분~17시30분,126.9512727,37.5594555
성수아름유치원,사립(사인),서울특별시 광진구 뚝섬로 476-15,02-464-8397,http://sungsuhappy.kidsnote.ac/,09시00분~19시00분,127.0624034,37.5363955
정신유치원,사립(사인),서울특별시 광진구 뚝섬로23길 27,02-466-7773,http://www.uriidle.com,09시30분~19시00분,127.0646102,37.537278
푸른유치원,사립(사인),서울특별시 강남구 일원로14길 25,02-2226-2697,,09시00분~17시00분,127.080803,37.4837115
하나유치원,사립(사인),서울특별시 서초구 잠원로8길 13,02-595-6585,,09시00분~17시00분,127.0102835,37.5152101
서울강덕초등학교병설유치원,공립(병설),서울특별시 강동구 동남로82길 94-54,02-426-0878,http://www.gangdeok.es.kr/,09시00분~20시00분,127.1607835,37.5590042
근화유치원,사립(사인),서울특별시 강동구 고덕로 240,02-481-1144,,09시00분~18시00분,127.1520937,37.553761
별나라유치원,사립(사인),서울특별시 송파구 새말로8길 14,02-406-4915,,09시00분~19시30분,127.1264082,37.4814625
둔촌유치원,사립(사인),서울특별시 강동구 풍성로63길 73,02-475-7913,http://doonchon.happyihome.com,09시00분~17시00분,127.139709,37.5313795
운산유치원,사립(사인),서울특별시 강북구 수유로4길 58,02-982-4622,http://cafe.daum.net/han-kids,09시00분~18시00분,127.0217192,37.63208
사랑유치원,사립(사인),서울특별시 동작구 여의대방로24나길 6,02-822-0102,http://wwwsarangkid.co.kr,08시00분~19시00분,126.9211851,37.4984094
산내들유치원,사립(사인),서울특별시 노원구 공릉로46길 32,02-978-8882,,09시00분~17시00분,127.081807,37.6268774
서울베네딕도유치원,사립(법인),서울특별시 성북구 아리랑로16길 52,02-6922-5900,,09시00분~18시00분,127.0160243,37.599127
무지개유치원,사립(사인),서울특별시 동작구 상도로 407-5,02-817-9854,,09시00분~18시00분,126.9572634,37.4933902
벧엘유치원,사립(법인),서울특별시 동작구 장승배기로20길 46-3,02-814-1482,http://www.bethelkids.or.kr,09시00분~17시00분,126.9426249,37.5090103
서울유치원,사립(사인),서울특별시 관악구 관악로37길 20,02-878-3773,http://www.seoul-montessori.com,09시00분~17시00분,126.956187,37.4878483
월드유치원,사립(사인),서울특별시 마포구 월드컵로42길 38,02-302-8780,http://worldforkids.net,09시00분~17시00분,126.8811253,37.5803732
송파유정유치원,사립(사인),서울특별시 송파구 충민로 177,02-408-3408,,09시00분~18시00분,127.1330753,37.4857195
예은유치원,사립(사인),서울특별시 강서구 까치산로4길 101-5,02-2698-4096,http://yeaeun.kidis.co.kr/index.php,09시00분~18시00분,126.8472446,37.5389423
서울천왕초등학교병설유치원,공립(병설),서울특별시 구로구 천왕로1길 11,02-6343-4382,http://www.cheonwang.es.kr,09시30분~20시00분,126.836878,37.4814808
수미유치원,사립(사인),서울특별시 강서구 강서로17길 130,02-2697-3355,,09시00분~17시00분,126.8385464,37.5321714
수영유치원,사립(사인),서울특별시 양천구 목동서로 38,02-2646-4056,https://blog.naver.com/sykid4050,09시00분~19시00분,126.8793709,37.5395399
사랑유치원,사립(사인),서울특별시 구로구 신도림로11가길 36,02-2634-7918,,09시00분~17시00분,126.8765617,37.5073012
푸른솔유치원,사립(사인),서울특별시 동대문구 전농로10길 20,02-2243-3553,http://www.purunsol.kg.kr,09시00분~17시00분,127.0597188,37.5744613
나랑유치원,사립(법인),서울특별시 관악구 봉천로33길 57,02-3285-5555,http://www.narang.kg.kr,09시00분~17시00분,126.9439594,37.4857303
시내유치원,사립(사인),서울특별시 금천구 가산로 99,02-858-1436,,09시00분~18시00분,126.8923307,37.4749946
여의유치원,사립(사인),서울특별시 영등포구 국제금융로7길 3,02-782-1492,,09시00분~17시00분,126.9312112,37.5225674
성모유치원,사립(사인),서울특별시 동작구 장승배기로5길 16,02-823-6878,http://cafe.daum.net,09시00분~20시00분,126.93997,37.501589
덕성여자대학교부속유치원,사립(법인),서울특별시 도봉구 삼양로144길 33,02-995-0611,http://dskinder.or.kr/,09시00분~17시00분,127.0163814,37.6511104
미광유치원,사립(사인),서울특별시 노원구 공릉로34길 62,02-948-9677,,09시00분~17시00분,127.0831073,37.6233915
청암유치원,사립(사인),서울특별시 노원구 중계로 244,02-934-5119,http://cakids.co.kr/,08시00분~18시00분,127.0738871,37.6516119
풍천유치원,사립(사인),서울특별시 노원구 노원로 522,02-937-1616,,09시00분~17시00분,127.0610064,37.6611691
하늘유치원,사립(사인),서울특별시 노원구 초안산로 89,02-998-0285,,09시00분~17시00분,127.0514825,37.6355938
아이들이야기유치원,사립(사인),서울특별시 마포구 토정로31길 57-11,02-717-6472,,09시00분~16시00분,126.9438902,37.5436216
삼성유치원,사립(사인),서울특별시 서대문구 증가로20나길 12,02-372-2211,http://kindergarten.co.kr,09시00분~18시30분,126.919329,37.5816121
새나유치원,사립(사인),서울특별시 서대문구 가재울로 45,02-304-3130,http://www.새나유치원.kr,09시00분~18시00분,126.9205621,37.5746224
서울염경초등학교병설유치원,공립(병설),서울특별시 강서구 양천로69길 49,02-3662-1910,http://www.yeomkyoung.es.kr,09시30분~17시30분,126.8712057,37.5550049
서울반포초등학교병설유치원,공립(병설),서울특별시 서초구 신반포로 55-4,02-591-5204,http://www.banpokid.co.kr,09시00분~19시30분,126.9911078,37.5027756
신우주유치원,사립(사인),서울특별시 강남구 일원로 120,02-2226-5170,,09시00분~17시00분,127.0825826,37.484284
서울장충유치원,공립(단설),서울특별시 중구 청구로17길 40,02-2234-6047,http://www.서울장충유치원.kr/,09시00분~17시00분,127.0113841,37.5595236
운현유치원,사립(법인),서울특별시 종로구 삼일대로 460,02-742-7790,http://www.unhyunms.co.kr,09시00분~17시00분,126.9878469,37.5758672
정우유치원,사립(법인),서울특별시 용산구 원효로 179,02-712-2211,,09시00분~19시00분,126.9625184,37.5361279
한가람유치원,사립(사인),서울특별시 용산구 이촌로89길 50,02-796-8865,http://hangaram.kidis.co.kr,09시00분~17시00분,126.9812667,37.5195227
대원유치원,사립(사인),서울특별시 광진구 뚝섬로41길 20,02-458-0820,,09시00분~17시00분,127.0755971,37.5345353
서울자곡초등학교병설유치원,공립(병설),서울특별시 강남구 자곡로 150,02-3413-8780,http://www.jagok.es.kr,09시00분~16시00분,127.0998495,37.4719552
굿프랜드유치원,사립(사인),서울특별시 영등포구 대방천로 180,02-847-3490,https://cafe.naver.com/gfkindergarten,09시00분~17시00분,126.9111165,37.4978665
등촌이화유치원,사립(사인),서울특별시 강서구 화곡로63가길 26,02-2658-3123,http://www.ewkinder.co.kr,09시00분~19시30분,126.8479654,37.5597451
하나유치원,사립(사인),서울특별시 은평구 진관4로 93,02-353-7004,http://hanakids.kr,09시30분~19시30분,126.9298232,37.6480683
강일늘사랑유치원,사립(사인),서울특별시 강동구 아리수로98길 62,02-3426-8700,http://alwayslove.co.kr,09시00분~18시30분,127.1783046,37.5631281
광장유치원,사립(법인),서울특별시 광진구 광장로7길 17,02-455-5016,,09시30분~18시30분,127.105268,37.5484417
서울양남초등학교병설유치원,공립(병설),서울특별시 광진구 뚝섬로64길 71,02-458-9361,http://www.s-yangnam.es.kr,09시00분~19시00분,127.0896612,37.5308241
서울공릉초등학교병설유치원,공립(병설),서울특별시 노원구 동일로173길 12,02-973-3074,http://gongrung.es.kr,09시00분~19시20분,127.074191,37.6189068
유안유치원,사립(사인),서울특별시 강북구 인수봉로 297,02-904-4576,,09시00분~18시00분,127.0104979,37.6452766
옥수삼성유치원,사립(사인),서울특별시 성동구 독서당로 218,02-2293-5657,http://oksu-samsung.co.kr,09시00분~18시00분,127.0140131,37.5421105
광운유치원,사립(법인),서울특별시 성북구 장월로42길 9,02-915-0903,http://www.kwangwoon.or.kr,09시00분~17시00분,127.0538893,37.6191242
서울은명초등학교병설유치원,공립(병설),서울특별시 은평구 은평로4길 21-9,02-359-9510,,09시00분~17시00분,126.9183037,37.5976951
아란유치원,사립(사인),서울특별시 양천구 목동서로 100,02-2646-5674,,09시00분~18시00분,126.8730018,37.5341812
아이디유치원,사립(사인),서울특별시 노원구 동일로221길 32,02-937-0604,http://www.1004id.com,09시00분~19시30분,127.0571782,37.6591653
서울우면초등학교병설유치원,공립(병설),서울특별시 서초구 태봉로 59,02-2057-1676,http://woomyeon.sen.es.kr/,09시00분~19시30분,127.0237575,37.4646922
서울대왕초등학교병설유치원,공립(병설),서울특별시 강남구 헌릉로618길 8,02-3412-0840,http://www.dwkids.kg.kr/,09시00분~19시30분,127.1055679,37.4645468
서울창신초등학교병설유치원,공립(병설),서울특별시 종로구 지봉로 73,02-763-8812,http://www.chang-shin.es.kr,09시00분~19시00분,127.0143125,37.5760822
하늘빛유치원,사립(사인),서울특별시 강남구 양재대로55길 12,02-451-7000,,09시00분~17시00분,127.089419,37.4930321
돌샘유치원,사립(사인),서울특별시 강남구 개포로 516,02-3411-0003,,09시00분~19시00분,127.0715123,37.488892
럭키유치원,사립(사인),서울특별시 강남구 논현로 213,02-573-7048,http://www.luckids.org,09시00분~18시00분,127.0399786,37.490352
리라유치원,사립(사인),서울특별시 강남구 광평로19길 15,02-2226-8686,,09시00분~19시00분,127.0851192,37.4848984
묘동유치원,사립(법인),서울특별시 강남구 도곡로78길 8,02-556-8737,http://md.kidis.co.kr,09시00분~18시00분,127.0587633,37.4974052
동산유치원,사립(사인),서울특별시 금천구 시흥대로152길 35,02-866-6571,,09시00분~17시00분,126.9009628,37.4769043
은혜유치원,사립(법인),서울특별시 은평구 통일로78가길 20,02-355-3913,http://www.eunhye.kg.kr,09시30분~14시30분,126.9275503,37.6177823
서울구로남초등학교병설유치원,공립(병설),서울특별시 구로구 디지털로27길 76,02-853-5025,,09시30분~19시30분,126.8906576,37.4849264
서울양화초등학교병설유치원,공립(병설),서울특별시 양천구 목동중앙북로16길 57,02-2646-1090,http://www.yanghwa.es.kr/,09시30분~17시30분,126.8745547,37.543783
서울월정초등학교병설유치원,공립(병설),서울특별시 강서구 월정로 176,02-2694-5013,http://www.woljung.kg.kr,09시00분~17시00분,126.8361197,37.5347064
서울우암초등학교병설유치원,공립(병설),서울특별시 서초구 바우뫼로7길 38,02-529-3285,http://www.wooam.es.kr,09시00분~19시30분,127.0239763,37.4722088
서울남성초등학교병설유치원,공립(병설),서울특별시 동작구 사당로23길 57-14,595-3991,,09시30분~19시00분,126.9758987,37.4843535
티움유치원,사립(사인),서울특별시 송파구 송파대로36길 32-6,02-417-3408,,09시00분~17시00분,127.1152543,37.5010946
꿈밭유치원,사립(사인),서울특별시 도봉구 해등로 264,02-956-9380,,09시00분~16시30분,127.0260611,37.6579123
서울도신초등학교병설유치원,공립(병설),서울특별시 영등포구 도림로53길 32-9,02-849-0803,http://www.doshin.es.kr,09시00분~20시00분,126.9008562,37.4988437
태영유치원,사립(사인),서울특별시 마포구 독막로 266,02-3275-7667,http://cafe.daum.net/taeyoungkindergarten,09시00분~18시30분,126.9424854,37.5445371
효림유치원,사립(사인),서울특별시 은평구 은평터널로 65,02-308-5176,https://hyorim.kidsnote.ac,09시30분~18시00분,126.9000502,37.5868492
미래유치원,사립(사인),서울특별시 강서구 양천로6길 28,02-2662-1160,,09시40분~19시00분,126.8067513,37.5706435
서울내발산초등학교병설유치원,공립(병설),서울특별시 강서구 강서로46길 23,02-3662-7670,http://www.nbs.es.kr,09시30분~19시30분,126.8377185,37.5512471
색동유치원,사립(사인),서울특별시 중랑구 동일로109길 31,02-435-2714,,09시00분~17시00분,127.0784123,37.5916834
신동아유치원,사립(사인),서울특별시 동대문구 무학로26길 30,02-921-3361,,09시00분~18시20분,127.0322102,37.5726441
아이비유치원,사립(사인),서울특별시 동대문구 한천로 246,02-2213-1508,http://cafe.naver.com/02ivykdg,09시20분~19시00분,127.0687506,37.5828225
학림유치원,사립(사인),서울특별시 노원구 상계로7길 25,02-933-3533,,09시30분~20시00분,127.0646187,37.6578099
은평국제유치원,사립(사인),서울특별시 은평구 은평로3가길 32,02-302-7123,https://ep.kidis.co.kr,09시00분~17시00분,126.9114787,37.5990109
서울장월초등학교병설유치원,공립(병설),서울특별시 성북구 한천로101길 66,02-914-6122,http://www.jangwol.es.kr/,09시00분~19시00분,127.0472144,37.6220169
상아유치원,사립(사인),서울특별시 송파구 백제고분로32길 15,02-417-2972,,09시00분~20시00분,127.0952607,37.5009251
동성유치원,사립(사인),서울특별시 중랑구 신내로 110,02-434-2690,,09시30분~17시30분,127.0959424,37.6084072
사랑유치원,사립(사인),서울특별시 동대문구 제기로 131,02-957-5330,http://sarangkids.kidswon.com/,09시00분~17시00분,127.0491871,37.5880817
신촌유치원,사립(사인),서울특별시 서대문구 신촌로 43,02-324-0671,http://www.shinchonkid.com,09시00분~18시30분,126.9314611,37.5573857
예일유치원,사립(법인),서울특별시 은평구 연서로 117,02-3800-948~950,http://www.yale.kg.kr,09시20분~18시30분,126.9152792,37.6102367
현정유치원,사립(사인),서울특별시 광진구 광나루로 534-1,02-446-9209,http://www.hyunjungkids.co.kr,09시30분~19시00분,127.0889635,37.5444696
도원유치원,사립(법인),서울특별시 용산구 새창로12길 11-8,02-713-1960,,09시00분~18시00분,126.9577631,37.5387801
리라유치원,사립(법인),서울특별시 중구 소파로2길 7,02-753-7751,http://www.lilakinder.kr,09시00분~17시00분,126.9882375,37.5578769
예원유치원,사립(사인),서울특별시 강북구 삼양로49길 18,02-988-9419,http://www.예원프리스쿨.kr,09시00분~17시00분,127.0177197,37.623487
까망유치원,사립(사인),서울특별시 성북구 장월로 102,02-916-9213,,09시00분~20시00분,127.0485397,37.6149184
튼튼유치원,사립(사인),서울특별시 양천구 중앙로52길 62,02-2604-4151,http://www.tuntun.or.kr,09시00분~19시30분,126.8571613,37.5260368
청은유치원,사립(사인),서울특별시 영등포구 선유서로 76,02-2677-0623,,09시30분~19시00분,126.8857004,37.5225252
혜원유치원,사립(사인),서울특별시 구로구 고척로 62-11,02-2612-7735,,09시00분~18시00분,126.8422309,37.499473
서울신상계초등학교병설유치원,공립(병설),서울특별시 노원구 상계로 267,02-3392-0570,http://sinsanggye.es.kr,09시00분~19시30분,127.0757154,37.6677637
서울창동초등학교병설유치원,공립(병설),서울특별시 도봉구 해등로16길 81,02-907-8102,http://www.changdong-s.es.kr,09시00분~19시30분,127.044762,37.6552
양지유치원,사립(사인),서울특별시 노원구 노원로30길 45,02-936-5999,,09시00분~18시30분,127.0697392,37.6552645
서울금화초등학교병설유치원,공립(병설),서울특별시 서대문구 통일로 165,02-364-1446,http://www.geumhwa.es.kr,09시00분~15시00분,126.9629887,37.5683351
선미유치원,사립(사인),서울특별시 광진구 면목로5길 54,02-467-1148,,09시00분~18시00분,127.0730316,37.5562304
선화유치원,사립(법인),서울특별시 광진구 천호대로130길 58,02-2204-1050~2,http://www.sunhwakids.co.kr,09시00분~19시00분,127.0871578,37.5496276
청구이화유치원,사립(사인),서울특별시 광진구 아차산로 503-23,02-458-5981,http://ewkids.kidis.co.kr/,09시00분~19시00분,127.0963799,37.5422379
초원유치원,사립(사인),서울특별시 강남구 논현로14길 17,02-578-5248,,09시00분~18시00분,127.0486079,37.4759869
무지개유치원,사립(법인),서울특별시 노원구 덕릉로94가길 54,02-951-8546,http://www.rainbowch.kid.ph,09시00분~17시20분,127.0787243,37.6645976
봄샘유치원,사립(법인),서울특별시 종로구 율곡로 264,02-764-3210,https://www.bomsaem.co.kr,09시00분~17시30분,127.0066276,37.5733687
동아유치원,사립(사인),서울특별시 동작구 만양로3길 48,02-6332-7718,http://www.dongakids.net,09시00분~19시30분,126.9433476,37.5082869
상도유치원,사립(법인),서울특별시 동작구 상도로47길 53,02-815-3319,http://cafe.naver.com/sangdo3319,09시30분~18시00분,126.9519809,37.501588
삼풍유치원,사립(법인),서울특별시 도봉구 노해로63가길 101,02-992-3171,http://www.삼풍유치원.kr,09시00분~17시00분,127.0456821,37.6568023
해뜨는유치원,사립(사인),서울특별시 성북구 서경로2길 16,02-942-8687,,09시30분~17시00분,127.0157222,37.604864
반포자이유치원,사립(사인),서울특별시 서초구 신반포로 270,02-596-6668,,09시00분~17시00분,127.0144031,37.5064504
서울신은초등학교병설유치원,공립(병설),서울특별시 양천구 신정이펜2로 30,02-6210-0696,http://se.es.kr,09시30분~17시30분,126.832169,37.5137815
세성유치원,사립(사인),서울특별시 성동구 독서당로 434,02-2296-6107,,09시00분~17시00분,127.0340267,37.5538273
예크유치원,사립(사인),서울특별시 강동구 천호대로187길 73-10,02-478-0065,http://ykkids.co.kr,09시00분~19시00분,127.1427237,37.5378529
성보유치원,사립(사인),서울특별시 양천구 목동중앙본로7길 13,02-2643-7032,,09시00분~20시00분,126.8677827,37.5396276
어린이의정원유치원,사립(사인),서울특별시 양천구 목동남로4길 6-46,02-2646-1133,http://www.kinderjw.co.kr,09시30분~17시00분,126.8652436,37.50631
돈보스꼬유치원,사립(법인),서울특별시 영등포구 도영로22길 22,02-833-9041,http://www.donbosco.me,09시00분~17시00분,126.9013829,37.5099765
동부유치원,사립(사인),서울특별시 구로구 고척로 49,02-2613-8790,,09시00분~18시00분,126.8393496,37.4993096
젬마유치원,사립(법인),서울특별시 동대문구 이문로12길 20,02-957-8166,http://cafe.daum.net/ilovegemma,09시00분~17시00분,127.0594297,37.5929483
여의도유치원,사립(법인),서울특별시 영등포구 여의동로 257,02-782-0555,http://cafe.naver.com/yeouidochild,09시00분~18시00분,126.9389859,37.5215742
예림유치원,사립(법인),서울특별시 금천구 금하로 793,02-809-2121,,09시30분~19시00분,126.9189755,37.4516159
예쁨유치원,사립(법인),서울특별시 구로구 부일로1길 125,02-2615-3145,,09시00분~19시00분,126.8174512,37.495245
열림유치원,사립(사인),서울특별시 동작구 여의대방로44길 49,02-825-5021,,09시00분~17시00분,126.9292335,37.5089708
동은유치원,사립(사인),서울특별시 노원구 동일로207길 23,02-949-1064,http://dongeun.kids.co.kr,07시00분~20시00분,127.0637072,37.6428546
두솔유치원,사립(사인),서울특별시 노원구 초안산로 19,02-991-8337,,09시00분~16시30분,127.0541423,37.6295512
새봄유치원,사립(사인),서울특별시 노원구 동일로245길 162,02-951-1191,,09시00분~19시00분,127.0537319,37.6815462
자연유치원,사립(사인),서울특별시 도봉구 마들로 567,02-907-1011,,09시00분~19시00분,127.0472124,37.6603286
천사유치원,사립(사인),서울특별시 도봉구 해등로26길 20,02-904-8445,http://www.1004.kg.kr,09시00분~17시00분,127.033539,37.658947
백합유치원,사립(법인),서울특별시 은평구 연서로14길 14-5,02-353-0855,http://bakwhap.kidswon.com/index.asp,09시30분~18시30분,126.9173588,37.6082014
보림유치원,사립(사인),서울특별시 은평구 연서로17길 35-1,02-389-3023,https://brkids.happyihome.com,09시00분~20시00분,126.9135659,37.6135637
새현대유치원,사립(사인),서울특별시 마포구 새창로 52,02-3273-3723,,09시00분~20시00분,126.9540053,37.539675
성체유치원,사립(법인),서울특별시 강북구 삼각산로 161,02-993-7411,,09시00분~17시00분,127.0212792,37.642303
서울동신초등학교병설유치원,공립(병설),서울특별시 성북구 보문사길 50,02-929-8475,http://www.sdongsin.es.kr/,09시00분~19시30분,127.0168944,37.5829156
아란유치원,사립(사인),서울특별시 강남구 압구정로 201,070-7017-0000,,09시30분~16시30분,127.0299218,37.529988
서울잠일초등학교병설유치원,공립(병설),서울특별시 송파구 올림픽로 95,02-413-2856,http://www.jamil.es.kr/,09시00분~19시10분,127.0815064,37.5149114
광영유치원,사립(법인),서울특별시 양천구 남부순환로30길 17,02-2603-6235,,09시00분~17시00분,126.8241316,37.5379665
대붕유치원,사립(사인),서울특별시 강서구 허준로 176,02-3663-1636,http://www.daebung.co.kr,09시30분~17시00분,126.857007,37.5620855
서울남정초등학교병설유치원,공립(병설),서울특별시 용산구 원효로64길 17-10,02-3273-6510,http://www.seoui-nj.es.kr,09시00분~20시00분,126.9650422,37.5360869
신동아큰나무유치원,사립(사인),서울특별시 용산구 이촌로 347,02-790-8858,,09시00분~18시00분,126.9880381,37.5182023
약수유치원,사립(사인),서울특별시 중구 동호로10길 30,02-2232-1934,http://www.yaksui.com,09시00분~18시00분,127.0147527,37.5546952
서울솔가람유치원,공립(단설),서울특별시 송파구 위례순환로 419,02-401-0781,http://www.solgaram.kg.kr/,09시00분~19시00분,127.1409203,37.4780187
해맑은유치원,사립(사인),서울특별시 서대문구 거북골로21길 55,02-305-6001,https://blog.naver.com/ch00326,09시00분~17시00분,126.9056798,37.5774137
푸른나라유치원,사립(사인),서울특별시 영등포구 당산로35길 3,02-2633-0033,,09시30분~20시00분,126.8971245,37.5287955
서울용답초등학교병설유치원,공립(병설),서울특별시 성동구 용답25길 1,02-2245-8985,http://www.yd.sen.es.kr,09시00분~19시30분,127.053586,37.5607976
서울구일초등학교병설유치원,공립(병설),서울특별시 구로구 구일로 68,02-6952-0097,http://www.guil.es.kr,09시10분~17시10분,126.8729563,37.4928322
은새유치원,사립(사인),서울특별시 강동구 고덕로62길 58,02-428-2256,,09시00분~17시00분,127.1526079,37.5523321
서울율현초등학교병설유치원,공립(병설),서울특별시 강남구 밤고개로21길 15,02-3413-8877,,09시00분~17시00분,127.1079248,37.4745394
이루니유치원,사립(사인),서울특별시 중랑구 신내로7다길 57,02-494-9094,http://www.yiruni.com,08시50분~18시00분,127.091755,37.6016262
동심유치원,사립(사인),서울특별시 광진구 군자로12길 46,02-499-6101,http://dongsim.kidis.co.kr,09시00분~18시00분,127.0726166,37.5513615
하나유치원,사립(사인),서울특별시 강북구 솔샘로 174,02-984-7557,,09시00분~17시00분,127.0127723,37.6181206
화계유치원,사립(사인),서울특별시 강북구 덕릉로 45,02-902-8905,http://hwagyekinder.com,09시00분~17시00분,127.0189437,37.6346519
경은유치원,사립(사인),서울특별시 강북구 노해로21길 12,02-993-2064,,09시00분~18시30분,127.0222758,37.6440773
나래유치원,사립(사인),서울특별시 성북구 삼양로 73,02-913-3654,http://www.naraekids.com,09시00분~20시00분,127.0226379,37.6095078
새삼선유치원,사립(법인),서울특별시 성북구 성북로4길 21,02-745-9415,,09시00분~19시30분,127.0061222,37.5900967
반디유치원,사립(사인),서울특별시 성북구 성북로4길 52,02-929-1228,http://www.bandykindergarten.co.kr/,09시00분~18시00분,127.0102978,37.5945739
유정유치원,사립(사인),서울특별시 강동구 강동대로55길 83,02-471-3151,,09시00분~18시00분,127.1337866,37.5259479
꿈나라유치원,사립(사인),서울특별시 관악구 난곡로 42,02-851-5596,,09시00분~20시00분,126.9206213,37.4605694
서울송원초등학교병설유치원,공립(병설),서울특별시 성동구 동일로43길 9,02-469-5012,,09시00분~19시30분,127.0695605,37.5541216
서울수색초등학교병설유치원,공립(병설),서울특별시 은평구 수색로16길 21,02-376-6752,http://www.susaek.es.kr,09시00분~20시00분,126.8956726,37.5850333
돌샘유치원,사립(사인),서울특별시 강동구 고덕로 131,02-3426-5472,,09시00분~17시00분,127.1421042,37.556374
신반포중앙유치원,사립(법인),서울특별시 서초구 나루터로4길 58,02-594-2214,http://sbpckids.com/,09시00분~20시00분,127.0125179,37.5104623
아이조아유치원,사립(사인),서울특별시 광진구 긴고랑로7길 65,02-498-9903,http://www.i-joais.co.kr,09시00분~17시00분,127.0804584,37.5661819
영생유치원,사립(사인),서울특별시 서초구 신반포로19길 30,02-536-2329,http://www.sbpch.com,09시00분~18시00분,126.995692,37.5050313
율화유치원,사립(사인),서울특별시 성동구 고산자로2길 35,02-2296-2577,http://www.yulhwa.co.kr,09시00분~18시00분,127.0378026,37.5541554
은비유치원,사립(사인),서울특별시 관악구 청림5길 22,02-882-0533,http://www.eunb.co.kr,09시00분~17시00분,126.9601161,37.4890993
한가람유치원,사립(사인),서울특별시 성북구 서경로 166,02-942-0042,http://www.hangaramdream.com,09시00분~20시00분,127.0088298,37.6173127
서울화계초등학교병설유치원,공립(병설),서울특별시 강북구 솔매로50가길 25,02-945-6936,http://www.서울화계초등학교병설유치원.kr,09시00분~19시30분,127.0290439,37.6237969
서울성수초등학교병설유치원,공립(병설),서울특별시 성동구 아차산로17길 21,02-463-1186,http://www.seongsoo.es.kr,09시00분~19시00분,127.0631769,37.5442137
서울강신초등학교병설유치원,공립(병설),서울특별시 양천구 월정로 280,02-2699-9916,http://www.kangsin.es.kr,09시00분~17시00분,126.8295869,37.5429404
서울연신초등학교병설유치원,공립(병설),서울특별시 은평구 연서로 347,02-384-0374,http://www.yoensin.es.kr,09시30분~20시00분,126.9282886,37.6263217
서울하늘숲유치원,공립(단설),서울특별시 구로구 오리로 1102-19,02-2625-8003,http://www.서울하늘숲유치원.kr/,09시00분~17시00분,126.8430182,37.4851002
동우유치원,사립(사인),서울특별시 서초구 명달로22길 24,02-582-9155,,09시00분~19시00분,127.0055862,37.4864363
동화유치원,사립(사인),서울특별시 서초구 서초중앙로24길 43,02-595-9392,,09시00분~18시00분,127.018315,37.496202
서울봉천초등학교병설유치원,공립(병설),서울특별시 관악구 행운1라길 17,02-874-7406,http://www.bongcheon.es.kr,09시20분~19시30분,126.9578933,37.4830517
성요셉유치원,사립(사인),서울특별시 영등포구 63로 45,02-783-6921,,09시30분~18시00분,126.9369844,37.5207183
경원유치원,사립(사인),서울특별시 광진구 영화사로 89,02-446-9777,,09시20분~18시30분,127.0961026,37.5548955
세종유치원,사립(사인),서울특별시 중랑구 동일로 834,02-433-0724,http://www.sejong1985.com,09시00분~20시00분,127.0791999,37.6049529
소화유치원,사립(법인),서울특별시 동대문구 약령시로 45,02-921-0136,,09시00분~18시00분,127.0347925,37.5830723
수산유치원,사립(법인),서울특별시 중랑구 중랑역로 35-1,02-433-1674,https://blog.naver.com/susan8971,09시00분~17시00분,127.0758145,37.5975559
한가람유치원,사립(사인),서울특별시 송파구 한가람로 446,02-486-1210,http://www.h-garam.com,09시00분~17시00분,127.115197,37.5366047
불광유치원,사립(법인),서울특별시 송파구 송파대로49길 23,02-422-1311,http://www.bulkwangkids.com,09시00분~18시00분,127.1021332,37.5069155
아이파크예원유치원,사립(사인),서울특별시 강서구 강서로 266,02-2695-2940,,09시00분~18시30분,126.8386531,37.5493641
리아유치원,사립(사인),서울특별시 송파구 양재대로 1218,02-404-0708,,09시00분~17시30분,127.1333804,37.5141141
한성유치원,사립(사인),서울특별시 강동구 명일로 251,02-483-4560,http://www.hansungk.co.kr,09시00분~20시00분,127.1469059,37.5412261
사랑유치원,사립(사인),서울특별시 도봉구 마들로 620,02-956-2666,,09시10분~19시00분,127.0466824,37.6654332
엔젤유치원,사립(사인),서울특별시 은평구 진흥로7길 25,02-355-8868,,09시00분~20시00분,126.9189567,37.6042155
서울길음유치원,공립(단설),서울특별시 성북구 길음로 142,02-918-9931,http://www.gileum.net,09시30분~17시30분,127.0172699,37.6137701
서울삼선초등학교병설유치원,공립(병설),서울특별시 성북구 보문로29길 106,02-745-7116,http://www.samsun.es.kr,09시30분~17시00분,127.0125374,37.586195
서울성북초등학교병설유치원,공립(병설),서울특별시 성북구 성북로 102-10,02-743-4419,http://www.sungbuk.kg.kr,09시30분~17시30분,126.9983609,37.5938515
서울숭곡초등학교병설유치원,공립(병설),서울특별시 성북구 종암로40길 30,02-912-5188,http://www.soonggok.es.kr,09시00분~17시00분,127.0324982,37.6081203
계성유치원,사립(법인),서울특별시 용산구 효창원로15길 15,02-712-0826,http://www.gskg.kr,09시00분~14시00분,126.952948,37.5359803
대건유치원,사립(법인),서울특별시 용산구 이촌로81길 38,02-790-5016,http://www.daegeon.kg.kr,09시00분~17시00분,126.9776286,37.5208518
에덴유치원,사립(사인),서울특별시 성동구 행당로 79,02-2292-2779,http://www.edenkid.com,09시00분~17시00분,127.0271834,37.5578888
그림유치원,사립(사인),서울특별시 동대문구 답십리로56길 21,02-3394-6254,http://cafe.naver.com/grimmkid,08시30분~17시00분,127.0600617,37.5696975
성북유치원,사립(사인),서울특별시 노원구 광운로17길 5-3,02-917-1336,,07시50분~19시00분,127.0590501,37.6221839
성실유치원,사립(사인),서울특별시 노원구 한글비석로1길 28,02-977-0246,,09시00분~19시00분,127.0707244,37.6389546
예진유치원,사립(사인),서울특별시 노원구 섬밭로 123,02-973-9898,http://www.yejinchild.com/,09시00분~19시00분,127.0686849,37.627153
서문유치원,사립(사인),서울특별시 은평구 가좌로10길 10,02-309-7983,http://kids.seomoonch.org/,09시00분~18시00분,126.9167498,37.5916169
서울은평초등학교병설유치원,공립(병설),서울특별시 은평구 은평로 239,02-384-0407,http://www.eunpyeong.es.kr,09시00분~17시00분,126.934209,37.6020296
서울창천초등학교병설유치원,공립(병설),서울특별시 마포구 백범로1길 56,02-703-2014,http://www.changchon.es.kr,09시00분~17시00분,126.939204,37.5548966
서울홍제초등학교병설유치원,공립(병설),서울특별시 서대문구 홍은중앙로 13,02-396-7239,http://hongje.sen.es.kr,09시00분~20시00분,126.9447983,37.5931685
성결유치원,사립(사인),서울특별시 마포구 독막로28길 19,02-717-1687,http://sungkyul.kidswon.com,09시00분~17시00분,126.9374357,37.5463208
인애유치원,사립(법인),서울특별시 광진구 능동로4길 13,02-457-6109,http://www.inaepreschool.org/,09시00분~18시00분,127.0684212,37.5338121
서울거여초등학교병설유치원,공립(병설),서울특별시 송파구 마천로25길 18,02-2160-5490,http://www.geoyeo.kg.kr,09시00분~17시00분,127.1410995,37.5048355
벧엘유치원,사립(사인),서울특별시 성동구 행당로6길 97,02-2281-0138,http://www.bmschool.com,09시00분~18시00분,127.0300272,37.5567859
다연유치원,사립(사인),서울특별시 노원구 월계로45가길 94,02-906-7807,http://www.dayeon.or.kr,09시00분~20시00분,127.0517937,37.6316137
동그라미유치원,사립(사인),서울특별시 강서구 화곡로52길 14,02-2691-2525,,09시00분~17시00분,126.8491337,37.5500163
레인보우유치원,사립(법인),서울특별시 양천구 목동중앙북로24길 19-8,02-2653-7272,http://www.rainbowkid.net,09시00분~18시00분,126.8781042,37.5455377
메이플유치원,사립(사인),서울특별시 동작구 여의대방로 22,02-845-7272,http://www.maplekin.com,07시00분~20시00분,126.9116289,37.4921766
서울신남성초등학교병설유치원,공립(병설),서울특별시 동작구 사당로 146,02-587-6131,http://shinnamsung.sen.es.kr,09시00분~17시00분,126.9651202,37.4886567
서울신우유치원,공립(단설),서울특별시 관악구 호암로 498,02-874-3558,http://www.seoulsinwoo.com,09시30분~16시30분,126.9323363,37.4626311
서울논현초등학교병설유치원,공립(병설),서울특별시 강남구 강남대로120길 33,02-514-2082,http://www.nonhyunyu.com,09시00분~17시00분,127.0262442,37.5082696
서울하늘초등학교병설유치원,공립(병설),서울특별시 마포구 월드컵북로 502-14,02-305-7230,http://www.sky.es.kr,09시00분~19시30분,126.8809568,37.5855795
서울청파초등학교병설유치원,공립(병설),서울특별시 용산구 효창원로 228,02-701-3224,,09시00분~20시00분,126.9641136,37.5475941
무학유치원,사립(사인),서울특별시 성동구 무학봉15가길 4,02-2299-2402,http://www.moohak.co.kr,09시00분~19시00분,127.0306789,37.5615218
가람유치원,사립(사인),서울특별시 강동구 상암로63길 39,02-427-3151,,09시00분~18시00분,127.1538649,37.5482593
세화유치원,사립(사인),서울특별시 양천구 목동동로 130,02-2642-0784,http://www.saehwaa.com,09시30분~17시00분,126.8722944,37.5150365
양서유치원,사립(사인),서울특별시 양천구 신월로13길 15,02-2603-3913,,09시30분~18시00분,126.8410178,37.5194191
대림유치원,사립(사인),서울특별시 영등포구 디지털로 455-7,02-833-9600,,09시00분~20시00분,126.9069661,37.4963144
동정성모유치원,사립(법인),서울특별시 구로구 경인로2길 11,02-2684-3624,,09시00분~17시00분,126.8276942,37.4903464
바니유치원,사립(사인),서울특별시 구로구 구일로4길 46,02-865-4234,,09시30분~17시30분,126.8770747,37.4926822
홍릉유치원,사립(사인),서울특별시 동대문구 홍릉로29길 17,02-965-4376,,09시00분~20시00분,127.0415797,37.5906062
강남유치원,사립(사인),서울특별시 동작구 상도로41가길 13,02-813-7122,,09시00분~18시30분,126.9496584,37.5034866
노량진교회유치원,사립(법인),서울특별시 동작구 노량진로30가길 9,02-817-3875,http://nrj-kids.net,08시40분~18시00분,126.9560322,37.5127788
신라유치원,사립(사인),서울특별시 영등포구 영등포로64길 8,02-834-2222,http://shinna.kidswon.com,09시00분~19시00분,126.9164007,37.5141068
영은유치원,사립(사인),서울특별시 영등포구 양산로 61,02-2676-0568,http://yehappyhome.kidswon.com,10시00분~19시00분,126.8900718,37.5252694
영중유치원,사립(법인),서울특별시 영등포구 영중로 163,02-2676-8276,http://yeongjung.kidis.co.kr/,09시00분~17시00분,126.905152,37.5307083
신림유치원,사립(사인),서울특별시 관악구 난곡로32길 12,02-856-4523,http://www.sillimkids.com,09시00분~20시00분,126.9201724,37.4721347
애동유치원,사립(사인),서울특별시 관악구 법원단지길 56,02-856-7555,,09시00분~18시00분,126.9203068,37.4737939
서울상곡초등학교병설유치원,공립(병설),서울특별시 노원구 노원로38길 34,02-934-2715,http://www.sanggok.es.kr,09시00분~19시30분,127.0625954,37.6627946
서울서신초등학교병설유치원,공립(병설),서울특별시 은평구 은평터널로 150,02-3152-1006,http://www.susin.es.kr,09시00분~19시30분,126.9074973,37.5924867
서울장수초등학교병설유치원,공립(병설),서울특별시 양천구 신정로13가길 30,02-6090-9887,http://www.jangsoo.es.kr,09시00분~17시00분,126.8451441,37.5129901
현대유치원,사립(사인),서울특별시 송파구 올림픽로 525,02-470-2008,https://hyundaekindergaten.modoo.at/,09시00분~17시00분,127.1190738,37.5292721
자연유치원,사립(사인),서울특별시 은평구 통일로 630-1,02-303-1455,,09시00분~17시00분,126.9374885,37.6031584
천사유치원,사립(사인),서울특별시 서초구 바우뫼로 99,070-8289-9515,,09시00분~17시00분,127.0320719,37.4747623
국제유치원,사립(사인),서울특별시 강서구 양천로30길 4,02-3662-7404,,09시00분~17시30분,126.822941,37.5705087
등대유치원,사립(사인),서울특별시 양천구 목동동로12길 60,02-2646-0204,,09시00분~19시30분,126.8772476,37.5204088
등촌제일유치원,사립(법인),서울특별시 강서구 화곡로66길 118,02-3663-6043,,09시00분~19시00분,126.8593716,37.5554678
신일유치원,사립(사인),서울특별시 중구 동호로10길 27,02-2234-4006,,09시00분~17시00분,127.0119486,37.5553475
하나유치원,사립(사인),서울특별시 종로구 평창길 317,02-394-1152,,09시00분~17시00분,126.9775162,37.6143784
한일유치원,사립(사인),서울특별시 중구 퇴계로88다길 5,02-2235-0016,https://hanil.kidsnote.ac,09시30분~17시30분,127.0200855,37.5631733
루이유치원,사립(법인),서울특별시 성북구 서경로6길 13,02-919-5959,http://www.lui.or.kr,09시00분~17시00분,127.0163945,37.6071312
푸른동산유치원,사립(사인),서울특별시 구로구 서해안로 2201,02-2613-1303,http://www.greengd.co.kr,09시30분~17시30분,126.8313579,37.4867244
서울신자초등학교병설유치원,공립(병설),서울특별시 광진구 뚝섬로46길 64,02-450-5690,http://www.sinja.sen.es.kr,09시00분~19시00분,127.0754592,37.5301281
한양여자대학교부속유치원,사립(법인),서울특별시 성동구 살곶이길 200,02-2290-2100,,09시00분~18시00분,127.0494399,37.5584035
덕수유치원,사립(법인),서울특별시 성북구 성북로 127,02-3675-5164,http://www.ducksoo-i.net,09시30분~20시00분,126.9951196,37.5940492
혜림유치원,사립(사인),서울특별시 송파구 문정로13길 13,02-400-5308,http://www.hyelim.net,09시00분~18시00분,127.1352374,37.4943405
푸른꿈유치원,사립(사인),서울특별시 송파구 백제고분로46길 41,02-414-9742,,09시00분~18시00분,127.1154337,37.5069798
동북유치원,사립(사인),서울특별시 은평구 진관4로 31,02-389-6596,http://dongbook.kg.kr,09시00분~18시00분,126.9204238,37.6390445
우촌유치원,사립(법인),서울특별시 성북구 성북로4길 52-1,02-922-2344,http://uchonkid.com,09시00분~18시00분,127.0117894,37.5956676
미래클유치원,사립(사인),서울특별시 강서구 수명로1길 76,02-2667-7979,http://www.miraclekid.co.kr,09시00분~18시00분,126.8229883,37.5523896
하랑숲유치원,사립(사인),서울특별시 동작구 동작대로41길 7,02-2038-6606,http://www.harangsoop.com/,09시00분~18시00분,126.9818006,37.4960461
서울연천초등학교병설유치원,공립(병설),서울특별시 은평구 연서로34길 22,02-357-3956,http://www.yc1985.es.kr,09시10분~17시00분,126.9294879,37.6208994
서울경수초등학교병설유치원,공립(병설),서울특별시 성동구 뚝섬로13길 22,02-465-9547,http://www.kyeongsu.es.kr/,09시00분~17시00분,127.0580425,37.5403615
서울당중초등학교병설유치원,공립(병설),서울특별시 영등포구 선유로 131,02-2633-1497,http://www.dangjung.es.kr,09시00분~17시00분,126.8898637,37.5263307
꿈모리유치원,사립(사인),서울특별시 노원구 공릉로58길 23,02-978-0806,,09시00분~19시00분,127.0724659,37.6337603
꿈동산유치원,사립(사인),서울특별시 노원구 동일로227길 26,02-933-4686,http://www.kiddream.kr,09시10분~19시10분,127.0550872,37.6685463
서울두산초등학교병설유치원,공립(병설),서울특별시 금천구 범안로11길 3,02-893-8632,http://www.doosan.es.kr,09시00분~17시00분,126.8910212,37.4672063
서울영중초등학교병설유치원,공립(병설),서울특별시 영등포구 양산로 185,02-2633-8793,http://www.youngjoong.es.kr,09시00분~20시00분,126.9038289,37.523704
경하유치원,사립(사인),서울특별시 광진구 동일로72길 9,02-466-2880,,09시00분~20시00분,127.0782293,37.5661195
서울동원초등학교병설유치원,공립(병설),서울특별시 중랑구 송림길 114,02-438-3288,http://www.dongwonkid.kg.kr,09시00분~17시00분,127.1049559,37.6047906
서울장평초등학교병설유치원,공립(병설),서울특별시 동대문구 답십리로69길 27,02-2213-3086,http://www.jangpyung.kg.kr,09시00분~19시30분,127.0732773,37.5738567
한사랑유치원,사립(사인),서울특별시 도봉구 노해로66길 79,02-907-8224,http://cafe.daum.net/9078224,09시00분~17시00분,127.0483573,37.6478767
무지개나라유치원,사립(사인),서울특별시 은평구 가좌로7다길 13,02-302-5258,http://rainbowkin.com,09시30분~17시30분,126.91821,37.5846113
동화나라유치원,사립(사인),서울특별시 송파구 강동대로3길 23,02-473-1136,,09시00분~17시00분,127.1154361,37.5288214
시연유치원,사립(사인),서울특별시 송파구 오금로24길 25,02-422-4770,http://www.siyon.com,07시00분~19시00분,127.1174041,37.5048591
서울길원초등학교병설유치원,공립(병설),서울특별시 성북구 서경로8길 28-15,02-914-2410,http://www.gilwon.es.kr,09시00분~19시30분,127.0167771,37.6090446
서울대동초등학교병설유치원,공립(병설),서울특별시 영등포구 대림로21길 6,02-835-0796,http://www.sdaedong.es.kr/46683/subMenu.do,09시00분~20시00분,126.9003476,37.4934237
밀알유치원,사립(사인),서울특별시 송파구 오금로46길 62,02-400-4403,,09시00분~20시00분,127.1316224,37.4930344
누리에유치원,사립(사인),서울특별시 중랑구 중랑천로 20,02-437-1201,http://cafe.naver.com/nuriekindergarten,09시00분~17시00분,127.0754636,37.5874796
자인유치원,사립(사인),서울특별시 은평구 갈현로 169-7,02-384-0146,,08시30분~18시30분,126.9107487,37.6133485
한일유치원,사립(사인),서울특별시 광진구 뚝섬로35길 16-20,02-454-0002,http://hanil90.co.kr,09시00분~17시30분,127.0718008,37.5350101
서울정덕초등학교병설유치원,공립(병설),서울특별시 성북구 아리랑로 63,02-924-0423,http://www.jeongdeok.es.kr,09시00분~19시30분,127.0133327,37.5979962
예린유치원,사립(사인),서울특별시 성북구 종암로25길 17,02-927-6557,http://www.yerinkids.co.kr,09시00분~19시00분,127.0322077,37.5999456
영천유치원,사립(법인),서울특별시 성북구 장위로 34,02-941-6776,http://www.youngchun.co.kr,09시00분~19시00분,127.0404628,37.6140961
꿈동산유치원,사립(사인),서울특별시 강북구 한천로115길 15,02-986-0577,,09시00분~18시00분,127.0383499,37.6321626
장미유치원,사립(사인),서울특별시 강서구 허준로 139,02-2668-0262,,09시00분~18시00분,126.8555446,37.5651979
한서유치원,사립(사인),서울특별시 양천구 목동동로 430,02-2646-2561,https://hanseo.kidsnote.ac,09시00분~17시00분,126.8847624,37.5346172
해림유치원,사립(사인),서울특별시 양천구 목동서로2길 22,02-2646-9704,,09시00분~19시00분,126.8815486,37.5414707
홍신유치원,사립(사인),서울특별시 강서구 강서로45길 63,02-2664-6456,https://www.hongshin1984.co.kr,09시00분~18시00분,126.8325615,37.5481147
꿀벌유치원,사립(법인),서울특별시 구로구 디지털로27다길 15,02-857-8545,http://www.honeybees.or.kr,09시00분~17시00분,126.8893338,37.4849861
일신유치원,사립(사인),서울특별시 구로구 오류로8길 22,02-2612-1432,,09시00분~19시00분,126.8420418,37.4912177
한신유치원,사립(사인),서울특별시 금천구 한내로 62,02-898-3031,,09시00분~18시30분,126.8894884,37.4554333
규전유치원,사립(사인),서울특별시 동대문구 휘경로 42,02-961-7696,http://cafe.daum.net/gujeon,09시00분~18시30분,127.0643241,37.594546
솔샘유치원,사립(사인),서울특별시 도봉구 해등로 113,02-997-5164~5,,09시00분~18시00분,127.0395137,37.6535265
서울유치원,사립(사인),서울특별시 마포구 월드컵북로 233-1,02-306-1896,,09시00분~18시30분,126.9032835,37.5694354
서울선린초등학교병설유치원,공립(병설),서울특별시 강동구 진황도로61길 29,02-477-3192,http://www.s-sunrin.com,09시00분~19시30분,127.1459987,37.5294878
서울세륜초등학교병설유치원,공립(병설),서울특별시 송파구 양재대로 1264,02-403-4170,http://www.seryun.es.kr,09시00분~19시00분,127.1341007,37.5183453
세인유치원,사립(사인),서울특별시 성동구 마장로42길 26,02-2295-3551,http://www.seinkid.co.kr,09시30분~18시00분,127.0465229,37.5652549
솔유치원,사립(사인),서울특별시 성동구 무학로 50,02-2299-9111,,09시00분~17시00분,127.0318645,37.5687398
은선유치원,사립(법인),서울특별시 송파구 동남로11길 27,02-400-9758,,09시00분~17시00분,127.1263514,37.4921666
삼육대학교부속유치원,사립(법인),서울특별시 노원구 화랑로 815,02-3399-1173,http://www.sykinder.co.kr,09시00분~17시00분,127.1040843,37.6425104
서울여자대학교부속유치원,사립(법인),서울특별시 노원구 화랑로 621,02-970-5353,http://www.swuchild.com/,09시20분~19시00분,127.0891773,37.6300521
명성유치원,사립(사인),서울특별시 관악구 광신길 154,02-874-3350,,09시30분~18시00분,126.9270275,37.4655114
상아유치원,사립(사인),서울특별시 동작구 양녕로26길 15,02-822-6901,http://cafe.naver.com/sangakid,09시00분~18시00분,126.9446231,37.4980264
서울난곡초등학교병설유치원,공립(병설),서울특별시 관악구 난곡로35길 102,02-853-9871,http://www.nangok.es.kr,09시30분~17시30분,126.9166416,37.4692461
신목유치원,사립(사인),서울특별시 양천구 목동중앙북로10길 7-10,02-2653-3417,http://www.sinmok.co.kr,09시00분~18시00분,126.8702046,37.5463454
아람유치원,사립(사인),서울특별시 강서구 금낭화로23길 8,02-2664-8888,,09시00분~17시00분,126.8121443,37.579609
동일유치원,사립(법인),서울특별시 금천구 탑골로10길 45,02-892-6478,http://dongil.kid-park.com,09시00분~18시00분,126.9164583,37.4513947
럭키유치원,사립(사인),서울특별시 금천구 시흥대로47길 43,02-806-0100,,09시00분~18시30분,126.8991494,37.4486847
버들유치원,사립(사인),서울특별시 구로구 오류로8길 40,02-2614-5393,https://cafe.naver.com/buddlekinder,09시00분~18시00분,126.8428046,37.4916126
예원유치원,사립(사인),서울특별시 중랑구 신내로 51,02-492-3355,,09시00분~17시00분,127.0945825,37.6047385
은성유치원,사립(사인),서울특별시 중랑구 동일로 752,02-2208-6601,http://blog.naver.com/eunsung2208,09시00분~17시00분,127.0817774,37.5970438
건영유치원,사립(법인),서울특별시 관악구 조원로 114,02-858-4130,http://www.gunykid.com,09시30분~18시10분,126.9148556,37.4848718
소망유치원,사립(사인),서울특별시 동작구 현충로 119,02-823-8871,http://www.somangkids.com/,09시30분~17시30분,126.9669699,37.5078832
승혜유치원,사립(사인),서울특별시 동작구 성대로21길 15,02-822-9430,http://shkid77.kidis.co.kr,09시00분~19시00분,126.9370933,37.4986798
요요유치원,사립(사인),서울특별시 동작구 여의대방로 28,02-836-6710,http://yoyokid.kidsnote.ac,09시00분~20시00분,126.9121371,37.4945601
서울노일유치원,공립(단설),서울특별시 노원구 동일로231길 24,02-938-9642,http://www.noil.kg.kr,09시00분~20시00분,127.0539702,37.672601
아랑유치원,사립(사인),서울특별시 노원구 동일로 1127,02-976-3671,http://arangkidiskids.co.kr,09시00분~19시00분,127.0697685,37.630198
사랑샘유치원,사립(사인),서울특별시 노원구 한글비석로 325,02-932-2843,,09시00분~19시00분,127.0777257,37.6564445
원암유치원,사립(사인),서울특별시 노원구 중계로14라길 48,02-932-4488,,09시00분~18시00분,127.0850962,37.649663
유화유치원,사립(사인),서울특별시 도봉구 시루봉로 101,02-956-5000,,08시30분~16시30분,127.0274751,37.6598522
바다의별유치원,사립(법인),서울특별시 은평구 통일로 790-1,02-387-0325,https://cafe.naver.com/3870325,09시30분~18시00분,126.9262361,37.6154367
새싹유치원,사립(사인),서울특별시 마포구 월드컵북로5길 53,02-324-9148,http://saessak.happyihome.com,09시00분~19시30분,126.9161445,37.5560477
서울홍파초등학교병설유치원,공립(병설),서울특별시 동대문구 고산자로 518,02-966-3568,http://www.hongpa.es.kr,09시30분~19시30분,127.0393388,37.5861188
서울화일초등학교병설유치원,공립(병설),서울특별시 강서구 까치산로10길 70,02-2602-2139,http://www.hwail.es.kr,09시30분~17시30분,126.8473621,37.5408626
서울휘봉초등학교병설유치원,공립(병설),서울특별시 동대문구 장안벚꽃로 309,02-2248-4653,,09시00분~17시00분,127.0701375,37.5860141
삼성유치원,사립(사인),서울특별시 송파구 문정로 83,02-3401-5678,,09시00분~18시00분,127.1304184,37.4905657
서울서래초등학교병설유치원,공립(병설),서울특별시 서초구 방배로 260,02-595-2274,http://www.seorae.es.kr/,09시00분~19시30분,126.9897806,37.4963488
반포성모유치원,사립(법인),서울특별시 서초구 신반포로15길 18,02-537-4224,http://www.banposm.com,09시00분~17시00분,126.9945169,37.5049402
서울잠신초등학교병설유치원,공립(병설),서울특별시 송파구 잠실로 32,02-418-9559,http://www.jamshin.es.kr/index/index.do,09시00분~19시00분,127.0897357,37.5144525
복자유치원,사립(법인),서울특별시 용산구 후암로34길 21-8,02-319-2915,https://cafe.naver.com/bokjakindergarten,09시00분~17시00분,126.9782146,37.5516995
서울명신초등학교병설유치원,공립(병설),서울특별시 종로구 낙산길 250,02-744-4633,http://www.myungshin.es.kr,09시20분~17시20분,127.0138592,37.5812684
세종유치원,사립(법인),서울특별시 종로구 사직로8길 9,02-733-1475,http://www.sejonglo.org/sosik,09시00분~17시10분,126.9699989,37.5754966
일신유치원,사립(법인),서울특별시 중구 퇴계로6길 36,02-777-3993,,09시00분~17시00분,126.9789042,37.5567333
서초유치원,사립(사인),서울특별시 서초구 양재대로2길 100-64,02-571-9009,,09시00분~19시00분,127.0162063,37.4560606
서울새솔유치원,공립(단설),서울특별시 중랑구 신내역로1길 136,02-3422-1771,http://서울새솔유치원.kr,09시30분~17시30분,127.1099449,37.6176141
서울강남초등학교병설유치원,공립(병설),서울특별시 동작구 강남초등길 15,02-824-0503,http://www.kangnam-se.es.kr,09시30분~17시30분,126.952747,37.5058477
서울언남초등학교병설유치원,공립(병설),서울특별시 서초구 헌릉로8길 42,070-4754-3330,http://www.ennamchild.co.kr/,09시00분~19시00분,127.0616584,37.4540063
오즈의마법사유치원,사립(사인),서울특별시 강남구 헌릉로618길 14,02-3411-1081,,09시30분~19시00분,127.1061626,37.4639656
미파유치원,사립(사인),서울특별시 광진구 용마산로 185,02-434-3625,,09시00분~20시00분,127.0858989,37.5702338
서울구의초등학교병설유치원,공립(병설),서울특별시 광진구 광나루로30길 49,02-453-2123,http://www.guui.es.kr,09시00분~19시30분,127.0799969,37.5429584
서울옥수초등학교병설유치원,공립(병설),서울특별시 성동구 금호로1길 25,02-2299-4115,http://oksu.es.kr,09시00분~19시20분,127.0218037,37.5460317
인수유치원,사립(사인),서울특별시 강북구 인수봉로 298,02-993-9180,,09시00분~17시00분,127.0108928,37.645406
좋은나라유치원,사립(사인),서울특별시 성북구 종암로24가길 53,02-911-5777,http://cafe.naver.com/joheunnara,09시00분~18시30분,127.037167,37.6008962
세아유치원,사립(사인),서울특별시 성북구 성북로4길 52,02-929-0580,,09시00분~20시00분,127.0102978,37.5945739
미타유치원,사립(사인),서울특별시 성동구 독서당로40길 21,02-2281-7982,,09시00분~17시00분,127.0175689,37.5436358
꿈밭유치원,사립(사인),서울특별시 송파구 올림픽로4길 32,02-413-4788,,09시00분~14시00분,127.0742294,37.5078715
성지유치원,사립(사인),서울특별시 영등포구 도신로29길 28,02-847-2120,,09시00분~19시00분,126.9036529,37.5117636
운현유치원,사립(사인),서울특별시 금천구 금하로 816,02-802-7019,http://cafe.daum.net/wunhyun,08시30분~19시00분,126.9187536,37.4481899
구강사금강유치원,사립(법인),서울특별시 강동구 천중로 64,02-471-7792,,09시00분~18시00분,127.1288375,37.5448606
잠실밀알유치원,사립(사인),서울특별시 송파구 석촌호수로 103,02-3431-2004,,09시00분~17시00분,127.0893115,37.5093313
서울석관초등학교병설유치원,공립(병설),서울특별시 성북구 돌곶이로22길 21,02-959-1396,http://www.seokgwan.es.kr,09시00분~19시30분,127.0587621,37.6108826
마포대진유치원,사립(법인),서울특별시 마포구 성미산로 110,02-334-0161,,09시00분~18시00분,126.9193203,37.5618434
윤서유치원,사립(사인),서울특별시 강서구 화곡로13길 107,02-2605-2277,,09시00분~18시00분,126.8315336,37.5443652
토마토유치원,사립(사인),서울특별시 노원구 공릉로 181,02-972-7373,http://www.tomatokids.co.kr,09시00분~19시00분,127.079281,37.6259386
한양유치원,사립(법인),서울특별시 노원구 마들로 31,02-973-4142,http://www.hanyangkids.net,09시00분~19시00분,127.0686446,37.6176738
서울천호초등학교병설유치원,공립(병설),서울특별시 강동구 구천면로 310-11,02-470-6319,http://chunho.sen.es.kr/index.do,09시00분~19시30분,127.1364691,37.5474306
서울대방초등학교병설유치원,공립(병설),서울특별시 영등포구 여의대방로35길 14,02-833-3595,http://www.sdaebang.es.kr,09시00분~19시30분,126.919292,37.502645
반디유치원,사립(사인),서울특별시 강남구 광평로47길 17,02-451-8891,http://www.bandikids.co.kr,09시00분~17시00분,127.0984013,37.4871089
새성민유치원,사립(사인),서울특별시 서초구 효령로 110,02-582-1871,,09시00분~18시00분,126.9961198,37.4806796
새순유치원,사립(사인),서울특별시 서초구 서초대로15길 57,02-532-8901,http://saesoon.kidis.co.kr/index.php,09시00분~17시00분,126.9884238,37.4887865
서울신창초등학교병설유치원,공립(병설),서울특별시 도봉구 덕릉로60길 93,02-994-7782,http://shinchang.es.kr,09시00분~16시00분,127.042172,37.6362574
명지전문대학부속명지유치원,사립(법인),서울특별시 서대문구 명지2길 37,02-302-5296,http://kg.mjc.ac.kr,09시00분~17시00분,126.92658,37.5836245
서울양진초등학교병설유치원,공립(병설),서울특별시 광진구 워커힐로 32,02-454-9138,,09시00분~19시30분,127.0981961,37.5445855
서울평화초등학교병설유치원,공립(병설),서울특별시 송파구 송파대로26길 22,02-449-9154,http://pyunghwa.es.kr,09시00분~19시00분,127.1228189,37.4915638
숲유치원,사립(사인),서울특별시 은평구 진관2로 37,02-357-6100,http://www.gkids.kr/,09시10분~17시30분,126.921608,37.6347214
예그린유치원,사립(사인),서울특별시 도봉구 노해로 201-1,02-994-4620,,09시00분~19시30분,127.0306033,37.651129
중앙대부속유치원,사립(법인),서울특별시 동작구 흑석로 47,02-815-0146,http://cau-kindergarten.or.kr,09시00분~17시00분,126.9558479,37.5065239
꿈터유치원,사립(사인),서울특별시 노원구 동일로230길 63,02-930-4202,http://www.ggumter.kr,09시00분~18시00분,127.0591466,37.6729217
현대경복유치원,사립(사인),서울특별시 서대문구 통일로34길 66,02-396-4271,http://www.kyung-bok.co.kr,09시00분~17시00분,126.951564,37.5863179
홍제성당유치원,사립(법인),서울특별시 서대문구 통일로40길 18,02-396-7704,http://www.hjkids.co.kr,09시30분~18시00분,126.943925,37.5900612
미도유치원,사립(사인),서울특별시 강서구 공항대로58가길 39,02-2651-5079,http://www.midokid.or.kr,09시00분~19시00분,126.8610664,37.5504564
빛나유치원,사립(사인),서울특별시 양천구 목동로 212,02-2651-7355,http://bitna.info,09시00분~19시00분,126.8675434,37.5277677
서울신기초등학교병설유치원,공립(병설),서울특별시 양천구 신정로 292,02-2601-9846,,09시30분~17시00분,126.8541192,37.5111673
새소리유치원,사립(사인),서울특별시 동대문구 사가정로 148,02-2214-0011,,09시20분~18시30분,127.0605303,37.5765492
새아랑유치원,사립(사인),서울특별시 중랑구 신내로 151,02-3421-8411,,09시00분~19시30분,127.0961096,37.612373
서안유치원,사립(사인),서울특별시 중랑구 동일로140길 15,02-6012-7979,,09시00분~17시30분,127.0799772,37.6043733
서울답십리초등학교병설유치원,공립(병설),서울특별시 동대문구 전농로3길 23,02-2248-3152,http://www.dapsimni.kg.kr,09시00분~17시00분,127.0553978,37.5688043
한성유치원,사립(사인),서울특별시 노원구 한글비석로 145,02-974-8872,http://www.한성유치원.com,09시30분~17시30분,127.0759732,37.6405636
돌샘유치원,사립(사인),서울특별시 마포구 백범로37길 12,02-713-5472,,09시00분~17시00분,126.9558205,37.5433943
그리새유치원,사립(사인),서울특별시 강동구 천호대로187길 53-18,02-474-6800-1,,09시00분~17시00분,127.1419743,37.5370996
아주유치원,사립(사인),서울특별시 송파구 양산로2길 38,02-3401-4880,,09시00분~18시00분,127.1465886,37.4886202
해슬아유치원,사립(사인),서울특별시 관악구 은천로 93,02-878-4367,https://www.haeseula.co.kr,09시00분~19시00분,126.9446992,37.4894041
서울군자초등학교병설유치원,공립(병설),서울특별시 동대문구 한천로6길 21,02-2212-8456,http://www.kunja.kg.kr/,09시00분~17시00분,127.061351,37.5643826
서울경동유치원,공립(단설),서울특별시 성동구 성수일로 34,02-461-0337,http://www.skd.kg.kr/,09시00분~20시00분,127.0502751,37.5434259
동안유치원,사립(사인),서울특별시 동대문구 회기로25길 67,02-957-1830,http://dongkid.org/,09시40분~17시40분,127.0567713,37.5927379
미림유치원,사립(사인),서울특별시 중랑구 공릉로 65,02-974-5300,http://mirim.kidis.co.kr,09시00분~17시00분,127.0793298,37.6164691
빛나유치원,사립(법인),서울특별시 동대문구 전농로23길 47,02-2212-0406,,09시00분~22시00분,127.0538635,37.579127
세종유치원,사립(사인),서울특별시 서대문구 거북골로16길 36,02-372-0404,http://www.sejongschool.co.kr,09시00분~18시30분,126.9131084,37.5772751
신현유치원,사립(사인),서울특별시 서대문구 이화여대8길 28,02-313-6778,,09시00분~17시30분,126.947356,37.5586908
서울미양초등학교병설유치원,공립(병설),서울특별시 강북구 솔샘로 195,02-987-4195,http://mi-yang.sen.es.kr,09시00분~17시00분,127.0136582,37.6213717
서울태랑초등학교병설유치원,공립(병설),서울특별시 노원구 화랑로51나길 31,02-977-7385,http://taerang.es.kr/index.do,09시00분~17시00분,127.090742,37.6262257
새시대유치원,사립(사인),서울특별시 강북구 도봉로97길 45,02-905-0287,http://cafe.daum.net/saesidaekids,07시30분~19시30분,127.0270074,37.6427108
해리유치원,사립(사인),서울특별시 강서구 허준로 234,02-2659-3296,,09시00분~20시00분,126.8636706,37.5585638
침례유치원,사립(법인),서울특별시 영등포구 국제금융로 118,02-783-2529,http://baptistkid.or.kr/main/main.html,09시00분~19시00분,126.9341629,37.5178636
한신혜원유치원,사립(사인),서울특별시 영등포구 양평로24길 9,02-2634-9167,,09시00분~19시00분,126.8920252,37.5400557
경희유치원,사립(법인),서울특별시 동대문구 경희대로 26,02-967-0907,http://www.khu.kg.kr,09시00분~18시00분,127.0528498,37.5956979
서울연촌초등학교병설유치원,공립(병설),서울특별시 노원구 공릉로58길 36,02-975-2498,http://www.yeonchon.es.kr,09시00분~17시00분,127.0728348,37.6350697
성희유치원,사립(사인),서울특별시 노원구 동일로215길 48,02-933-9102,,09시30분~19시30분,127.0582572,37.6518035
신창유치원,사립(사인),서울특별시 도봉구 덕릉로 272,02-992-8503,https://shinchangkids.modoo.at/,09시00분~17시00분,127.0410071,37.6413838
연세유치원,사립(사인),서울특별시 노원구 섬밭로 265,02-975-6786,http://cafe.naver.com/yskindergarten,09시00분~20시00분,127.0625683,37.6387999
영산유치원,사립(사인),서울특별시 노원구 동일로216길 47,02-951-1900,,09시00분~18시00분,127.0646478,37.6527824
서울공덕초등학교병설유치원,공립(병설),서울특별시 마포구 만리재옛길 13,02-712-5928,http://www.kongduck.es.kr,09시00분~20시00분,126.9538182,37.5457733
이화유치원,사립(사인),서울특별시 강남구 개포로109길 5,02-451-6688,http://cafe.naver.com/ewhayoua,09시00분~18시30분,127.0738048,37.4928026
천호유치원,사립(법인),서울특별시 강동구 구천면로 236-1,02-470-1633,https://cheonhokindergarten.modoo.at,08시40분~17시40분,127.1313423,37.5415992
의명유치원,사립(사인),서울특별시 송파구 오금로35길 17,02-402-1930,,09시00분~18시00분,127.1264186,37.5058181
명수유치원,사립(법인),서울특별시 동작구 흑석로13길 3,02-816-2964,http://www.mungsu.kg.kr,09시00분~18시30분,126.9602134,37.5089953
배꽃유치원,사립(사인),서울특별시 관악구 봉천로29길 47,02-878-7766,http://www.baekkot.com,09시00분~18시00분,126.9419597,37.4856133
새소슬유치원,사립(사인),서울특별시 관악구 성현로 80,02-6671-6001,http://www.sosl.kg.kr,09시00분~18시00분,126.950619,37.4897993
새싹유치원,사립(사인),서울특별시 관악구 남현2길 90,02-584-6135,http://sskinder.kidis.co.kr,09시00분~18시00분,126.9728778,37.4745779
서울원당초등학교병설유치원,공립(병설),서울특별시 관악구 봉천로 505,02-879-2481,http://wondang.sen.es.kr,09시30분~19시30분,126.9560766,37.4811615
동덕여자대학교부속유치원,사립(법인),서울특별시 성북구 장월로1가길 9,02-912-3031,http://dongdukchild.co.kr/,09시30분~17시30분,127.0440066,37.6062499
금호유치원,사립(법인),서울특별시 성동구 금호산2길 35,02-2252-3179,http://www.keumhokids.co.kr,09시30분~18시00분,127.0235108,37.548767
동아유치원,사립(사인),서울특별시 구로구 신도림로 87,02-2677-7539,,09시00분~17시00분,126.8828855,37.5110104
진달래유치원,사립(사인),서울특별시 중랑구 상봉중앙로1가길 13,02-434-7993,http://www.jinkids.co.kr,09시00분~18시00분,127.0868751,37.5987503
신길에덴유치원,사립(사인),서울특별시 영등포구 신길로38길 21,02-833-1527,http://cafe.naver.com/edenu,09시00분~17시00분,126.9134697,37.5056101
신도유치원,사립(사인),서울특별시 구로구 구일로2길 45,02-853-5423,,09시00분~17시00분,126.8775899,37.4892361
소슬유치원,사립(사인),서울특별시 관악구 구암길 46,02-888-3451,http://www.sosl.kg.kr,09시00분~18시00분,126.948256,37.4897782
송림유치원,사립(법인),서울특별시 동작구 사당로2다길 95,02-523-7718,http://songrim.kg.kr/,09시00분~17시00분,126.9634744,37.4891018
나래유치원,사립(사인),서울특별시 도봉구 마들로 684-9,02-3493-9236,http://www.나래유치원.com,09시00분~17시00분,127.0471823,37.6715462
서울동일초등학교병설유치원,공립(병설),서울특별시 노원구 한글비석로 566,02-952-7465,http://www.dongil.es.kr,09시00분~19시20분,127.054643,37.6651368
미성유치원,사립(사인),서울특별시 노원구 공릉로59길 28,02-974-6996,,09시00분~19시00분,127.0696033,37.6343595
지현유치원,사립(사인),서울특별시 도봉구 도봉산3길 21,02-954-2050,,09시00분~20시00분,127.0439881,37.6863782
청원유치원,사립(법인),서울특별시 노원구 한글비석로 506,02-3399-7886,http://www.cheongwon-seoul.es.kr,09시00분~19시00분,127.0620668,37.6660701
삼성그린유치원,사립(사인),서울특별시 마포구 도화4길 62,02-3273-3838,http://sgkg.kr/,09시00분~17시00분,126.9515862,37.5395003
새보람유치원,사립(사인),서울특별시 은평구 불광로 107,02-358-1019,http://cafe.daum.net/saeboram,09시00분~20시00분,126.9326347,37.6163056
선양유치원,사립(사인),서울특별시 광진구 동일로 256-1,02-466-6193,,09시00분~17시20분,127.0712806,37.5541442
옥수예일유치원,사립(사인),서울특별시 성동구 독서당로 191,02-2297-0432,http://cafe.naver.com/yale4846,09시20분~18시00분,127.0115091,37.5432068
조은유치원,사립(사인),서울특별시 성동구 살곶이길 50,02-2282-2777,http://www.joeunkids.com,09시30분~18시00분,127.0425754,37.5694489
청운교회부설유치원,사립(사인),서울특별시 강남구 언주로65길 5,02-3453-0902,http://www.cwch.net,09시00분~18시30분,127.0455502,37.4950556
서울상경초등학교병설유치원,공립(병설),서울특별시 노원구 수락산로 237,070-8650-7990,http://www.sanggyeong.es.kr,09시00분~17시00분,127.0513922,37.6703097
서울영림초등학교병설유치원,공립(병설),서울특별시 영등포구 시흥대로173길 14,02-834-3041,http://www.younglim.es.kr,09시00분~19시30분,126.9024716,37.4873795
서울대현초등학교병설유치원,공립(병설),서울특별시 강남구 역삼로98길 16,02-501-6408,http://daehyun.sen.es.kr,09시00분~20시00분,127.0636032,37.503778
서울방배초등학교병설유치원,공립(병설),서울특별시 서초구 방배중앙로13길 26,02-595-9978,http://www.bangbae.es.kr,09시00분~17시00분,126.9874506,37.4871652
성결유치원,사립(사인),서울특별시 강남구 언주로121길 5,02-548-9754,,09시00분~18시00분,127.0353311,37.5114437
성요셉유치원,사립(법인),서울특별시 강남구 압구정로77길 28,02-543-8819,http://stjosep.kidswon.com/,09시00분~18시00분,127.0482456,37.5268123
소망유치원,사립(사인),서울특별시 강남구 광평로56길 11,02-2226-0265,,09시00분~17시00분,127.1051828,37.4873677
경성유치원,사립(사인),서울특별시 양천구 목동로3길 57,02-2648-4997,,09시00분~18시00분,126.8630207,37.5096945
등촌유치원,사립(사인),서울특별시 양천구 목동중앙북로8길 46,02-2646-0606,,09시00분~18시00분,126.8648142,37.5466001
서울서빙고초등학교병설유치원,공립(병설),서울특별시 용산구 서빙고로51길 14,02-796-8867,http://www.seobinggo.es.kr/index.do,09시00분~17시00분,126.9921677,37.5215174
서울숭신초등학교병설유치원,공립(병설),서울특별시 성동구 마장로 161,02-2253-2901,http://soongshinkid.com,09시00분~17시00분,127.0278149,37.5676433
성심유치원,사립(사인),서울특별시 용산구 보광로24길 9-4,02-794-3045,,10시00분~19시00분,126.999629,37.5286811
세검정유치원,사립(법인),서울특별시 종로구 자하문로 310,02-395-2544,http://www.sgjkids.com,09시20분~18시30분,126.9593087,37.6001272
수암유치원,사립(사인),서울특별시 중구 다산로 32,02-2256-6100-1,http://www.수암유치원.kr/,09시00분~17시00분,127.0093374,37.5491175
혜화유치원,사립(법인),서울특별시 종로구 창경궁로 296,02-743-7021,http://www.hyehwa.kg.kr,08시50분~16시50분,127.0031422,37.5868549
서울숭례초등학교병설유치원,공립(병설),서울특별시 성북구 종암로5길 14,02-953-0995,http://www.서울숭례초등학교병설유치원.kr,09시00분~19시00분,127.0350601,37.594797
자연아이유치원,사립(사인),서울특별시 도봉구 도당로6길 14-11,02-3492-8915,http://jayeoni.kidis.co.kr,09시00분~17시00분,127.035858,37.6610383
고덕한울유치원,사립(사인),서울특별시 강동구 양재대로 1706,02-3427-3939,,08시00분~17시30분,127.1459805,37.5578708
영그린유치원,사립(사인),서울특별시 관악구 참숯5길 12,02-884-2328,,09시00분~18시00분,126.9403955,37.4770753
꿈나무유치원,사립(사인),서울특별시 양천구 목동서로 280,02-2646-7701,,09시00분~18시00분,126.8676923,37.5216601
노원 삼육유치원,사립(법인),서울특별시 노원구 공릉로42길 13-1,02-948-2280,http://www.nwsy.net/,09시00분~18시00분,127.0803761,37.6244064
샬롬유치원,사립(법인),서울특별시 광진구 아차산로65길 65,02-456-7770,,09시00분~19시00분,127.0917263,37.5424635
서울사근초등학교병설유치원,공립(병설),서울특별시 성동구 사근동11길 16,02-2296-9546,http://www.sageun.es.kr/,09시00분~17시00분,127.0477401,37.5630032
서울옥정초등학교병설유치원,공립(병설),서울특별시 성동구 한림말길 43,02-2294-6317,http://www.okjeong.kg.kr,09시00분~19시30분,127.0156011,37.5418174
천사유치원,사립(사인),서울특별시 성북구 성북로4길 52,02-953-1004,,08시50분~18시30분,127.0102978,37.5945739
로사유치원,사립(법인),서울특별시 성동구 성덕정길 23,02-497-2547,,09시00분~17시00분,127.0464091,37.5395473
수정유치원,사립(사인),서울특별시 송파구 위례성대로 28,02-412-5687,,09시00분~17시00분,127.1149634,37.516158
서울신미림초등학교병설유치원,공립(병설),서울특별시 구로구 신도림로 26,02-2676-8626,http://www.sinmirim.es.kr,09시10분~17시10분,126.8794518,37.5069051
서울삼성초등학교병설유치원,공립(병설),서울특별시 관악구 대학7길 52,02-877-9139,http://samseong.sen.es.kr/,09시30분~17시30분,126.9409781,37.4678358
예일유치원,사립(사인),서울특별시 강서구 강서로47길 126,02-2667-6767,,09시00분~18시30분,126.8292034,37.5537128
푸른샘유치원,사립(사인),서울특별시 성북구 길음로13길 29,02-915-9300,,09시00분~20시00분,127.0188018,37.6083857
우현유치원,사립(사인),서울특별시 강서구 강서로 348,02-2271-3700,http://woohyunchild.kidis.co.kr,09시00분~17시00분,126.8402706,37.5559845
서울독산초등학교병설유치원,공립(병설),서울특별시 금천구 시흥대로104길 31,02-895-1535,http://www.doksan.es.kr,09시00분~17시00분,126.8999901,37.4653619
윤희유치원,사립(사인),서울특별시 강서구 강서로 216-23,02-2693-4813,http://cafe.naver.com/yunheekindergarten,09시00분~17시30분,126.8375552,37.5457312
서울마곡유치원,공립(단설),서울특별시 강서구 마곡서1로 139-13,02-2666-8071,http://www.서울마곡유치원.kr,09시00분~17시00분,126.818025,37.5692703
서울성산초등학교병설유치원,공립(병설),서울특별시 마포구 양화로3길 94,02-338-9900,http://www.ssc.es.kr,09시00분~17시00분,126.9111813,37.553344
행복한숲유치원,사립(사인),서울특별시 동작구 만양로 26,02-813-6148,https://blog.naver.com/forest6148,08시30분~16시30분,126.949422,37.5074401
목동유치원,사립(사인),서울특별시 양천구 오목로42길 13,02-2065-3373,https://mokdong.kidsnote.ac/,09시00분~17시30분,126.8605469,37.5243575
위례우일유치원,사립(사인),서울특별시 송파구 성내천로47길 38-1,02-3401-2011,http://2wooil.net,09시00분~17시00분,127.1577849,37.4965488
서울은곡유치원,공립(단설),서울특별시 강남구 헌릉로569길 41,02-3411-3347,http://eungokkg.co.kr/,09시00분~19시00분,127.096938,37.466824
밤비니유치원,사립(사인),서울특별시 강서구 남부순환로7길 39,02-2664-7942,,09시00분~17시00분,126.8095874,37.5588778
행복한유치원,사립(사인),서울특별시 강서구 강서로62길 40,02-3665-5113,,09시00분~19시00분,126.841979,37.5626058
예원유치원,사립(사인),서울특별시 서초구 태봉로2길 21,02-573-7661,http://yewon.kidis.co.kr/,09시00분~17시00분,127.0249596,37.4617827
서울연지유치원,공립(단설),서울특별시 노원구 월계로55길 16,02-979-8293,http://yeonji.kidis.co.kr/,09시00분~17시00분,127.0611171,37.6325713
서울수락산유치원,공립(단설),서울특별시 노원구 동일로245길 162,264353355,http://www.수락산유치원.kr,09시00분~17시00분,127.0537319,37.6815462
서울금나래초등학교병설유치원,공립(병설),서울특별시 금천구 시흥대로79길 37,02-807-9995,http://www.geumnarae.es.kr/index.do,09시00분~19시30분,126.8962063,37.4582264
서울면북초등학교병설유치원,공립(병설),서울특별시 중랑구 용마공원로5길 32,02-433-3296,http://www.myeonbuk.es.kr,09시00분~19시30분,127.103471,37.5945165
서울좋은소리유치원,공립(단설),서울특별시 성북구 길음로13길 29,02-915-9300,http://joeunsorikd.kg.kr,09시00분~19시30분,127.0188018,37.6083857
강남유정유치원,사립(사인),서울특별시 강남구 광평로34길 17,02-2226-9500,http://www.gnyujung.com,09시00분~18시00분,127.0949454,37.4830097
서울번동초등학교병설유치원,공립(병설),서울특별시 강북구 오현로 204,02-987-1866,http://www.beondong.es.kr,09시00분~19시30분,127.0405223,37.6288555
서울청림유치원,공립(단설),서울특별시 관악구 청림5길 22,02-875-0533,http://www.서울청림유치원.kr,09시00분~17시00분,126.9601161,37.4890993
서울고현초등학교병설유치원,공립(병설),서울특별시 강동구 상일로11길 110,02-427-9680,http://gohyeon.sen.es.kr/index.do,09시00분~19시30분,127.1659213,37.5540037
서울노량진초등학교병설유치원,공립(병설),서울특별시 동작구 장승배기로 160,02-817-1264,,09시30분~17시30분,126.9409162,37.5114639
서울구암유치원,공립(단설),서울특별시 관악구 은천로 93,02-889-9930,http://서울구암유치원.kr/,09시00분~17시00분,126.9446992,37.4894041
서울동명초등학교병설유치원,공립(병설),서울특별시 성동구 마장로29길 29,02-2299-6119,http://dgmg.es.kr,09시00분~17시00분,127.0357244,37.5687534
서울수명유치원,공립(단설),서울특별시 강서구 수명로1길 76,02-6213-7979,http://www.서울수명유치원.kr,09시30분~16시30분,126.8229883,37.5523896
서울거원초등학교병설유치원,공립(병설),서울특별시 송파구 양산로2길 26,02-740-6500,http://www.거원.kr,09시00분~19시00분,127.1448454,37.4877876
새싹유치원,사립(사인),서울특별시 강서구 곰달래로49길 10,02-26511322,http://www.saessakkids.co.kr/,09시00분~13시00분,126.8580291,37.5321902
나나유치원,사립(사인),서울특별시 강서구 등촌로13바길 46,02-2642-7300,,09시00분~19시30분,126.8573055,37.5358684
정암유치원,사립(법인),서울특별시 중랑구 용마산로118길 55,02-2094-8401,http://www.jungamkid.co.kr,09시00분~17시00분,127.1036627,37.6011947
서울강솔유치원,공립(단설),서울특별시 강동구 고덕로97길 80,02-2147-5200,http://gangsol.kg.kr,09시00분~19시30분,127.180342,37.562097
서울이문유치원,공립(단설),서울특별시 동대문구 신이문로 16,02-959-2023,http://www.imunk.co.kr,09시00분~17시00분,127.0642285,37.6021771
서울당현초등학교병설유치원,공립(병설),서울특별시 노원구 동일로213길 52,02-931-0601,http://danghyeon.sen.es.kr,09시00분~17시00분,127.0583872,37.648687
서울금낭화유치원,공립(단설),서울특별시 강서구 금낭화로 35,02-6219-0901,http://서울금낭화유치원.kr/home/,09시00분~20시00분,126.8114597,37.5685466
서울동교초등학교병설유치원,공립(병설),서울특별시 마포구 월드컵로25길 86,02-6959-8120,,09시00분~17시00분,126.9023613,37.558227
서울수송초등학교병설유치원,공립(병설),서울특별시 강북구 한천로124길 14,02-6930-5813,,09시00분~18시00분,127.0330826,37.6373366
정원유치원,사립(사인),서울특별시 동대문구 사가정로 276-19,02)3390-9940,http://cafe.naver.com/jokindergarten,09시00분~17시00분,127.0758512,37.5790218
서울신학초등학교병설유치원,공립(병설),서울특별시 도봉구 방학로 247-21,02-6011-8183,http://www.seoulsinhak.es.kr,09시00분~19시30분,127.0255677,37.6609718
모아유치원,사립(사인),서울특별시 동작구 동작대로27길 62,02-532-6667,,09시00분~18시30분,126.9790105,37.488336
시현유치원,사립(사인),서울특별시 동작구 만양로8길 50,.02-6949-4442,https://cafe.naver.com/sihyun2017,09시00분~18시00분,126.9475113,37.5098018
서울중광초등학교병설유치원,공립(병설),서울특별시 광진구 긴고랑로13길 59,02-466-9691,http://www.jkschool.net,09시00분~17시00분,127.0824291,37.56517
서울청운초등학교병설유치원,공립(병설),서울특별시 종로구 자하문로 105,02-739-6940,http://www.chungwoon.es.kr,09시00분~17시00분,126.9691297,37.5859861
꿈동산아이유치원,사립(법인),서울특별시 노원구 동일로227길 26,02-3392-5864,https://www.kiddream.kr,09시00분~17시20분,127.0550872,37.6685463
서울등촌초등학교병설유치원,공립(병설),서울특별시 강서구 등촌로39길 71,02-2647-9280,,09시30분~17시30분,126.8578059,37.5475687
서울쌍문초등학교병설유치원,공립(병설),서울특별시 도봉구 우이천로 360,02-2088-2800,,09시00분~17시00분,127.0243553,37.6488249
서울응암초등학교병설유치원,공립(병설),서울특별시 은평구 가좌로6길 20,02-308-1407,http://www.eungam.es.kr,09시00분~17시00분,126.9214742,37.5882994
서울중동초등학교병설유치원,공립(병설),서울특별시 마포구 월드컵북로 152,02-399-9126,,09시30분~19시30분,126.9112932,37.5666533
서울양재유치원,공립(단설),서울특별시 서초구 바우뫼로18길 14,02-576-0468,http://www.서울양재유치원.kr/,09시30분~20시00분,127.0316422,37.4738938
서울송천초등학교병설유치원,공립(병설),서울특별시 강북구 삼양로20길 29,02-982-3334,http://song-cheon.kg.kr,09시00분~19시00분,127.0233713,37.615785
서울장위초등학교병설유치원,공립(병설),서울특별시 성북구 장월로8가길 41,02-6925-4560,,09시00분~20시00분,127.0499362,37.6119833
서울영풍초등학교병설유치원,공립(병설),서울특별시 송파구 오금로57길 15,02-407-9747,http://www.youngpung.es.kr/,09시00분~17시00분,127.1430179,37.4963074
서울가재울초등학교병설유치원,공립(병설),서울특별시 서대문구 모래내로15길 61,02-300-8691,http://gajaeul.es.kr,09시00분~19시00분,126.9183896,37.5737646
서울탑산초등학교병설유치원,공립(병설),서울특별시 강서구 허준로 109,02-2659-5105,http://www.top.es.kr,09시00분~20시00분,126.8522159,37.5667244
서울청계숲유치원,공립(단설),서울특별시 서초구 청계산로11길 14,02-575-7566,http://www.서울청계숲유치원.kr/,09시00분~19시30분,127.0577465,37.4477939
서울남현유치원,공립(단설),서울특별시 관악구 남현4길 51,02-585-2031,https://www.서울남현유치원.kr,09시00분~19시30분,126.9741892,37.4737604
서울신봉초등학교병설유치원,공립(병설),서울특별시 관악구 양녕로6나길 1,02-883-8441,http://sinbong.sen.es.kr,09시00분~19시30분,126.9492093,37.4854977
서울행림초등학교병설유치원,공립(병설),서울특별시 동작구 솔밭로 47,02-523-1355,http://www.hrim.es.kr/index.do,09시00분~19시30분,126.9643715,37.4830997
서울항동유치원,공립(단설),서울특별시 구로구 연동로8길 15,02-6949-4941,http://www.서울항동유치원.kr,09시00분~17시00분,126.8248495,37.4770458
서울양동초등학교병설유치원,공립(병설),서울특별시 양천구 오목로23길 24,02-2699-9742,,09시30분~17시30분,126.8511885,37.5259969
선아유치원,사립(사인),서울특별시 강동구 구천면로 636,02-427-0294,,09시00분~18시00분,127.168308,37.5500469
서울금호초등학교병설유치원,공립(병설),서울특별시 성동구 무수막길 69,02-6491-3200,http://geumho.sen.es.kr/,09시00분~20시00분,127.0203008,37.5519211
서울방학유치원,공립(단설),서울특별시 도봉구 도당로6길 14-11,02-3494-1100,http://www.서울방학.kr,09시00분~17시00분,127.035858,37.6610383
서울좋은소리유치원분원,공립(단설),서울특별시 성북구 숭인로 50,02-6621-7800,http://joeunsorikd.kg.kr,09시00분~19시30분,127.0273273,37.6112134
서울중랑초등학교병설유치원,공립(병설),서울특별시 중랑구 봉우재로6길 26,02-439-3567,,09시00분~17시00분,127.0757341,37.5894099
서울솔가람유치원분원,공립(단설),서울특별시 송파구 위례순환로 477,02-6286-3700,http://solgaram.kg.kr,09시00분~19시30분,127.1353884,37.4763294
꿈꾸는유치원,사립(사인),서울특별시 양천구 오목로4길 8,02-2604-7890,,09시20분~18시30분,126.8401694,37.5208794
세신유치원,사립(법인),서울특별시 양천구 목동동로1길 38,02-2642-4963,http://cafe.daum.net/seshin1004,09시00분~17시00분,126.8568589,37.5176813
서울산울림유치원,공립(단설),서울특별시 은평구 진관4로 93,02-6353-9700,http://www.서울산울림유치원.kr,09시00분~19시00분,126.9298232,37.6480683
서울본동초등학교병설유치원,공립(병설),서울특별시 동작구 노량진로26길 16-40,02-826-5195,http://www.bondong.es.kr,09시30분~17시30분,126.9537388,37.5101455
서울봉화초등학교병설유치원,공립(병설),서울특별시 중랑구 신내로15길 110,02-3423-2231,,09시30분~20시00분,127.0923947,37.6132906
서울중흥초등학교병설유치원,공립(병설),서울특별시 중랑구 봉화산로 82,02-495-8833,http://www.jung-heung.es.kr/136193/subMenu.do,09시00분~19시30분,127.0841888,37.6017209
서울마들유치원,공립(단설),서울특별시 도봉구 마들로 567,02-992-1701,http://mdkd.kg.kr/,09시00분~17시00분,127.0472124,37.6603286
서울우신초등학교병설유치원,공립(병설),서울특별시 영등포구 신길로 190,02-847-2258,http://www.usin.es.kr/index.do,09시30분~19시20분,126.911862,37.509623
서울숭미초등학교병설유치원,공립(병설),서울특별시 도봉구 노해로 179,02-6956-6811,http://sungmi.sen.es.kr/index.do,09시00분~17시00분,127.0278068,37.6509258
서울강빛초등학교병설유치원,공립(병설),서울특별시 강동구 아리수로93다길 1,02-6591-3962,https://www.gbk.kg.kr/,09시00분~19시30분,127.1717256,37.5746065
서울어진유치원,공립(단설),서울특별시 서초구 태봉로2길 21,02-573-9773,http://www.서울어진유치원.kr,09시00분~20시00분,127.0249596,37.4617827
린덴바움유치원,사립(사인),서울특별시 종로구 통일로12길 51,02-730-6207,https://xn--6n1b61jr3bixr.kr/,09시00분~17시00분,126.9615529,37.5747288
서울경일초등학교병설유치원,공립(병설),서울특별시 성동구 뚝섬로 332,02-499-5273,http://www.kyongil.es.kr,09시00분~17시00분,127.0468825,37.5405783
서울북한산유치원,공립(단설),서울특별시 은평구 진관1로 77-15,02-6353-9900,http://www.서울북한산유치원.kr,09시00분~17시00분,126.9287707,37.6321917
서울용곡초등학교병설유치원,공립(병설),서울특별시 광진구 용마산로22길 82,02-399-9126,,09시00분~17시00분,127.0887484,37.5667778
서울송정초등학교병설유치원,공립(병설),서울특별시 강서구 공항대로3길 18,02-2662-7334,http://sjes.es.kr,09시30분~19시30분,126.8110643,37.5628031
서울중목초등학교병설유치원,공립(병설),서울특별시 중랑구 동일로 665,02-2209-1120,http://joongmok.sen.es.kr,09시00분~17시00분,127.0794049,37.5901594
서울개화초등학교병설유치원,공립(병설),서울특별시 강서구 양천로 11,02-2661-0493,,09시30분~19시30분,126.8046755,37.5737401
서울당곡초등학교병설유치원,공립(병설),서울특별시 관악구 보라매로2길 23,02-882-6906,,09시00분~16시00분,126.9298987,37.4901
서울계상초등학교병설유치원,공립(병설),서울특별시 노원구 한글비석로41가길 24,02-937-0877,,09시00분~17시00분,127.0682738,37.6627945
서울광희초등학교병설유치원,공립(병설),서울특별시 중구 다산로 269,02-2231-4717,http://www.gwanghee.es.kr/index.do,09시00분~17시00분,127.0151613,37.5675024
홍익가족유치원,사립(사인),서울특별시 송파구 삼학사로19길 20,.02-414-6943,,09시30분~18시00분,127.0949602,37.5061489
서울포이초등학교병설유치원,공립(병설),서울특별시 강남구 개포로22길 87,02-6009-5470,http://www.poi.es.kr/,09시00분~19시30분,127.0518477,37.4754903
서울우이유치원,공립(단설),서울특별시 강북구 삼양로99길 36,02-994-8522,http://www.서울우이유치원.kr,09시00분~19시30분,127.0154726,37.6383983
서울신정유치원,공립(단설),서울특별시 양천구 신정로7길 81-4,02-2698-1683,http://www.서울신정유치원.kr,09시00분~19시30분,126.8333713,37.5135682
이솔유치원,사립(사인),서울특별시 강서구 곰달래로33가길 6,.02-2606-3181,,10시00분~16시00분,126.8522166,37.5312599
서울남부초등학교병설유치원,공립(병설),서울특별시 관악구 남부순환로163길 14,02-857-5033,,09시30분~17시30분,126.9221236,37.4850465
서울신양초등학교병설유치원,공립(병설),서울특별시 광진구 능동로 42,02-447-2582,http://sinyang.sen.es.kr/,09시00분~20시00분,127.0695664,37.5345329
서울고일초등학교병설유치원,공립(병설),서울특별시 강동구 구천면로93길 20,02-428-9930,http://goil.es.kr/,09시30분~20시00분,127.1691234,37.552035
서울문교초등학교병설유치원,공립(병설),서울특별시 금천구 독산로54길 102,02-896-0142,,09시00분~20시00분,126.9087442,37.4665964
서울오류남초등학교병설유치원,공립(병설),서울특별시 구로구 서해안로24길 22,02-2687-0221,,09시30분~17시30분,126.83874,37.4897436
서울어울초등학교병설유치원,공립(병설),서울특별시 은평구 통일로 650,02-358-4911,,09시30분~19시00분,126.9350262,37.6058753
서울위례별유치원,공립(단설),서울특별시 송파구 위례순환로 371,02-402-3931,http://www.서울위례별유치원.kr,09시00분~20시00분,127.1456156,37.4777464
서울역촌유치원,공립(단설),서울특별시 은평구 진흥로7길 25,02-6353-9800,http://www.서울역촌유치원.kr,09시00분~20시00분,126.9189567,37.6042155
서울신림초등학교병설유치원,공립(병설),서울특별시 관악구 문성로28길 31,02-6952-3126,http://sillim.sen.es.kr,09시30분~19시30분,126.9273018,37.4771734
서울한서초등학교병설유치원,공립(병설),서울특별시 마포구 대흥로24바길 27,02-717-0954,http://www.hanseo.es.kr,09시00분~17시00분,126.949781,37.5536486
라온유치원,사립(사인),서울특별시 동대문구 답십리로48길 56,02-22170430,https://cafe.naver.com/raon0701,09시00분~16시00분,127.0575981,37.5702636
서울무학초등학교병설유치원,공립(병설),서울특별시 성동구 무학봉15길 21,02-2290-3206,,09시00분~20시00분,127.0295035,37.563134
서울강솔초등학교병설유치원,공립(병설),서울특별시 강동구 고덕로97길 80,02-2147-5200,http://www.gangsol.kg.kr,09시00분~19시30분,127.180342,37.562097
서울학동초등학교병설유치원,공립(병설),서울특별시 강남구 선릉로115길 42,02-6081-51854,,09시00분~19시30분,127.0395511,37.512253
서울가양초등학교병설유치원,공립(병설),서울특별시 강서구 허준로 186,02-3662-8731,http://blog.naver.com/kayang2015,09시00분~19시30분,126.8586299,37.5618039
서울송파초등학교병설유치원,공립(병설),서울특별시 송파구 백제고분로 400,02-3431-8858,http://songpa.sen.es.kr,09시00분~17시00분,127.1109643,37.5071265
서울등명초등학교병설유치원,공립(병설),서울특별시 강서구 강서로56나길 34,02-36652394,http://www.dungmyong.es.kr,09시30분~19시30분,126.8425054,37.5607729
