no,name,gugun,address,lat,lng
301,경복궁역 7번출구 앞,종로구,서울특별시 종로구 사직로 지하130,37.575794,126.971451
302,경복궁역 4번출구 뒤,종로구,서울특별시 종로구 사직로 지하130,37.575947,126.97406
303,광화문역 1번출구 앞,종로구,서울특별시 종로구 세종대로 지하189,37.57177,126.974663
304,광화문역 2번출구 앞,종로구,서울특별시 종로구 세종대로 지하172,37.572113,126.977577
305,종로구청 옆,종로구,서울특별시 종로구 삼봉로 43,37.572582,126.978355
306,광화문역 7번출구 앞,종로구,서울특별시 종로구 세종대로 지하172,37.570808,126.976433
307,서울역사박물관 앞,종로구,서울특별시 종로구 새문안로 55,37.57,126.9711
308,광화문 S타워 앞,종로구,서울특별시 종로구 새문안로 82,37.569969,126.973938
309,광화문역 6번출구 옆,종로구,서울특별시 종로구 세종대로 지하172,37.569889,126.976456
314,국립현대미술관,종로구,서울특별시 종로구 삼청로 30,37.579708,126.980858
316,종각역 1번출구 앞,종로구,서울특별시 종로구 종로 47,37.570396,126.981789
326,안국역 5번출구 앞,종로구,서울특별시 종로구 율곡로 지하62,37.576241,126.98616
327,낙원상가 옆,종로구,서울특별시 종로구 삼일대로 428,37.573357,126.987465
328,탑골공원 앞,종로구,서울특별시 종로구 종로 99,37.570396,126.98819
329,청계2가 사거리 옆,종로구,서울특별시 종로구 청계천로 93,37.568344,126.987892
334,종로3가역 2번출구 뒤,종로구,서울특별시 종로구 종로 지하129,37.570599,126.991791
335,종로3가역 15번출구 앞,종로구,서울특별시 종로구 종로 지하129,37.570198,126.991257
337,창경궁 입구,종로구,서울특별시 종로구 창경궁로 185,37.578979,126.996475
338,세운스퀘어 앞,종로구,서울특별시 종로구 창경궁로 109,37.570957,126.997124
339,종로4가 사거리,종로구,서울특별시 종로구 종로 185,37.571068,126.998192
340,혜화동 로터리,종로구,서울특별시 종로구 창경궁로 271-1,37.585629,127.000679
341,혜화역 3번출구 뒤,종로구,서울특별시 종로구 대학로 지하120,37.58157,127.001785
342,대학로 마로니에공원,종로구,서울특별시 종로구 대학로 104,37.579784,127.002533
343,예일빌딩(율곡로) 앞,종로구,서울특별시 종로구 율곡로 238,37.575432,127.004982
344,성균관대 E하우스 앞,종로구,서울특별시 종로구 율곡로 259,37.574036,127.006721
345,서울보증보험본사 앞,종로구,서울특별시 종로구 김상옥로 29,37.573307,127.00071
348,독립문역 사거리,종로구,서울특별시 종로구 교북동 10-1,37.572029,126.960785
349,사직동주민센터,종로구,서울특별시 종로구 사직로9길 5,37.576332,126.96859
351,청운초교 앞 삼거리,종로구,서울특별시 종로구 청운동 108-22,37.585079,126.970619
352,중앙고입구 삼거리,종로구,서울특별시 종로구 창덕궁길 191,37.583416,126.985237
353,재동초교 앞 삼거리,종로구,서울특별시 종로구 재동 19,37.579388,126.984947
354,포르투갈 대사관 앞,종로구,서울특별시 종로구 창덕궁1길 3,37.579155,126.98896
355,서울사대부속초교 앞,종로구,서울특별시 종로구 연건동 178-3,37.576508,127.002457
356,KT혜화지사 앞,종로구,서울특별시 종로구 대학로 65,37.577145,127.00206
358,성대입구 사거리,종로구,서울특별시 종로구 창경궁로 234,37.5825,126.998535
359,원남동사거리,종로구,서울특별시 종로구 율곡로 169,37.576061,126.997681
361,동묘앞역 1번출구 뒤,종로구,서울특별시 종로구 숭인동 81-39,37.573242,127.015907
362,청계8가 사거리,종로구,서울특별시 종로구 청계천로 407,37.572224,127.022705
363,신설동역 11번출구 뒤,종로구,서울특별시 종로구 숭인동 1311,37.57576,127.022835
364,창신역 1번출구 앞,종로구,서울특별시 종로구 지봉로 87,37.579334,127.015083
367,독립문역 3-1번출구,종로구,서울특별시 종로구 무악동 41-7,37.573849,126.958694
368,SK 서린빌딩 앞,종로구,서울특별시 종로구 서린동 93-2,37.569248,126.980537
369,광화문 시민열린마당,종로구,서울특별시 종로구 세종로 76-5,37.575493,126.9785
385,종각역 5번출구,종로구,서울특별시 종로구 서린동 26-1,37.569836,126.982658
388,동성중학교 앞,종로구,서울특별시 종로구 혜화동 56,37.585735,127.00161
393,동대문역 8번 출구,종로구,서울특별시 종로구 율곡로 지하 308,37.570141,127.009377
394,경희궁 자이 3단지,종로구,서울특별시 종로구 경교장길 35,37.56749,126.965919
395,경희궁 자이 2단지,종로구,서울특별시 종로구 송월길 99,37.568855,126.964561
397,종묘공영주차장 건너편,종로구,서울특별시 종로구 종로 지하 200,37.57048,126.996635
446,상명대입구,종로구,서울특별시 종로구 홍지문길 1,37.600128,126.957832
447,신영동삼거리,종로구,서울특별시 종로구 진흥로 499,37.603992,126.961945
449,일성아파트,종로구,서울특별시 종로구 평창문화로 119,37.608719,126.972862
450,효자동 삼거리,종로구,서울특별시 종로구 효자로13길 45,37.583603,126.972549
451,청와대앞길,종로구,서울특별시 종로구 청와대로 73,37.583515,126.979668
452,동대문 종합시장 버스정류장,종로구, 종로구 종로5가 11-2,37.571239,127.00441
453,종로오가 지하쇼핑센터 14번출구,종로구,종로5가 82-1 ,37.57114,127.000671
454,종로2가 버스정류장 (종각방향),종로구, 종로구 종로 79-1,37.570358,126.986382
455,삼익한의원,종로구,종로구 종로5가 269-3,37.570961,127.006058
456,숭인2동 주민센터 입구 (이강3대냉면),종로구, 종로구 숭인동 183-2,37.574471,127.019829
457,종로꽃시장 입구 옆,종로구,종로구 종로6가 94-1,37.57132,127.00721
458,광화문역 5번출구,종로구,종로구 세종로 1-68 ,37.569939,126.977539
461,서울지방경찰청,종로구,종로구 내자동 186-3 ,37.574364,126.972366
462,신영동삼거리(북악터널방향),종로구,종로구 평창문화로 6-4,37.603512,126.962067
464,삼청동 골목,종로구,종로구 팔판길 46,37.58419,126.981697
465,삼청공원 앞,종로구,서울특별시 종로구 삼청동 25-32,37.587605,126.983597
486,평창동주민센터 앞,종로구,서울특별시 종로구 평창동 187-2,,
3401,창신두산아파트,종로구,종로구 지봉로5길 7,37.573761,127.013939
3402,이화공영주차장,종로구,율곡로19길 17-3,37.576607,127.00557
3403,서울특별시 교육청,종로구,종로구 송월길48,37.569508,126.967011
3404,서울특별시 중부교육지원청,종로구,종로구 대학로 10,37.571854,127.002358
3405,파크팰리스,종로구,사직로8길20(내수동95),37.574551,126.970551
3406,세종로공원,종로구,세종로79-12,37.574059,126.9758
3407,안국동사거리(신),종로구,안국동175-92,37.575806,126.983391
3408,종로타워빌딩,종로구,공평동70-4,37.570511,126.983368
3410,종로3가역 8번출구,종로구,묘동90-3,37.572037,126.991844
3411,종묘,종로구,종로153-2,37.570702,126.994812
3412,세운상가,종로구,종로160-1,37.570313,126.994545
3413,종로플레이스,종로구,인의동28-1,37.5732,126.997963
3414,종로5가역 4번출구,종로구,종로5가 73-2,37.571175,127.002228
3415,동대문역6번출구,종로구,창신동487-5,,
3416,동묘앞역 6번출구,종로구,창신동397-6,37.571533,127.015617
3417,창신3동주민센터,종로구,창신동23-215,37.577724,127.015251
3418,창신역2번 출구,종로구,창신동 1-105,37.579987,127.01506
3419,국립어린이과학관,종로구,창경궁로215(와룡동2-70),37.581947,126.997368
3420,성균관대입구사거리(맥도날드),종로구,창경궁로241,37.583275,126.998856
3421,혜화역 1번출구,종로구,대학로144,37.583855,127.001854
3422,성균관대 정문,종로구,성균관로31,37.584797,126.997131
3423,현대그룹(본사),종로구,종로구 연지동 1-38,37.575836,127.000694
3425,광화문 풍림스페이스본 1단지앞,종로구,사직로8길4,37.574848,126.968269
3426,독립문역 2번출구 뒤,종로구,무악동11-11,37.575016,126.95755
3427,인왕산 아이파크 정문,종로구,통일로16길8-3,37.576603,126.956749
3428,서울미술관,종로구,자하문로231,37.595127,126.963493
3429,AW컨벤션앞,종로구,자하문로255,37.59726,126.963089
3430,구기치안센터 앞,종로구,비봉길12,37.60854,126.957138
3431,로제우스 레포츠센터,종로구,진흥로466,37.607601,126.957687
3432,종로2가 사거리,종로구,종로2가 56-17,37.569992,126.988342
4702,"평창동 꽃여울(꽃집),스타벅스 앞",종로구,평창12길 3,,
4710,자교교회 앞,종로구,자하문로 58,,
4711,올림픽기념 국민생활관 로터리,종로구,종로구 혜화동 9-8,,
300,정동사거리,중구,서울특별시 중구 정동길 2-1,37.56805,126.969231
310,청계광장 옆,중구,서울특별시 중구 세종대로 136,37.568878,126.97747
311,서울광장 옆,중구,서울특별시 중구 세종대로 지하 101,37.566612,126.97747
312,시청역 1번출구 뒤,중구,서울특별시 중구 세종대로 지하101,37.564674,126.976738
318,광교사거리 남측,중구,서울특별시 중구 청계천로 30,37.568527,126.982552
320,을지로입구역 4번출구 앞,중구,서울특별시 중구 을지로 55,37.566223,126.983589
321,KEB 하나금융그룹 명동사옥 옆,중구,서울특별시 중구 을지로 66,37.565464,126.984138
322,명동성당 앞,중구,서울특별시 중구 명동길 74,37.564476,126.986969
324,신세계백화점 본점 앞,중구,서울특별시 중구 퇴계로 77,37.56134,126.9804
331,을지로2가 사거리 북측,중구,서울특별시 중구 을지로 79,37.566383,126.987206
332,을지로2가 사거리 남측,중구,중구 을지로2가 149-10 ,37.56599,126.987793
336,티마크 호텔 앞,중구,서울특별시 중구 충무로 15,37.562618,126.992836
346,맥스타일 앞,중구,서울특별시 중구 마장로 3,37.569183,127.00988
347,동대문역사문화공원역 9번출구 앞,중구,서울특별시 중구 장충단로 지하230,37.565331,127.007843
370,시청역(2호선) 9번출구 뒤,중구,서울특별시 중구 서소문로 지하127,37.563229,126.974838
371,동대입구역 6번출구 뒤,중구,서울특별시 중구 동호로 지하256,37.558872,127.005539
372,약수역 3번출구 뒤,중구,서울특별시 중구 다산로 지하122,37.554295,127.0112
373,청구 어린이공원,중구,서울특별시 중구 다산로14길 41,37.555859,127.013855
374,청구역 2번출구 앞,중구,서울특별시 중구 청구로 지하77,37.560474,127.014076
375,다산 어린이공원,중구,서울특별시 중구 다산로40길 37,37.563717,127.018425
378,청계7가 사거리,중구,서울특별시 중구 다산로 지하260,37.569805,127.016953
379,서울역9번출구,중구,서울특별시 중구 세종대로 지하2,37.556,126.973358
380,CJ제일제당 앞,중구,서울특별시 중구 동호로 330,37.563866,127.002747
381,장충체육관,중구,서울특별시 중구 장충동2가 200-99,37.558533,127.006989
382,약수역 10번출구 앞,중구,서울특별시 중구 신당동 357-1,37.555199,127.010048
383,신당역 12번 출구 뒤,중구,서울특별시 중구 신당동 99,37.565849,127.016403
384,종로학원본원,중구,서울특별시 중구 청파로 456,37.55978,126.968506
387,훈련원공원주차장 앞,중구,서울특별시 중구 을지로 227,37.566994,127.003464
389,을지로4가역 1번출구,중구,서울특별시 중구 을지로 지하 178,37.56673,126.996605
390,충무로역 1번출구,중구,서울특별시 중구 퇴계로 212,37.56139,126.995354
391,정동길입구,중구,서울특별시 중구 세종대로19길 16,37.565437,126.973305
398,을지로3가역 3번출구,중구,중구 을지로3가 282-8 ,37.566559,126.992439
399,서울역 센트럴 자이아파트,중구,중구 만리동2가 176-1,37.554108,126.965408
428,명보사거리,중구,중구 초동 22-2 ,37.5644,126.991432
429,송도병원,중구,중구 신당동 432-730,37.549889,127.007347
430,KEB하나은행 장충동지점,중구,중구 장충동1가 26-1,37.562172,127.006264
431,청계천 영도교,중구,중구 황학동 2472-1 ,37.5709,127.019524
433,을지로입구역 2번출구,중구,중구 을지로1가 118,37.566345,126.982292
434,신당 래미안 버스정류장,중구,중구 신당동 85-730,37.561489,127.023933
435,SK 남산빌딩,중구,중구 남대문로5가 520,37.556862,126.975616
826,서울역 서부교차로2,중구,서울특별시 중구 만리동1가 22-1,37.555367,126.968643
441,염천교사거리,중구,중구 순화동 212-9,37.559891,126.97068
442,서울역 서부,중구,봉래동 2가 122-11,37.553692,126.97216
443,호암아트홀,중구,봉래동 2가 122-11,37.562111,126.970718
444,서울역3번 출구,중구,통일로 20,37.557602,126.97258
445,대한상공회의소,중구,세종대로 39,37.560291,126.974548
466,롯데호텔,중구,을지로 30,37.565842,126.979813
467,한국은행,중구,남대문로 39,37.562214,126.980866
468,웨스틴 조선호텔,중구,소공로 106,37.564159,126.979485
469,회현역 1번출구,중구,퇴계로 72,37.559231,126.980141
470,회현역 7번출구,중구,회현동 1가 23-1,37.55965,126.979889
471,회현사거리 남측,중구,퇴계로 100,37.56036,126.982651
472,삼일교(시그니쳐 타워),중구,청계천로 100,37.567871,126.988983
473,을지로4가역 9번출구,중구,을지로 170,37.566051,126.997986
474,동대문역사문화공원역 1번출구 뒤편,중구,을지로 281,37.566299,127.008492
475,ddp패션몰,중구,마장로 22,37.56765,127.01181
476,광희문,중구,퇴계로 344,37.56443,127.009956
477,앰배서더 호텔 주변,중구,장충동2가 191-21,37.559288,127.002686
479,동대입구역 3번 출구,중구,장충동2가 199-4,37.559376,127.006027
480,약수역 6번 출구,중구,동호로 177,37.554321,127.010704
481,신당역 10번 출구,중구,청계천로 100,37.567032,127.015793
482,예수소망교회,중구,청구로 32,37.55994,127.018478
483,남산타운아파트 버스정류장,중구,신당동 산 24-110,37.547585,127.006439
484,도동삼거리,중구,남창동 205-166,37.555767,126.977188
485,서울역4번출구,중구,중구 남대문로5가,37.557404,126.973251
3013,서울지방고용노동청 앞,중구,서울 중구 삼일대로 363,,
4761,탐앤탐스 을지로3가점,중구,초동 107-9,,
4762,국제빌딩,중구,남대문로 109,,
4772,중앙일보,중구,서소문동58-6,,
4774,을지로입구역 8번출구,중구,을지로1가 140-1,,
4775,을지로지하쇼핑센터,중구,을지로1가 199-80,,
4776,신세계면세점,중구,충무로1가 54-3,,
4778,대신파이낸스센터,중구,저동1가 48-10,,
4784,중부경찰서앞 사거리,중구,저동2가 22-1,,
4785,롯데시티호텔,중구,장교동 74,,
4791,명동역9번출구,중구,중구 충무로2가 111,,
800,목월공원 앞,용산구,서울특별시 용산구 원효로4가 109-10,37.532433,126.954742
802,한강진역 2번 출구 앞,용산구,서울특별시 용산구 한남동 726-494,37.541153,127.002213
803,한남초교 앞 보도육교,용산구,서울특별시 용산구 한남동 725-17,37.538139,127.004097
805,문배어린이공원 앞,용산구,서울특별시 용산구 문배동 34-10,37.536758,126.970001
806,전자랜드 본관 앞,용산구,서울특별시 용산구 한강로3가 16-8,37.533066,126.960732
807,서울역 12번 출구 앞,용산구,서울특별시 용산구 동자동 14-229,37.552277,126.972687
808,서빙고동 금호맨션 앞,용산구,서울특별시 용산구 서빙고동 235-5,37.520504,126.989738
809,한남 유수지 복개주차장,용산구,서울특별시 용산구 독서당로 18,37.530167,127.007439
810,이태원지하보도,용산구,서울특별시 용산구 용산동2가 5-1812,37.53841,126.986649
811,녹사평역1번출구,용산구,서울특별시 용산구 용산동2가 6-7,37.53508,126.985382
812,용산전쟁기념관,용산구,서울특별시 용산구 용산동1가 8-4,37.53484,126.977661
813,삼각지역 3번출구,용산구,서울특별시 용산구 한강로1가 228-1,37.533512,126.972275
815,LIG강촌아파트 103동앞,용산구,서울특별시 용산구 이촌동301-5,37.518509,126.978798
816,신용산역 6번출구 앞,용산구,서울특별시 용산구 한강대로 115,37.530148,126.968483
817,삼각지역 4번출구 앞,용산구,서울특별시 용산구 한강대로 161,37.533451,126.971733
818,숙명여대 입구 교차로,용산구,서울특별시 용산구 청파로47길 100,37.544895,126.969383
819,선린인터넷 고등학교,용산구,서울특별시 용산구 원효로97길 33-4,37.541653,126.970505
820,청파동입구 교차로,용산구,서울특별시 용산구 한강대로 349,37.549026,126.971947
822,이촌1동 마을공원,용산구,서울특별시 용산구 이촌로 219,37.522041,126.965523
823,효창동주민센터 앞,용산구,서울특별시 용산구 효창동 255-17 임,37.54232,126.96196
825,서빙고동 주민센터 앞,용산구,서울특별시 용산구 서빙고로 279,37.520336,126.994263
827,국군복지단,용산구,서울특별시 용산구 두텁바위로 54-99,37.541885,126.97966
828,숙대입구역 8번,용산구,서울특별시 용산구 한강대로 289,37.544079,126.972
829,베르가모앞,용산구,서울특별시 용산구 한강대로 23,37.52293,126.961693
830,청암자이아파트앞,용산구,서울특별시 용산구 원효로 35,37.534424,126.94857
831,이태원관광특구입구,용산구,서울특별시 용산구 이태원로 134,37.534279,126.988564
832,이촌1동 주민센터 뒤,용산구,서울특별시 용산구 이촌로71길 24,37.521282,126.973465
834,효창공원앞역 3번출구 뒤,용산구,서울특별시 용산구 백범로 지하 287,37.539009,126.96138
835,남영역 건너편,용산구,서울특별시 용산구 한강대로77길 18,37.541981,126.971542
836,현대자동차서비스 앞,용산구,서울특별시 용산구 원효로 74,37.531422,126.9515
837,한남나들목 입구,용산구,서울특별시 용산구 서빙고로 417,37.52906,127.006729
838,숙대입구역 4번출구,용산구,서울특별시 용산구 남영동 19-8,37.54446,126.972389
839,보광동 삼성리버빌아파트 앞,용산구,용산구 보광로5길 40,37.52401,127.00145
840,용산 파크타워 앞,용산구,용산구 서빙고로 67,37.523651,126.970268
841,신용산역 1번 출구,용산구,용산구 한강대로 100,37.52961,126.968872
843,녹사평역 광장,용산구,용산구 이태원로 134,37.533798,126.98867
844,이촌2동 동원베네스트 아파트 앞,용산구,용산구 이촌로14길 7,37.527149,126.955162
845,용산 선인상가,용산구,용산구 한강로3가 3-42,37.5327,126.964378
846,용산중학교,용산구,  용산구 후암동 260,37.546638,126.981041
847, 국방부민원실옆,용산구,"용산동3가 1번지 앞,
 (이태원로)",37.534523,126.977501
848, 삼각지12번 출구,용산구,한강로1가 24-7 ,37.535259,126.975052
849, 삼각지 자이아파트,용산구,한강로1가 80-11 ,37.536079,126.973419
850, KCC용산월츠타워 ,용산구,백범로90길 90,37.537399,126.968926
851,효창 푸르지오 앞,용산구,백범로 260,37.540478,126.958115
852,청암자이APT(103동),용산구,청암동 92-1 ,37.534527,126.947182
853,용산역 맞은편,용산구,한강로2가 408-5 ,37.528568,126.965691
854,HID 유족동지회 앞,용산구,이태원로 271,37.538727,127.001549
855,이촌역5번출구 앞,용산구, 서빙고로 83,37.522724,126.972771
857, 현대 안성타워,용산구,이태원로 217,37.535023,126.998055
858,녹사평역3번 출구,용산구,용산동4가 1-1,37.534409,126.986893
859,남산공원 야외식물원 앞,용산구,이태원동 259-16,37.541885,126.995865
860,LG한강 자이아파트 앞,용산구,용산구 이촌동 429 ,37.520695,126.970978
863,이촌역2번 출구,용산구,용산동5가 17,37.52177,126.977005
864,순천향대학병원(한남오거리),용산구,한남동 705-5 (한남대로),37.535141,127.006004
865,하얏트호텔 앞,용산구,"한남동 산 10-138
 (소월로)",37.540794,126.997849
866,브라운스톤 남산아파트,용산구,후암동 458,37.551548,126.97686
867,서빙고역 광장(1번출구),용산구,서빙고동241-14,37.519909,126.989235
868,롯데하이마트 용산점 앞,용산구,원효로208,37.53722,126.965019
869,노들섬 동측 앞,용산구,서울특별시 용산구 이촌동 303-8,37.517296,126.959145
870,노들섬 서측 앞,용산구,서울특별시 용산구 이촌동 304-11,37.517319,126.958298
4602,숙명여대앞 버스정류소 주변,용산구,청파로47길 99,,
4604,원효로다목적체육관 앞,용산구,원효로3가 54-14,,
4605,"노들섬 다목적홀(동쪽) 숲, 앞",용산구,이촌동 303-15,,
4616,신용산지하차도 앞,용산구,한강로3가 6,,
4617,동원베네스트 건너편,용산구,한강로3가 37-2,,
4618,풍전아파트 건너편,용산구,원효로4가 114-38,,
4627,효창공원앞역 5번출구 옆,용산구,효창동 12-14,,
3511,응봉역 1번출구,성동구,서울특별시 성동구 고산자로 123,37.55125,127.035103
3513,상왕십리역 1번출구,성동구,서울특별시 성동구 하왕십리동 860-1 ,37.56461,127.029198
3514,왕십리교회옆,성동구,서울특별시 성동구 상왕십리동 350-1 ,37.566261,127.023697
3515,서울숲 관리사무소,성동구,서울특별시 성동구 성수동1가 678-1,37.542816,127.042084
3525,금호스포츠센터앞,성동구,금호로30,37.546089,127.02507
3527,왕십리 자이아파트,성동구,성동구 하왕십리동 999,37.56179,127.024391
3530,왕십리자이아파트 후문(삼거리),성동구,성동구 하왕십리동 1063,37.560146,127.02636
3531,논골사거리(금호도서관 입구),성동구,성동구 금호동1가 1350,37.554779,127.024841
3532,왕십리KCC스위첸아파트,성동구,성동구 무학봉길 35,37.56068,127.026779
3538,서울숲 IT캐슬,성동구,성동구 성수동1가 671-41,37.550892,127.044762
506,금호 어울림 아파트 앞,성동구,서울특별시 성동구 광나루로 249,37.549061,127.057793
507,성수아이에스비즈타워 앞,성동구,서울특별시 성동구 성수이로 147,37.548203,127.057114
508,성수아카데미타워 앞,성동구,서울특별시 성동구 성수이로 118,37.545166,127.05751
509,이마트 버스정류소 옆,성동구,서울특별시 성동구 뚝섬로 379,37.539654,127.052589
510,서울숲 남문 버스정류소 옆,성동구,서울특별시 성동구 왕십리로11길 9,37.541222,127.0438
511,서울숲역 4번 출구 옆,성동구,서울특별시 성동구 왕십리로 지하77,37.544582,127.044609
512,뚝섬역 1번 출구 옆,성동구,서울특별시 성동구 아차산로 18,37.548561,127.045006
513,뚝섬역 5번 출구 정류소 옆,성동구,서울특별시 성동구 아차산로 18,37.546307,127.049805
514,성수사거리 버스정류장 앞,성동구,서울특별시 성동구 아차산로 171,37.54258,127.063309
518,청계천 박물관 앞,성동구,서울특별시 성동구 마장동 610,37.571526,127.035355
519,양지사거리,성동구,서울특별시 성동구 홍익동 590,37.566994,127.029915
520,상왕십리역 4번 출구 앞,성동구,서울특별시 성동구 하왕십리동 960-3,37.563858,127.030319
521,왕십리역 11번 출구 앞,성동구,서울특별시 성동구 행당동 188-9,37.561447,127.03492
522,금호역 1번출구 앞,성동구,서울특별시 성동구 금호동3가 1575-3,37.548641,127.016426
523,옥수동성당 옆,성동구,서울특별시 성동구 옥수동 산5-148,37.543663,127.014061
524,래미안금호하이리버 아파트 102동 옆,성동구,서울특별시 성동구 금호동2가 1220-1,37.5522,127.025055
525,한양대병원사거리,성동구,서울특별시 성동구 행당동 20-2,37.558052,127.040352
526,용답토속공원 앞,성동구,서울특별시 성동구 용답동 224-1,37.563511,127.056725
529,장한평역 8번 출구 앞,성동구,서울특별시 성동구 용답동 224-3,37.561371,127.06366
530,청계벽산아파트 앞,성동구,서울특별시 성동구 하왕십리동 286-24,37.568748,127.030403
533,우리은행 금호동 지점 앞,성동구,서울특별시 성동구 금호동4가 1101,37.548149,127.021088
534,금호사거리,성동구,서울특별시 성동구 금호동2가 1205-1,37.548634,127.025726
535,응봉삼거리,성동구,서울특별시 성동구 응봉동 134-26,37.553986,127.033592
536,행당역 2번출구 앞,성동구,서울특별시 성동구 행당동 347-11,37.55735,127.029213
537,한양대후문역 부근,성동구,서울특별시 성동구 행당동 10,37.560356,127.041397
538,답십리역 8번출구 앞,성동구,서울특별시 성동구 용답동 102-1,37.56765,127.051155
550,서울시설공단 앞,성동구,서울특별시 성동구 마장동 610,37.57164,127.03566
556,달맞이공원,성동구,서울특별시 성동구 금호동4가 367-1,37.542053,127.020401
557,도선동 주민센터 앞,성동구,서울특별시 성동구 무학로10길 6,37.567642,127.025696
558,성동광진 교육지원청 앞,성동구,서울특별시 성동구 고산자로 260,37.564606,127.036522
559,왕십리역 4번 출구 건너편,성동구,서울특별시 성동구 왕십리광장로 10-1,37.561096,127.036797
560,비전교회 앞,성동구,서울특별시 성동구 동일로 213,37.551205,127.068932
561,서울숲역 2번출구 앞,성동구,서울특별시 성동구 왕십리로 64,37.542816,127.04467
562,군자지하보도 앞,성동구,서울특별시 성동구 동일로 313,37.559246,127.07341
563,성동세무서 건너편,성동구,서울특별시 성동구 광나루로 302,37.547913,127.062752
564,금호역 3번출구,성동구,서울특별시 성동구 동호로 99,37.547928,127.015572
565,옥수역 3번출구,성동구,서울특별시 성동구 한림말길 56,37.541363,127.017662
567,성수역 2번출구 앞,성동구,서울특별시 성동구 아차산로 113,37.54459,127.057083
568,청계8가사거리 부근,성동구,서울특별시 동대문구 청계천로 417,37.571102,127.02356
569,응봉현대아파트 정류소,성동구,서울특별시 성동구 독서당로 381,37.549583,127.030243
578,성동세무서 부근,성동구,서울특별시 성동구 광나루로 303-1,37.548286,127.062088
579,마장역 4번출구,성동구,서울특별시 성동구 마장로 292-1,37.565205,127.041847
581,용답초등학교,성동구,서울특별시 성동구 용답25길 1,37.561012,127.054237
582,경일중학교 앞,성동구,서울특별시 성동구 성수일로 27,37.543179,127.04908
583,청계천 생태교실 앞,성동구,서울특별시 성동구 마장로39길 51,37.56797,127.04689
583,청계천 생태교실 앞,성동구,서울특별시 성동구 마장로39길 51,,
585,성수2가1동 공영주차장 인근,성동구,서울특별시 성동구 성수동2가 569-3,37.536808,127.055489
586,마장동 주민센터,성동구,서울특별시 성동구 마장로42길 14,37.565941,127.045395
587,유니베라 앞,성동구,서울특별시 성동구 성수동2가 276-5,37.545418,127.052643
589,성수역3번출구,성동구,서울특별시 성동구 아차산로 100,37.544159,127.056656
594,중랑물재생센터(서울새활용플라자),성동구,서울특별시 성동구 자동차시장길 49,37.558365,127.056908
3544,한양대역 3번 출구,성동구,왕십리로 206,37.554539,127.043778
3545,한양대역 1번출구,성동구,왕십리로 206,37.55658,127.043358
3547,상왕십리역 6번 출입구,성동구,왕십리로374(지하),37.564381,127.02887
3548,뚝섬역 6번출구,성동구,뚝섬로1길 63,37.546959,127.047669
3549,건영아파트 앞,성동구,성동구 동일로 265,37.555141,127.071106
3550,금호나들목,성동구,금호동4가 341,37.544041,127.023201
3551,성동도로사업소,성동구,성동구 용답동 223-7,37.559799,127.056328
3552,서울숲 공영주차장앞,성동구,성수동1가719,37.541958,127.04277
3553,마장역3번출구,성동구,마장로304-6,37.565979,127.043114
3555,양지사거리(센트라스APT 115동앞),성동구,용답역 2번출구 앞,37.566818,127.029152
3556,신금호파크자이APT앞,성동구,금호로173,37.555313,127.019791
3557,서울숲리버뷰자이APT105동 앞,성동구,행당동379,37.55653,127.039131
3558,마장동 금호어울림APT앞,성동구,마조로64-2,37.563396,127.04187
3559,성동구민종합체육센터 앞,성동구,왕십리로89,37.54591,127.044601
3560,성동구 견인차량 보관소 앞,성동구,천호대로336,37.563709,127.05645
3561,행당동 삼부APT후문,성동구,왕십리로278-17,37.559269,127.038399
3600,사근빗물펌프장 건너편,성동구,성동구 사근동 239-1,,
4353,코오롱디지털타워 3차앞,성동구,아차산로49,,
4360,르노삼성자동차 성수사업소 앞,성동구,광나루로270,,
4362,행당중학교 후문,성동구,왕십리로189,,
3500,군자역2번출구,광진구,서울특별시 광진구 능동로 313,37.557587,127.079697
3501,광진구청 앞,광진구,서울특별시 광진구 자양로 131,37.539501,127.083
3502,중곡역 1번출구,광진구,서울특별시 광진구 능동로 지하 417,37.565659,127.084297
3503,광진유진스웰,광진구,서울특별시 광진구 아차산로78길 7,37.550488,127.108955
3504,원일교회,광진구,서울특별시 광진구 아차산로 304,37.538052,127.076599
3505,신양초교앞 교차로,광진구,서울특별시 광진구 능동로 42,37.535221,127.068398
3506,영동대교 북단,광진구,서울특별시 광진구 자양동 203-22,37.537014,127.061096
3507,어린이회관,광진구,서울특별시 광진구 능동 465-7,37.545952,127.078003
3508,화양사거리,광진구,서울특별시 광진구 화양동 21-6,37.548222,127.067879
3509,세종사이버대학교,광진구,서울특별시 광진구 군자동 111-2,37.553417,127.073196
3510,중곡SK아파트앞,광진구,서울특별시 광진구 용마산로32길 32,37.568649,127.08625
3516,구의아리수정수센터앞,광진구,서울특별시 광진구 광나루로 571,37.543705,127.093246
3517,용마사거리,광진구,서울특별시 광진구 능동로 373,37.562527,127.082275
3518,군자역 7번출구뒤,광진구,서울특별시 광진구 천호대로 지하 550,37.556862,127.07914
3520,광진경찰서,광진구,서울특별시 광진구 자양로 167,37.542519,127.084084
3521,현대홈타운 뒷길,광진구,서울특별시 광진구 아차산로69길 29,37.543427,127.096619
3523,건국대학교 과학관(이과대) 앞,광진구,서울특별시 광진구 능동로 120,37.541718,127.08017
3524,세종대학교,광진구,서울특별시 광진구 군자로 114,37.550236,127.073822
3528,광진정보도서관,광진구,광장동 141-2,37.550598,127.110512
3529,어린이대공원정문,광진구,능동 339-2,37.549789,127.075928
3533,건대입구역 사거리(롯데백화점),광진구,광진구 자양동 227-337,37.539139,127.070618
3534,건대입구역 5번출구 뒤,광진구,광진구 자양동 1-6 ,37.540138,127.069283
3535,중곡사거리(국민은행),광진구,광진구 중곡동 266-5,37.559158,127.087517
3536,중앙농협(자양동),광진구,광진구 자양동 730 ,37.531811,127.080742
3537,아차산 휴먼시아 아파트 옆,광진구,광진구 구의동 40-2,37.548489,127.093758
3541,커먼그라운드,광진구,광진구 자양동 8-6,37.54504,127.089958
3542,래미안 구의파크 스위트,광진구,광진구 구의동 229-23,37.54504,127.089958
500,어린이대공원역 3번출구 앞,광진구,서울특별시 광진구 능동로 지하210,37.54707,127.074272
501,광진구의회 앞,광진구,서울특별시 광진구 능동로 76,37.537308,127.070351
502,뚝섬유원지역 1번출구 앞,광진구,서울특별시 광진구 능동로 10,37.53186,127.067192
505,자양사거리 광진아크로텔 앞,광진구,서울특별시 광진구 아차산로 355,37.53701,127.082245
515,광양중학교 앞,광진구,서울특별시 광진구 자양로3길 7,37.530235,127.08683
516,광진메디칼 앞,광진구,서울특별시 광진구 광나루로 355,37.548405,127.069366
539,군자교교차로,광진구,서울특별시 광진구 중곡동 263-1,37.559795,127.074203
540,군자역 7번출구 베스트샵 앞,광진구,서울특별시 광진구 군자동 499,37.55603,127.078644
542,강변역 4번출구 뒤,광진구,서울특별시 광진구 구의동 546-6,37.535465,127.094482
543,구의공원(테크노마트 앞),광진구,서울특별시 광진구 구의동 546-3,37.535969,127.094673
544,광남중학교,광진구,서울특별시 광진구 광장동 561-15,37.54073,127.102905
546,잠실대교북단 교차로,광진구,서울특별시 광진구 자양동 722,37.532478,127.085091
548,자양나들목,광진구,서울특별시 광진구 자양동 738,37.52977,127.07486
549,아차산역 3번출구,광진구,서울특별시 광진구 구의동 96,37.551224,127.089706
551,구의삼성쉐르빌 앞,광진구,서울특별시 광진구 구의강변로 106,37.540062,127.094498
552,대림아크로리버 앞,광진구,서울특별시 광진구 구의강변로 64,37.536579,127.092972
553,중곡 성원APT 앞,광진구,서울특별시 광진구 동일로 459,37.571255,127.079803
555,구의3동주민센터,광진구,서울특별시 광진구 강변역로 17,37.537849,127.092171
571,어린이대공원역6번출구,광진구,서울특별시 광진구 군자로 74,37.548496,127.07476
572,국립정신 건강센터 앞,광진구,서울특별시 광진구 능동로 398,37.56538,127.08651
573,구의문주차장 앞,광진구,서울특별시 광진구 능동로 216,37.545231,127.084732
574,아차산역4번출구,광진구,서울특별시 광진구 능동로 216,37.551849,127.088982
575,중앙농협 중곡지점,광진구,서울특별시 광진구 용마산로 120,37.564293,127.086937
576,광나루역 3번 출구,광진구,서울특별시 광진구 아차산로 552,37.54483,127.104263
577,광진청소년수련관,광진구,서울특별시 광진구 구천면로 2,37.546547,127.106133
584,광진광장 교통섬,광진구,서울특별시 광진구 군자동 374-8,37.547829,127.072632
588,뚝섬 유원지역,광진구,서울특별시 광진구 능동로 10,37.532688,127.067497
590,건국대학교 (입학정보관),광진구,서울특별시 광진구 능동로 120,37.53989,127.073364
591,건국대학교 (행정관),광진구,서울특별시 광진구 능동로 120,37.542778,127.075371
592,건국대학교 학생회관,광진구,서울특별시 광진구 능동로 120,37.541912,127.077637
593,자양중앙나들목,광진구,서울특별시 광진구 자양강변길 301,37.528587,127.077873
3543,세종대학교(학술정보원),광진구,서울특별시 광진구 능동로 209 세종대학교,37.551373,127.07444
3563,구의7단지현대아파트,광진구,광진구 구의강변로3가길 39 ,37.53651,127.091393
3564,나루마당,광진구,구의동 148-1,37.547752,127.095757
3566,우성4차아파트,광진구,자양번영로 59,37.535072,127.076111
3569,건대병원후문,광진구,능동로120-1,37.539566,127.072441
3570,구의역 리버비스타 오피스텔,광진구,아차산로417,37.538097,127.08902
3571,화양 APT(횡단보도 옆),광진구,동일로24길5,37.54435,127.065407
3573,광나루안전체험관,광진구,능동로238,37.551338,127.076714
3575,자양사거리 (LG 유플러스),광진구,아차산로360,37.536575,127.082581
3578,중곡동 파크웨이빌딩,광진구,천호대로611,37.555008,127.085815
3579,광진 캠퍼스시티,광진구,동일로178,37.54789,127.067452
3581,광진광장,광진구,광나루로389,37.54747,127.073967
3582,화양동 우체국,광진구,광나루로356,37.547989,127.069504
3586,군자역 비채온 오피스텔,광진구,광진구 천호대로 530(군자동),37.557713,127.077271
3587,우성식품 앞,광진구,광나루로 592,,
3588,세종대학교(영실관),광진구,능동로 209,,
600,휘경2동 주민센터,동대문구,서울특별시 동대문구 한천로 329,37.589912,127.06868
601,용신동주민센터,동대문구,서울특별시 동대문구 용두동 65-25,37.575947,127.037361
602,장안동 사거리,동대문구,서울특별시 동대문구 장한로 25길 2,37.572174,127.071388
604,답십리초등학교 옆 공원,동대문구,서울특별시 동대문구 전농로3길 23,37.569656,127.055962
605,신설동역8번출구,동대문구,서울특별시 동대문구 천호대로 26,37.5742,127.026497
606,휘경공고앞,동대문구,서울특별시 동대문구 겸재로 21,37.584625,127.07029
607,신이문역 2번출구,동대문구,서울특별시 동대문구 이문동186-1,37.602711,127.067863
608,전농삼성아파트,동대문구,서울특별시 동대문구 전농로 192,37.58131,127.055344
609,제기2교,동대문구,서울특별시 동대문구 제기동122-388,37.587791,127.037361
610,동대문중 교차로,동대문구,서울특별시 동대문구 답십리동 524-1,37.573086,127.052162
612,시립동부병원 앞 사거리,동대문구,서울특별시 동대문구 용두동 237-10 ,37.573666,127.030815
613,신설동역 10번출구 앞,동대문구,서울특별시 동대문구 신설동 92-34,37.575272,127.023468
614,용두동 사거리,동대문구,서울특별시 동대문구 용두동 237-10,37.577686,127.031013
615,용두동 래미안허브리츠아파트 앞,동대문구,서울특별시 동대문구 용두동 696-13 ,37.576382,127.03511
616,서울시립대 앞,동대문구, 서울특별시 동대문구 전농동 135-5,37.582561,127.054367
617,청솔우성아파트 앞,동대문구,서울특별시 동대문구 답십리동 94-2 ,37.574203,127.057693
621,동대문중학교 옆,동대문구,서울특별시 동대문구 사가정로 62,37.574718,127.053391
622,전농사거리 교통섬,동대문구,서울특별시 동대문구 사가정로 119,37.577793,127.057831
623,서울시립대 정문 앞,동대문구,서울특별시 동대문구 서울시립대로 161,37.583698,127.053856
624,전농동 동아아파트 앞,동대문구,서울특별시 동대문구 서울시립대로 31,37.574188,127.045891
625,답십리초등학교 앞(현대시장 옆),동대문구,서울특별시 동대문구 전농로 34,37.568192,127.057175
626,군자교 서측 녹지대,동대문구,서울특별시 동대문구 장한로6길 95,37.561153,127.070969
627,장안동삼거리 교통섬,동대문구,서울특별시 동대문구 사가정로 240,37.578632,127.071907
628,휘봉고등학교 앞,동대문구,서울특별시 동대문구 한천로 290,37.586815,127.067543
630,동대문구 보건소,동대문구,서울특별시 동대문구 천호대로 145,37.574852,127.040306
631,답십리역 1번출구,동대문구,서울특별시 동대문구 천호대로 269,37.568184,127.051277
633,청량리 기업은행 앞,동대문구,서울특별시 동대문구 홍릉로 1,37.580406,127.044823
634,외국어대 정문 앞,동대문구,서울특별시 동대문구 이문로 107,37.59602,127.05983
635,시조사 앞 (청량고정문 옆),동대문구,서울특별시 동대문구 이문로1길 11,37.587517,127.052773
636,세종대왕기념관 교차로,동대문구,서울특별시 동대문구 회기로 56,37.5909,127.042587
637,KAIST 경영대학 앞,동대문구,서울특별시 동대문구 회기로 85,37.591614,127.045792
638,서울시립대 정보기술관,동대문구,서울특별시 동대문구 한천로43길 12-14,37.583008,127.060974
639,서울시립대 후문,동대문구,서울특별시 동대문구 한천로43길 12-14,37.585197,127.060951
640,KEB하나은행 청량리역지점,동대문구,서울특별시 동대문구 왕산로 205,37.582455,127.044495
641,용두역 4번출구,동대문구,서울특별시 동대문구 청계천로 563,37.573753,127.038536
642,신답역 사거리,동대문구,서울특별시 동대문구 천호대로 231,,
643,동대문구민체육센터 (육교아래),동대문구,서울특별시 동대문구 장안벚꽃로 77,37.566971,127.074417
646,장한평역 1번출구 (국민은행앞),동대문구,서울특별시 동대문구 천호대로 405,37.561867,127.064377
647,신이문역 1번출구,동대문구,서울특별시 동대문구 신이문로 44,37.602798,127.067268
648,장안동위더스빌옆,동대문구,서울특별시 동대문구 한천로 42,37.5667,127.062424
650,중랑교사거리,동대문구,서울특별시 동대문구 망우로 131,37.591534,127.067741
652,답십리 래미안엘파인아파트 입구,동대문구,동대문구 전농동 6-6,37.57653,127.065941
654,전농동 텃골공원,동대문구,서울특별시 동대문구 사가정로 65,37.577621,127.052109
656,영휘원 교차로,동대문구,동대문구 청량리동 199-232,37.587238,127.043137
657,동대문롯데캐슬아파트 앞,동대문구,동대문구 답십리로23길 30(전농동 518),37.57576,127.04837
658,촬영소 사거리,동대문구,동대문구 답십리로 233(답십리동 2-146),37.572948,127.066147
659,제기역1번출구,동대문구,동대문구 용두동 237-10,37.57835,127.033386
660,동의보감타워,동대문구,동대문구 왕산로 128,37.577999,127.037628
661,경희대학교 청운관,동대문구,동대문구 경희대로 26,37.594601,127.051964
663,외대앞역 4번출구,동대문구,동대문구 휘경동 146-42,37.594891,127.063026
664,서울시립대 대학본부,동대문구,동대문구 서울시립대로 163 서울시립대학교,37.584129,127.057938
665,이문동 쌍용아파트 정문,동대문구,동대문구 한천로58길 47,37.599606,127.068642
666,이문대성유니드아파트 앞,동대문구,한천로58길 151,37.603622,127.070831
667,청량차도 육교 밑,동대문구,제기로 126,37.586594,127.046997
668,서울축산농협(장안지점),동대문구,동대문구 장안동 469-8 ,37.568653,127.069183
669,청계신한신휴플러스앞 삼거리,동대문구,서울시립대로14,37.572048,127.044663
670,삼육서울병원 버스정류장,동대문구,망우로74,37.589687,127.061409
671,대광빌딩,동대문구,동대문구 신설동 168-7 ,37.577343,127.023377
672,대광고등학교,동대문구,동대문구 신설동 397-2 ,37.57859,127.02385
673,안암골벽산아파트(후문),동대문구,동대문구 제기동 190-11 ,37.58408,127.031036
674,고대앞사거리 교통섬,동대문구,동대문구 제기동 142-21 ,37.586552,127.033142
675,성복교회 앞 (장평교 아래),동대문구,동대문구 장안벚꽃로 139,37.572025,127.077004
676,FITI시험연구원 앞,동대문구,동대문구 정릉천동로 102,37.581432,127.035477
677,청량리역 4번 5번출구 사이,동대문구,청량리역환승센터 횡단보도,37.580151,127.045799
678,장안힐스테이트(아) 앞,동대문구,동대문구 답십리로69길 93,37.576557,127.07431
679,전농SK아파트 앞,동대문구,동대문구 사가정로 150 ,37.577877,127.061684
680,꿈마루어린이도서관 앞,동대문구,동대문구 이문로 55,37.592384,127.057411
681,서울특별시 동부교육지원청(육교),동대문구,동대문구 전농로168,37.579838,127.056374
4102,휘경1동주민센터 앞,동대문구, 외대역동로6길 3,,
4103,휘경sk뷰아파트 앞,동대문구,휘경로 71 맞은편,,
4104,외대앞역 교차로,동대문구, 외대역동로 67 맞은편,,
4105,하나은행 장안동지점앞,동대문구,천호대로 343,,
4107,장안동근린공원 입구,동대문구,장안동 300,,
4108,답십리파크자이아파트 앞,동대문구,답십리로56길 124,,
4110,용두롯데캐슬리치아파트 앞,동대문구,무학로 178,,
4112,신이문빗물펌프장 옆,동대문구,이문동 59,,
4113,한국국방연구원 앞,동대문구,회기로 37,,
4116,이문e편한세상아파트 앞,동대문구,한천로63길 10,,
4117,휘경119안전센터 앞,동대문구,망우로 114,,
4121,서울문화재단 앞,동대문구,청계천로 517,,
4122,청계9가교차로 앞,동대문구,청계천로 471,,
4123,배봉초교 교차로,동대문구,사가정로 200,,
1401,극동늘푸른아파트,중랑구,서울특별시 중랑구 동일로 941,37.614738,127.076363
1402,금란주차장 앞,중랑구,서울특별시 중랑구 망우로 448,37.600071,127.102333
1403,중화빌딩 앞 (동부시장),중랑구,서울특별시 중랑구 망우로 211,37.59425,127.076576
1404,동일로 지하차도,중랑구,서울특별시 중랑구 망우로 233,37.595299,127.080032
1405,망우역 1번출구,중랑구,서울특별시 중랑구 망우로55길 11-10,37.599098,127.092949
1406,망우청소년수련관,중랑구,서울특별시 중랑구 송림길 156,37.606251,127.108269
1407,먹골역 1번출구 뒤,중랑구,서울특별시 중랑구 공릉로 12,37.611511,127.077888
1408,먹골역 6번출구 앞,중랑구,서울특별시 중랑구 동일로 지하 901,37.610722,127.077477
1410,면목 대원칸타빌아파트,중랑구,서울특별시 중랑구 용마산로 285,37.577782,127.090187
1411,상봉시장앞 교차로 한성빌딩 앞,중랑구,서울특별시 중랑구 면목로 456,37.592541,127.086739
1412,면목초등학교,중랑구,서울특별시 중랑구 면목로 434,37.590961,127.087067
1413,봉화산역 5번출구 뒤,중랑구,서울특별시 중랑구 신내로 지하 232,37.617561,127.090309
1414,사가정역 1번출구,중랑구,서울특별시 중랑구 사가정로 지하 393,37.581646,127.088432
1416,상봉역 3번출구,중랑구,서울특별시 중랑구 면목로 480,37.595219,127.085999
1418,새솔초등학교,중랑구,서울특별시 중랑구 신내역로1길 164,37.617989,127.110542
1420,신내어울공원 앞,중랑구,서울특별시 중랑구 신내로16길 17,37.614231,127.096764
1421,신내역 4번출구,중랑구,서울특별시 중랑구 신내로 지하 232,37.612461,127.103378
1422,신내우디안아파트 1단지,중랑구,서울특별시 중랑구 신내역로 213,37.620098,127.106461
1424,양원역 2번출구,중랑구,서울특별시 중랑구 송림길 147,37.606312,127.107742
1425,용마문화복지센터,중랑구,서울특별시 중랑구 용마산로86길 9-27,37.58746,127.09597
1426,면목도시개발아파트 1동 앞,중랑구,서울특별시 중랑구 용마산로 지하 227,37.573589,127.086823
1427,용마산역 1번출구,중랑구,서울특별시 중랑구 용마산로 지하 227,37.574299,127.086914
1428,원묵고등학교,중랑구,서울특별시 중랑구 숙선옹주로 66,37.616024,127.085968
1429,장안중학교,중랑구,서울특별시 중랑구 동일로 778,37.599957,127.080002
1430,중랑구청,중랑구,서울특별시 중랑구 봉화산로 179,37.606152,127.092598
1431,중랑구청 사거리,중랑구,서울특별시 중랑구 봉화산로 194,37.606499,127.095451
1433,중화역 2번출구,중랑구,서울특별시 중랑구 동일로 지하 797,37.602077,127.079582
1434,홈플러스 면목동점,중랑구,서울특별시 중랑구 사가정로 332,37.579868,127.082367
1435,능산삼거리,중랑구,서울특별시 중랑구 용마산로 644,37.608681,127.100792
1436,영풍마드레빌,중랑구,서울특별시 중랑구 용마산로129가길 41,37.605881,127.100632
1437,늘푸른공원 앞,중랑구,서울특별시 중랑구 동일로 594,37.58342,127.079926
1438,홈플러스 신내점 앞,중랑구,서울특별시 중랑구 신내로 지하 232,37.616169,127.093483
1440,하나은행 면목지점,중랑구,서울특별시 중랑구 동일로 628,37.586372,127.08007
1441,신내능말공원,중랑구,서울특별시 중랑구 용마산로136길 33,37.616711,127.110733
1442,(구)신한은행 중랑교지점,중랑구,서울특별시 중화동 50-8,37.598591,127.079819
1443,구립망우청소년독서실,중랑구,서울특별시 중랑구 망우동 534-23 ,37.59552,127.098778
1444,면목4치안센터,중랑구,서울특별시 면목동 646-4,37.574028,127.080544
1445,용마지구대,중랑구,서울특별시 면목동 197-5,37.579941,127.079399
1446,중랑전화국 교차로,중랑구,서울특별시 중랑구 면목동 282-8,37.591301,127.08033
1447,면목역 3번출구,중랑구,서울특별시 면목동 120-2,37.588902,127.08728
1448,코스트코 상봉점,중랑구,서울특별시 상봉동 160-3,37.597321,127.089798
1449,상봉역 1번출구,중랑구,서울특별시 중랑구 망우로 297,37.596558,127.085838
1450,화랑대역 7번출구,중랑구,서울특별시 노원구 화랑로 지하 510,37.619625,127.085014
1451,중랑세무서,중랑구,서울특별시 중랑구 망우로 176,37.592758,127.07267
1452,겸재교 진입부,중랑구,중랑구 목동 189-7,37.585655,127.07505
1453,중랑캠핑숲,중랑구,서울특별시 중랑구 송림길 172,37.604603,127.109253
1454,한국전력공사(동대문 중랑지사),중랑구,서울특별시 중랑구 동일로 862,37.607349,127.07859
1455,상봉역 2번 출구,중랑구,서울특별시 중랑구 망우로 297,37.596329,127.085899
1456,상아빌딩(우림시장 교차로),중랑구,서울특별시 중랑구 용마산로 494,37.595112,127.100327
1457,동원사거리,중랑구,서울특별시 중랑구 겸재로 229,37.58976,127.093239
1458,상봉터미널2,중랑구,망우동 534-58,37.59734,127.093086
1459,용마한신아파트사거리,중랑구,면목동 1086-79,37.59734,127.093086
1461,동양엔파트 앞,중랑구,중랑구 망우로 203(중화동),37.593853,127.075073
1462,동부시장 북문 앞,중랑구,중랑구 망우로 214(상봉동),37.593868,127.076523
1463,중랑구민회관,중랑구,면목로238,37.573887,127.084831
1464,중화역 4번출구,중랑구,동일로 813,37.603054,127.079002
1465,중랑공영차고지 옆,중랑구,서울시 중랑구 신내동 63-6,37.613148,127.105148
1466,두산대림아파트 삼거리,중랑구,신내로 23길 9,37.618824,127.08757
1467,sk신내 주유소앞(용마산로),중랑구,신내동 352-2,37.613621,127.101151
1468,먹골역 7번 출구,중랑구,동일로 909,37.611477,127.077393
1469,먹골역 4번출구,중랑구,동일로 890,37.609821,127.078133
1470,중화동 우리은행 앞,중랑구,동일로 837,37.605202,127.078583
1471,동양쇼핑 정류소 앞,중랑구,묵동 198-7,37.615353,127.078491
1472,영성빌딩(PAT),중랑구,동일로 824,37.604084,127.079231
1473,중랑역 1번 출구(중화문화복지센터),중랑구,중랑역로3길 28,37.594891,127.074951
1474,서울중랑우체국,중랑구,망우로 271,37.595814,127.08284
1477,면목삼익아파트 앞,중랑구,동일로 501,37.575985,127.079605
1478,홈플러스 상봉점 앞,중랑구,망우로 353,37.597885,127.091263
1479,면목 홈플러스 2 ,중랑구,중랑구 사가정로 326,37.581055,127.082092
1480, 용마지구대 옆,중랑구,중랑구 동일로 566,37.581112,127.080101
1302,한성대입구역6번출구 뒤,성북구,서울특별시 성북구 동소문로 1,37.588764,127.00631
1303,돈암초교 입구,성북구,서울특별시 성북구 동소문로13길 38,37.591694,127.012497
1304,만해공원,성북구,서울특별시 성북구 성북로 132-1,37.594402,126.99231
1305,성북구청,성북구,서울특별시 성북구 보문로 168,37.589329,127.016434
1306,한성대입구역2번출구,성북구,서울특별시 성북구 동소문로 2,37.588448,127.006706
1308,안암로터리 버스정류장 앞,성북구,서울특별시 성북구 안암로 69,37.582592,127.028976
1314,정릉꿈에그린1단지 201동 앞,성북구,서울특별시 성북구 아리랑로19길 20,37.60244,127.011688
1315,고려사대부속중고 정문,성북구,서울특별시 성북구 보국문로29길 23,37.607761,127.003281
1316,고려사대부속중고 건너편,성북구,서울특별시 성북구 보국문로29길 23,37.607262,127.002838
1318,길음역 3번출구 뒤,성북구,서울특별시 성북구 동소문로 248,37.603085,127.024788
1319,종암사거리 분수대,성북구,서울특별시 성북구 종암로 147,37.603043,127.033272
1320,LG베스트샵 종암점,성북구,서울특별시 성북구 종암로 88,37.59827,127.035027
1321,국민은행 종암동지점 앞,성북구,서울특별시 성북구 종암로3길 37-2,37.593288,127.036667
1322,래미안라센트아파트 103동 앞,성북구,서울특별시 성북구 종암로3길 37-2,37.598068,127.039276
1323,월곡역 입구 육교 밑,성북구,서울특별시 성북구 월곡로 지하 107,37.600433,127.040207
1325,상월곡역 4번출구,성북구,서울특별시 성북구 화랑로 148,37.605808,127.047737
1326,상월곡역 1번출구,성북구,서울특별시 성북구 화랑로 지하 157,37.606068,127.047318
1327,상월곡역 3번출구,성북구,서울특별시 성북구 화랑로 지하 157,37.607342,127.050682
1328,월곡역 3번출구,성북구,서울특별시 성북구 월곡로 지하 107,37.602627,127.041634
1332,석계역 5번출구 건너편,성북구,서울특별시 노원구 화랑로 지하 347-1,37.613556,127.066093
1333,석관초등학교 앞,성북구,서울특별시 성북구 돌곶이로22길 21,37.610523,127.059799
1334,석관동주민센터 앞,성북구,서울특별시 성북구 화랑로 296,37.612999,127.06131
1336,성북3교 위,성북구,서울특별시 성북구 보문로 192,37.591251,127.014008
1337,돈암성당 옆,성북구,서울특별시 성북구 인촌로7길 120,37.590382,127.017136
1338,용문2교 옆,성북구,서울특별시 성북구 인촌로7길 24,37.586899,127.020752
1339,삼성전자서비스 성북센터,성북구,서울특별시 성북구 월계로 28,37.610569,127.033508
1340,광운초등학교 앞,성북구,서울특별시 성북구 한천로 693,37.61956,127.053802
1342,성북쉼터 앞,성북구,서울특별시 성북구 성북로21길 32,37.592617,126.997932
1343,한성대7번출구 앞,성북구,서울특별시 성북구 동소문로 11,37.589249,127.007378
1344,아리랑시네센터 앞,성북구,서울특별시 성북구 아리랑로 82,37.600288,127.013702
1346,길음8골어린이공원 옆,성북구,서울특별시 성북구 길음로13길 22,37.608978,127.020248
1347,길음래미안아파트817동 상가 앞,성북구,서울특별시 성북구 길음로 33,37.607105,127.0215
1348,성북제일새마을금고 본점 앞,성북구,서울특별시 성북구 길음로 20,37.604752,127.022758
1349,월계2교 버스정류장 앞,성북구,서울특별시 성북구 한천로101길 18,37.623829,127.050201
1351,안암2교 옆,성북구,서울특별시 성북구 안암로 17,37.579449,127.024193
1352,e 편한세상 보문아파트 내,성북구,서울특별시 성북구 낙산길 255,37.583881,127.017097
1353,금호어울림센터힐 내,성북구,서울특별시 성북구 동소문로34길 73,37.60083,127.023552
1354,고려대학교 2번출구,성북구,서울특별시 성북구 종암로 지하 1,37.590714,127.036194
1355,보문2교,성북구,서울특별시 성북구 보문로30길 29,37.588699,127.018913
1357,북한산보국문역,성북구,서울특별시 성북구 보국문로 91,37.612072,127.008133
1358,정릉도서관 앞,성북구,서울특별시 성북구 보국문로 7-10,37.60479,127.010582
1359,장위뉴타운 꿈에 숲 코오롱 하늘채 앞,성북구,서울특별시 성북구 월계로 172,37.619801,127.045097
1360,정릉역,성북구,서울특별시 성북구 정릉로 272,37.603096,127.013504
1361,홍익중고 입구,성북구,서울특별시 성북구 성북로14가길 23,37.592842,127.002121
1362,보문역6번출구 앞,성북구,보문로 12,37.585098,127.019676
1363,보문4교 인근,성북구,성북구 안암동3가 86-1,37.583752,127.02195
1364,성북동 치안센터 앞,성북구,성북로 25,37.590172,127.004089
1365,선잠단지 앞,성북구,성북로 102,37.593361,126.999092
1366,일신초등학교 옆,성북구,월곡로 74,37.59972,127.040382
1367,길음문화복합미디어센터,성북구,길음로7길 20,37.603512,127.02256
1368,성신여대입구 교차로,성북구,보문로 34길 87,37.59148,127.020103
1369,미아사거리,성북구,성북구 길음동 15-3,37.609131,127.030029
1370,복자사랑 피정의 집,성북구,성북로 132-4,37.59454,126.995209
1372,KEB은행 고대점,성북구,인촌로 113,37.586445,127.031601
1373,성북구보건소 건너편,성북구,화랑로 63,37.602291,127.038979
1375,생명의 전화 종합복지관 앞 교차로,성북구,하월곡동 96-1,37.603909,127.037376
1376,한국과학기술연구원 중문,성북구,서울특별시 성북구 화랑로14길 5,37.600239,127.04538
1377,한국과학기술연구원 북문,성북구,서울특별시 성북구 화랑로14길 5,37.603958,127.045341
1379,길음뉴타운푸르지오아파트 3단지,성북구,성북구 길음동,37.60936,127.018173
1380,월곡역 5번출구 앞,성북구,하월곡동 226-8(도로),37.601086,127.041237
1381,석계역 4번출구 뒤,성북구,성북구 석관동 375-42,37.614784,127.067001
1382,월곡래미안아파트 입구,성북구,성북구 하월곡동 225-5(공),,
1384,성신여대입구역 5번출구,성북구,성북구 동선동 133-2 앞,37.592827,127.016289
1385,성신여대입구역 3번출구 앞,성북구,성북구 동소문동5가 65-16,37.592365,127.016289
1386,동선고가차도 초입,성북구,"성북구 동선동1가 118-2(도로)
 (동선동1가 120-1 건물 옆)",37.594158,127.018967
1388,커핀그루나루,성북구,성북구 동소문동3가 65-3,37.590881,127.011704
1390,석관래미안아트리치,성북구,석관동 323-15앞,37.606461,127.061623
1391,성북청소년센터,성북구,성북구 장위동 135-4,37.617073,127.056244
1392,돈암삼성풍림아파트,성북구,성북구 돈암동 632-6도,37.597099,127.022629
1393,미아 구름다리,성북구,돈암동 51-30,37.597778,127.021507
1394,길음뉴타운 래미안9단지,성북구,성북구 길음동 1286-12,37.602417,127.019714
1395,레미안장위포레카운티(102동),성북구,성북구 장위동 143-1,37.618179,127.051834
1396,레미안장위퍼스트하이(513동),성북구,성북구 장위동 201-6,37.618443,127.051453
1501,"미아역 3번,4번 출구 사이",강북구,서울특별시 강북구 도봉로 196,37.62608,127.026482
1503,이디야 커피 수유역점 앞,강북구,서울특별시 강북구 도봉로 355,37.639278,127.026756
1504,다이소 삼양시장점,강북구,서울특별시 강북구 삼양로 234,37.624157,127.018623
1506,강북문화예술회관,강북구,서울특별시 강북구 삼각산로 85,37.640327,127.013359
1509,서울북부수도사업소,강북구,서울특별시 강북구 한천로 935,37.634377,127.035751
1510,번동주공5단지 관리사무소 앞,강북구,서울특별시 강북구 오현로25마길 27,37.633717,127.035515
1511,번동 금호어울림아파트102동앞,강북구,서울특별시 강북구 오현로31길 85-7,37.631123,127.036034
1512,강북중학교 앞,강북구,서울특별시 강북구 한천로150길 67,37.644737,127.026566
1513,강북구청 뒷편,강북구,서울특별시 강북구 도봉로89길 13,37.639648,127.025124
1514,강북구청 사거리 버스정류소 앞,강북구,서울특별시 강북구 한천로 1009,37.638805,127.028358
1515,송천동 주민센터,강북구,서울특별시 강북구 솔샘로 284,37.618286,127.024048
1516,우이초등학교 후문 옆,강북구,서울특별시 강북구 삼양로99길 33,37.638706,127.015907
1518,SK telecom(수유직영점) 앞,강북구,서울특별시 강북구 삼양로 439,37.643085,127.016167
1519,세븐일레븐 수유장미원점 앞,강북구,서울특별시 강북구 삼양로 474,37.645451,127.015617
1520,성실교회,강북구,서울특별시 강북구 노해로 50,37.639862,127.022789
1522,월드전기조명인테리어(우이동),강북구,서울특별시 도봉구 삼양로 574,37.654472,127.012756
1525,미아동 복합청사,강북구,서울특별시 강북구 솔매로49길 14,37.62714,127.026695
1526,수유동 채선당앞,강북구,서울특별시 강북구 수유동 140,37.641739,127.024628
1527,미아역 1번 출구 뒤,강북구,서울특별시 강북구 미아동 194-1,37.627335,127.026054
1528,삼각산동 주민센터,강북구,서울특별시 미아동 813-8,37.615036,127.020699
1529,미아동 한국전력공사,강북구,서울특별시 미아동 194-1,37.63018,127.02491
1530,광산사거리,강북구,서울특별시 강북구 노해로 87 ,37.643551,127.022346
1531,미아사거리 1번 출구,강북구,서울특별시 강북구 미아동 66-1,37.613956,127.030251
1532,번3동 주민센터 교차로,강북구,서울특별시 강북구 번동 2-2,37.626354,127.047447
1533,"번동 주공3, 4단지 교차로",강북구,서울특별시 강북구 번동 254,37.629917,127.040916
1534,북서울 꿈의 숲 동문,강북구,서울특별시 강북구 번동 105,37.619637,127.044533
1535,효성인텔리안 앞,강북구,서울특별시 수유동 230-7,37.636292,127.023376
1536,번동 두산위브 101동 옆,강북구,서울특별시 번동 386-17,37.636261,127.032173
1537,북한산 우이역,강북구,서울특별시 강북구 삼양로 670,37.663666,127.012428
1538,솔밭공원역,강북구,서울특별시 강북구 삼양로 595,37.656158,127.013138
1539,4.19민주묘지역,강북구,서울특별시 강북구 삼양로 519,37.649673,127.013451
1540,가오리역,강북구,서울특별시 강북구 삼양로 426,37.64167,127.016884
1541,삼양역,강북구,서울특별시 강북구 삼양로 263,37.62653,127.018059
1542,삼양사거리역,강북구,서울특별시 강북구 삼양로 197,37.621552,127.02037
1543,수유1동 주민센터,강북구,서울특별시 강북구 삼양로 299,37.630188,127.017738
1545,솔샘역 2번 출구,강북구,서울특별시 강북구 솔샘로 195,37.62038,127.01368
1546,송천동우체국,강북구,강북구 미아동 861-1,37.615459,127.029701
1547,꿈의숲 롯데캐슬,강북구,강북구 미아동 1-46,37.618641,127.03624
1548,북서울 꿈의숲 서문,강북구,강북구 번동 123,37.622688,127.037811
1550,삼각산아이원아파트(105동 옆),강북구,강북구 삼양로 19길 113,37.615223,127.018509
1551,4.19탑 앞,강북구,수유동 567-69,37.646862,127.008812
1552,강북구청사거리(던킨도너츠 앞),강북구,강북구 번동 418-1,37.639202,127.027237
1553,예수그리스도후기성도교회 앞,강북구,강북구 번동 433-1,37.635204,127.033966
1554,번동사거리,강북구,강북구 번동 430-76,37.635391,127.034554
1557,신창교,강북구,강북구 번동 612-3,37.632381,127.039307
1558,강북문화정보도서관,강북구,강북구 번동 139-5,37.625526,127.037323
1560,도봉세무서 앞,강북구,강북구 도봉로 117,37.619808,127.028526
1564,4.19민주묘지역 1번출구,강북구,우이동72-229,37.649597,127.013847
1565,대한병원앞,강북구,수유동45-7,37.635612,127.022995
1568,4.19민주묘지 입구사거리,강북구,강북구 삼양료 504,37.647934,127.014572
1569,수유역2번출구,강북구,강북구 수유동,37.63797,127.025902
1571,북서울 꿈의숲 입구,강북구,번3동 139-4,,
1572,우이산 입구,강북구,우이동 207-14,,
1573,현대성우아파트 옆,강북구,미아동 670-33,,
1574,송중초등학교 옆,강북구,미아동 98-42,,
3703,신성교회 앞,강북구,서울 강북구 미아동 458-7도,,
3707,드래곤타워 앞,강북구,서울 강북구 번동 386-16도,,
3711,월계2교 교차로,강북구,서울 강북구 번동 259도,,
3714,송천센트레빌,강북구,서울 강북구 미아동 461-4도,,
1702,녹천역 1번출구 앞,도봉구,서울특별시 도봉구 덕릉로 376,37.646172,127.05056
1703,도봉산광역환승센터앞,도봉구,서울특별시 도봉구 도봉로 955,37.68972,127.045197
1705,도봉구청 정문앞,도봉구,서울특별시 도봉구 마들로 656,37.669224,127.046516
1706,기업은행 앞,도봉구,서울특별시 도봉구 도봉로 683,37.665665,127.042671
1707,도봉구민회관,도봉구,서울특별시 도봉구 도봉로 552,37.654461,127.038513
1708,보건소사거리(다비치안경창동점),도봉구,서울특별시 도봉구 해등로 150,37.65683,127.039848
1709,쌍문역4번출구 주변,도봉구,서울특별시 도봉구 도봉로 지하 486-1,37.650127,127.035347
1713,쌍문동 이안아파트 앞,도봉구,도봉구 쌍문동 315-488,,
1714,도봉문화정보도서관 삼거리,도봉구,서울특별시 도봉구 덕릉로 315,37.64463,127.044609
1715,서울특별시교육청도봉도서관,도봉구,서울특별시 도봉구 삼양로556,37.653179,127.012787
1716,하나로마트 창동점,도봉구,서울특별시 도봉구 마들로11길 20,37.654202,127.050728
1717,시립창동운동장 입구,도봉구,서울특별시 도봉구 창동 1-24,37.655708,127.050102
1719,신도봉사거리 버스정류장,도봉구,서울특별시  도봉구 도봉로 771,37.673283,127.043991
1720,도봉구청 옆(중랑천변),도봉구,서울특별시 도봉구 마들로 656,37.668671,127.047981
1721,창동역 2번출구,도봉구,서울특별시 창동 74-2 ,37.653015,127.046997
1722,창동청소년수련관,도봉구,서울특별시 도봉구 노해로69길 132,37.657799,127.050049
1723,방학동학마을도서관,도봉구,서울특별시 도봉구 시루봉로 128,37.662079,127.027718
1725,창1동주민센터,도봉구,서울특별시 도봉구 해등로 46,37.647503,127.043312
1726,삼익세라믹아파트교차로,도봉구,서울특별시 도봉구 해등로 189,37.658588,127.03521
1727,서울도봉초등학교인근,도봉구,서울특별시 도봉구 도봉로173길 96,37.678677,127.040764
1728,서울북부지방법원,도봉구,도봉구 도봉동 626-154,37.677666,127.046242
1729,파리바게트앞,도봉구,도봉구 도봉동 637-103,37.68401,127.045792
1730,도봉산역 교차로 앞,도봉구,도봉구 도봉동 637-2,37.687592,127.045502
1731,도봉고등학교 맞은편,도봉구,도봉구 도봉동 282-275,37.6875,127.042557
1732,우리은행 앞,도봉구,도봉구 방학동726-40,37.667599,127.042999
1733,방학사거리 (봄마당 앞),도봉구,도봉구 방학동 726-149,37.662979,127.041939
1734,쌍문현대1차아파트 108동 앞,도봉구,도봉구 쌍문동 59-1,37.65815,127.032669
1735,"도봉역 1,2번 출구사이 건너편",도봉구,도봉구 도봉동 637-107,37.679119,127.044983
1736,버스정류장 앞,도봉구,도봉구 창동 703-2,37.652241,127.037064
1737,하나은행 (창동점),도봉구,도봉구 창동 703-18,37.639702,127.038834
1738,창동주공17단지 상가앞,도봉구,도봉구 창동 35-1,37.646309,127.052742
1741,제일강산수산입구,도봉구,도봉구 창동 703-9,37.645199,127.032982
1742,북한산 코오롱 하늘채,도봉구,도봉구 쌍문동 416-13,37.648891,127.023018
1743,창동19단지아파트 관리사무소앞,도봉구,서울시 도봉구 창4동33번지,37.650391,127.052193
1744,KT방학지사 앞,도봉구,도봉구 방학동 726-92,37.665272,127.043144
1746, 다이소방학점 앞,도봉구, 도봉구 방학동 726-65,37.666233,127.04332
1748, 피자헛 앞(도봉병원 옆),도봉구, 도봉구 방학동 726-17,37.668983,127.043762
1749, ESA아파트 상가 앞,도봉구, 도봉구 방학동 726-73,37.666271,127.04599
1750, 창포원 남쪽 입구,도봉구, 도봉구 도봉동 22-25,37.688267,127.048897
1751, 창원초등학교 교차로,도봉구, 도봉구 창동 315,37.652123,127.041702
1752, 창동 주공 4단지 입구 옆,도봉구, 도봉구 창동 34,37.645481,127.048576
1754, 창동시장입구 사거리,도봉구, 도봉구 쌍문동 83-7,37.646896,127.033432
1756,서울북부광역등기국,도봉구,서울시 도봉구 노해로 325,37.651447,127.044708
1757,솔밭공원역 1번출구 앞,도봉구,삼양로590,37.655685,127.013382
1758,북서울교회 버스정류소 앞,도봉구,삼양로606,37.65728,127.013756
1759,서울북부지방법원 앞,도봉구,마들로749,37.677219,127.048637
1761,방학중학교 앞,도봉구,시루봉로188,37.665623,127.03109
1762,북한산 한신휴플러스APT앞,도봉구,도봉로136가길73,37.655338,127.042419
1765,쌍문역 1번 출구(양산부인과 빌딩),도봉구,도봉로496,37.64967,127.035614
1767,태양중앙교회 앞,도봉구,방학로172,37.66251,127.033279
1768,신동아타워 버스정류소,도봉구,방학로210,37.662052,127.028755
1770,도봉한신아파트 주변,도봉구,도봉구 도봉동 646-1,,
1771,성원APT버스정류소,도봉구,시루봉로6길86,37.657967,127.03009
1772,시립도봉노인복지관 버스정류소,도봉구,해등로190,37.658051,127.035759
1774,반석교회(쌍문동),도봉구,노해로239,37.651348,127.034729
1775,신원리베르텔 앞,도봉구,노해로341(연안식당 창동점 앞),37.651287,127.045548
4076,진영상운 앞 중랑천 변,도봉구,도봉구 마들로14길 25-9,,
1601,석계역 문화광장 내 자전거 보관소,노원구,서울특별시 노원구 화랑로 331,37.615299,127.064468
1602,광운대역 앞,노원구,서울특별시 노원구 석계로 98-2,37.622662,127.061897
1605,헬스케어,노원구,서울특별시 노원구 월계로 378,37.631622,127.061615
1606,태릉입구역 3번출구,노원구,서울특별시 노원구 동일로 지하 992-1,37.619171,127.074928
1608,공릉역 1번 출구 앞,노원구,서울특별시 노원구 동일로 지하 1074,37.626614,127.072754
1610,화랑대역 2번출구 앞,노원구,서울특별시 노원구 화랑로 지하 510,37.620369,127.083641
1611,과기대 입구(우),노원구,서울특별시 노원구 공릉로 232,37.62994,127.076553
1616,하계2동 공항버스정류장 옆,노원구,서울특별시 노원구 동일로 지하 1196,37.635109,127.068329
1617,하계동 중평어린이공원 앞,노원구,서울특별시 노원구 섬밭로 241,37.63715,127.063271
1619,중계동 하나프라자빌딩 앞(중1-1),노원구,서울특별시 노원구 한글비석로 235,37.649021,127.076408
1620,중계동 노원구민체육센터 옆(중1-2),노원구,서울특별시 노원구 노원로22길 1,37.648209,127.070221
1625,상계역(4번출구),노원구,서울특별시 노원구 상계로 182,37.66,127.072968
1627,수락산역 4번출구,노원구,서울특별시 노원구 동일로 지하 1662,37.676941,127.055099
1628,노일초등학교 앞,노원구,서울특별시 노원구 동일로 1652,37.673618,127.055252
1630,수연빌딩 앞,노원구,서울특별시 노원구 동일로 지하 1662,37.67625,127.055504
1634,당고개공원 대여소,노원구,서울특별시 노원구 상계로 283,37.669079,127.077591
1635,상계3.4동 주민센터 대여소,노원구,서울특별시 노원구 덕릉로131길 8,37.67271,127.08316
1636,백병원 사거리 농협은행 앞,노원구,서울특별시 노원구 동일로 1351,37.649212,127.061768
1637,KT 노원점 건물 앞,노원구,서울특별시 노원구 노해로 489,37.654701,127.0634
1639,희성오피앙,노원구,서울특별시 노원구 동일로 1701,37.680313,127.055069
1640,한내근린공원 북측,노원구,서울특별시 노원구 마들로 86,37.623863,127.068489
1641,한내근린공원 남측,노원구,서울특별시 노원구 마들로 86,37.621555,127.069511
1642,서울여대 남문,노원구,서울특별시 노원구 화랑로51길 38,37.625435,127.088493
1643,태릉입구역 8번출구,노원구,서울특별시 노원구 공릉동 687-6,37.617367,127.075211
1646,삼육대 입구,노원구,서울특별시 노원구 공릉동 26-43,37.638489,127.107903
1650,중계근린공원내,노원구,서울특별시 노원구 중계동 506-3,37.63958,127.065102
1651,맥도날드 상계점 앞,노원구,서울특별시 노원구 상계동 1118-9,37.672375,127.055992
1652,파르코 앞,노원구,서울특별시 노원구 상계동 1263,37.68,127.05558
1653,노원역1번출구,노원구,서울특별시 노원구 상계동 335-4,37.6562,127.063622
1654,당고개입구 오거리,노원구,서울특별시 노원구 상계동 172-2,37.663792,127.075447
1655,공릉1단지아파트,노원구,서울특별시 동일로 1127,37.631111,127.07016
1656,중앙하이츠 아파트 입구,노원구,서울특별시 노원구 노원로 428,37.654999,127.067436
1657,노원구청,노원구,서울특별시 노원구 노해로 437 ,37.654049,127.057327
1659,중계동 을지중학교,노원구,서울특별시 노원구 중계동 370,37.65033,127.071602
1660,서울시립과학관,노원구,서울특별시 노원구 하계동 266,37.642071,127.076622
1661,당현천근린공원,노원구,서울특별시 노원구 동일로 1342,37.649639,127.065605
1662,노원역7번출구,노원구,서울특별시 노원구 노해로 467,37.654114,127.059151
1663,동해문화예술관앞,노원구,서울특별시 노원구 화랑로 429,37.619381,127.057854
1664,노해근린공원내,노원구,서울특별시 노원구 노원로22길 1,37.649361,127.070442
1665,양지근린공원앞,노원구,서울특별시 노원구 한글비석로 227,37.647335,127.076424
1666,노원소방서인근,노원구,서울특별시 노원구 노원로26길 111,37.655781,127.071777
1667,중계중학교,노원구,서울특별시 노원구 덕릉로76길 23,37.654499,127.074387
1668,중계역 6번출구,노원구,서울특별시 노원구 동일로 지하 1308-1,37.645508,127.063255
1669,중계역 3번출구,노원구,서울특별시 노원구 동일로 지하 1308-1,37.643757,127.064987
1670,노원경찰서교차로,노원구,서울특별시 노원구 노원로 283,37.64341,127.071838
1671,인덕대학교,노원구,서울특별시 노원구 초안산로 12,37.629349,127.054825
1672,상계동수락리버시티,노원구,서울특별시 노원구 누원로 18,37.688599,127.053406
1673,노원역 5번출구,노원구,서울특별시 노원구 동일로 1404,37.653976,127.060974
1674,서울북부고용센터앞,노원구,서울특별시 노원구 노해로 450,37.653549,127.058083
1675,월계문화체육센터,노원구,서울특별시 노원구 월계로 280,37.626942,127.05513
1677,육군사관학교 앞,노원구,서울특별시 노원구 화랑로 570,37.623165,127.0905
1678,성서대학교 밀알관,노원구,서울특별시 노원구 동일로214길 32,37.648438,127.064445
1679,삼육대 도서관,노원구,서울특별시 노원구 화랑로 815,37.64283,127.106667
1680,삼육대 제3과학관,노원구,서울특별시 노원구 화랑로 653,37.642654,127.108383
1681,현대6차 아파트,노원구,서울특별시 노원구 중계로8길 20,37.645802,127.08226
1682,중계종합사회복지관 교차로,노원구,서울특별시 노원구 덕릉로 662,37.656799,127.077606
1683,노원문화예술회관,노원구,중계동 391-1 ,37.650459,127.080887
1684,태릉입구역 5번출구,노원구,동일로 986앞,37.61832,127.07563
1685,불암고등학교 앞 횡단보도,노원구,중계로 155,37.64819,127.080482
1686,온수골사거리(스타벅스앞),노원구,노원구 동일로227길 85,37.66114,127.058052
1688,마들역 7번출구,노원구,노원구 동일로 1530-1,37.665661,127.057297
1689,마들역 3번출구,노원구,노원구 상계동 650,37.665249,127.057892
1690,도봉운전면허시험장,노원구,노원구 상계동 694-1,37.65773,127.059311
1691,노원정보도서관,노원구,노원구 상계동 433-4,37.660709,127.065331
1692,온곡초교 교차로,노원구,노원구 상계동 456-23,37.664188,127.06601
1693,원자력 병원,노원구,노원구 노원로 75,37.628189,127.082108
1695,월계미륭아파트 정문,노원구,노원구 월계동 14 ,37.623417,127.066933
1696,수락리버시티4단지,노원구,상계동 1195-1 ,37.686451,127.052834
1697,상계주공2단지 219동,노원구,상계동 740 ,37.650249,127.057152
1700,상계보람아파트 202동 ,노원구,상계동 456-23  ,37.665215,127.066139
2901,공릉동풍림아파트 101동,노원구,노원구 섬밭로 139,37.630001,127.065682
2902,공릉풍림아파트 108동,노원구,노원구 섬밭로 139,37.62862,127.06691
2903,월계초안아파트 1단지,노원구,노원구 덕릉로60길 185,37.633259,127.0439
2904,중계3차청구아파트,노원구,노원구 중계로 225,37.650505,127.073982
2905,중계주공6단지,노원구,노원구 한글비석로8길 41,37.648163,127.078987
2907, 월계중학교,노원구, 서울특별시 노원구 월계로45가길 54,37.630749,127.053108
2908, 광운대학교 중앙도서관,노원구, 서울 노원구 광운로 20,37.620003,127.058563
2909, 석계역 3번 출구,노원구, 서울 노원구 월계동,37.615459,127.067452
2910,도깨비시장,노원구, 노원구 동일로 1028,37.622093,127.074425
2911,상계역중앙시장,노원구, 서울 노원구 상계로27길 20,37.659233,127.072098
2912,대진고등학교,노원구, 서울 노원구 공릉로62가길 47,37.638191,127.073731
2913,상계8동 주민센터,노원구,서울시 노원구 동일로227길 85,37.666996,127.051529
2914,서울과학기술대학교(미래관),노원구,노원구 공릉동 172 ,37.628925,127.081429
2915,서울과학기술대학교(어학교육원),노원구,노원구 공릉동 172 ,37.635109,127.076599
2917,신창중학교 후문 맞은편 버스정류장,노원구,서울 노원구 월계로45길 92,37.628071,127.046921
2919,등나무 근린공원(시립북서울미술관 앞) ,노원구,노원구 중계동 508,37.639996,127.066574
2920,상계중학교(당현2교사거리),노원구,노원구 노원로 398 ,37.651035,127.06871
2921,중계역 2번출구,노원구,노원구 동일로 1308-1,37.645489,127.064583
900,은평예술회관,은평구,서울특별시 은평구 녹번동 85-4,37.603943,126.927696
901,응암1동사무소,은평구,서울특별시 은평구 응암동 84-14,37.600975,126.926956
902,진관동 은빛초등학교,은평구,서울특별시 은평구 진관동 45-21,37.643108,126.918221
903,은평뉴타운 아이파크,은평구,서울특별시 은평구 진관동 13-20,37.645866,126.927391
904,은평뉴타운 푸르지오,은평구,서울특별시 은평구 진관동 5-8,37.648674,126.930702
905,구파발역 2번출구,은평구,서울특별시 은평구 진관동 86-31,37.636234,126.918999
906,연신내역 5번출구150M 아래,은평구,서울특별시 은평구 대조동 207-8,37.61721,126.919579
907,CJ 드림시티,은평구,서울특별시 은평구 역촌동 43-11,37.599491,126.916862
908,구산역 4번출구,은평구,서울특별시 은평구 갈현동 536-8,37.613186,126.917351
909,백련산 힐스테이트 3차,은평구,서울특별시 은평구 응암동 761-9,37.586994,126.922882
911,은평평화공원(역촌역4번출구),은평구,서울특별시 은평구 녹번동 153-31,37.605583,126.922935
912,응암오거리,은평구,서울특별시 은평구 응암동 604-5,37.589661,126.916946
913,이마트 은평점,은평구,서울특별시 은평구 응암동 90-15,37.6007,126.920128
914,새절역 2번출구,은평구,서울특별시 은평구 응암동 610-3,37.590797,126.913651
915,증산역 4번출구,은평구,서울특별시 은평구 증산동 199-8,37.584381,126.909897
916,평생학습관 앞,은평구,서울특별시 은평구 역촌동 15-40,37.607849,126.921326
917,녹번역 4번출구,은평구,서울특별시 은평구 녹번동 55,37.601299,126.935349
919,서울혁신파크,은평구,서울특별시 은평구 녹번동 15-2,37.607948,126.932503
921,신도고등학교,은평구,서울특별시 은평구 진관동 242-14,37.630016,126.919029
922,연신내역 4번출구,은평구,서울특별시 은평구 대조동 227-2,37.617802,126.921967
923,국민은행 연서지점,은평구,서울특별시 은평구 불광동 355,37.620949,126.925636
924,메뚜기다리,은평구,서울특별시 은평구 진관동 161-9,37.628517,126.929581
925,불광역 2번출구,은평구,서울특별시 은평구 불광동 285-43,37.609566,126.930977
927,연신내역 3번출구 인근,은평구,서울특별시 은평구 불광동 304-5,37.617855,126.922523
928,은평역사한옥박물관,은평구,서울특별시 은평구 진관동 133-29,37.641315,126.938042
930,구 서부경찰서 건너편,은평구,서울특별시 은평구 역촌동 41-7,37.601662,126.920303
931,역촌파출소,은평구,서울특별시 은평구 역촌동 45-34,37.604736,126.915337
932,예일여중,은평구,서울특별시 은평구 연서로 117,37.610004,126.916397
933,LG서비스 역촌점,은평구,서울특별시 은평구 서오릉로 163,37.612484,126.914879
934,신사동 성당,은평구,서울특별시 은평구 신사동 41-3,37.597141,126.909599
937,상림마을 롯데캐슬2단지 옆,은평구,서울특별시 은평구 진관동 30-23,37.645851,126.923798
938,금암 문화공원,은평구,서울특별시 진관동 44-28 ,37.644684,126.918457
939,은평구청 교차로,은평구,서울특별시 응암동 82-31,37.6017,126.927422
941,은평뉴타운 도서관,은평구,서울특별시 진관동 141-27,37.637222,126.933304
942,상림마을 생태공원,은평구,서울특별시 진관동 16-4,37.644081,126.929283
943,은평구청 보건소,은평구,서울특별시 녹번동 84,37.602402,126.92865
945,기자촌 사거리,은평구,서울특별시 은평구 진관동 149-17,37.63414,126.932343
946,독바위역,은평구,서울특별시 은평구 불광로 129,37.618439,126.932884
947,연신내 선일하이츠빌 정류소,은평구,서울특별시 불광동 484-165,37.622669,126.919991
948,디지털미디어 시티역 4번출구,은평구,서울특별시 증산동 239,37.577202,126.902351
949,연신내역 1번 출구,은평구,서울특별시 불광동 487-2,37.619781,126.920807
950,구산역 2번 출구,은평구,서울특별시 역촌동 1-57,37.610779,126.917351
952,서울연신중학교,은평구,서울특별시 불광동 400-4번지,37.62265,126.925247
953,서울연신초등학교,은평구,서울특별시 불광동 73-1번지 ,37.625778,126.928818
954,은평뉴타운구파발9단지,은평구,서울특별시 은평구 진관3로 77,37.642609,126.921478
956,응암시장교차로,은평구,서울특별시 은평구 응암로 248,37.594376,126.918159
958,신한은행 응암동 지점 앞,은평구,응암동 98-69,37.600361,126.922813
959,구파발10단지 인근,은평구,진관동 72-23,37.643661,126.914558
960,구파발역 환승센터,은평구,진관동 67-26,37.638252,126.919456
961,불광역 9번 출구,은평구,불광동 281-109,37.61097,126.92981
962,은평뉴타운 힐데스하임,은평구,진관동 70-4,37.639259,126.918907
963,대호프라자아파트,은평구,은평구 불광동 242-61 ,37.614429,126.932579
964,북한산힐스테이트 7차아파트,은평구,은평구 불광동 643-4,37.616112,126.925041
965,서울특별시 은평병원,은평구,은평구 응암동 232-3,37.593479,126.923187
966,서울혁신파크1,은평구, 은평구 녹번동 5,37.609032,126.934677
967,서울혁신파크2,은평구,은평구 녹번동 5,37.60891,126.932419
968,은평뉴타운 상림마을 13단지,은평구,은평구 진관4로 48-50,37.64209,126.929413
969,은평 지웰테라스,은평구,은평구 진관4로 78-38,37.64386,126.931877
971,역촌 센트레빌 아파트,은평구,은평구 역촌동 221,37.602329,126.906548
972,수색역,은평구,수색로 261,37.58218,126.894943
973,제각말푸르지오 5-1단지 아파트,은평구, 은평구 진관동 144-7 ,37.637348,126.935844
974,연신초등학교옆 마을마당,은평구,불광동69,37.62672,126.929016
975,백련산 힐스테이트상가앞,은평구,응암동백련산로38상가앞,37.590363,126.923012
976,진관고등학교앞,은평구,진관4로26,37.643509,126.924103
977,신도중학교앞,은평구,진관1로77-30,37.633102,126.931503
978,녹번 힐스테이트상가앞,은평구,통일로610,37.601009,126.935928
979,원풍빌라앞,은평구,은평터널로143,37.591862,126.906082
982,유니클로 은평점앞,은평구,서오릉로32,37.604126,126.925087
984,상신초등학교앞 버스정류장,은평구,가좌로316,37.59581,126.910263
985,은평온누리약국앞,은평구,은평로170,37.601192,126.926384
989,응암 꼬꼬닭치킨호프 앞,은평구,가좌로255,37.591812,126.914833
991,흥국사 정류장,은평구,은평구 진관동 298-2 ,37.656769,126.942009
992,북한산입구 정류장,은평구,은평구 진관동 289 ,37.658428,126.94606
993,은평뉴타운 온뜨락아파트앞,은평구,통일로972,37.630287,126.919563
994,북한산생태공원입구(교통섬),은평구,불광동638-6,37.610718,126.93911
995,은평다목적체육관,은평구,진관1로40,37.631409,126.925407
996,응암역 1번출구,은평구,응암동471-6,37.598606,126.915405
4652,신사두산위브2차아파트앞,은평구,가좌로12길,,
4653,LG 베스트샵 앞,은평구,불광로 41,,
4654,OK부동산 앞,은평구,수색로 270-2,,
115,마스타 빌딩 앞,서대문구,서울특별시 서대문구 연희로 7,37.558933,126.927116
116,일진아이윌아파트 옆,서대문구,서울특별시 서대문구 동교로 290,37.564541,126.927071
117,홍은사거리,서대문구,마포구 서강로1길 30 ,37.59116,126.94133
123,문화촌 공원,서대문구,서울특별시 서대문구 홍제동 277-23,37.59433,126.947388
128,신촌역(2호선) 1번출구 옆,서대문구,서울특별시 서대문구 연세로 3-5,37.555496,126.93634
131,증산2교,서대문구,서울특별시 서대문구 증가로 264,37.584171,126.911102
133,해담는다리,서대문구,서울특별시 서대문구 불광천길 150,37.582031,126.908997
134,연세로 명물길,서대문구,서울특별시 서대문구 명물길 33,37.557892,126.93808
135,명물길 원형무대 앞,서대문구,서대문구 창천동 31-69,37.559101,126.939178
137,NH농협 신촌지점 앞,서대문구,서울특별시 서대문구 연세로2다길 58,37.556812,126.943184
138,신촌동 제1공영주차장 앞,서대문구,서울특별시 서대문구 증가로 264,37.559177,126.934525
139,연세대 정문 건너편,서대문구,서울특별시 서대문구 연세로 42,37.559795,126.934479
140,이화여대 후문,서대문구,서울특별시 서대문구 연세로 50-1,37.560009,126.940735
141,연대 대운동장 옆,서대문구,서울특별시 서대문구 연세로 50,37.562382,126.932648
158,독립문 어린이 공원,서대문구,서울특별시 서대문구 영천동 259-1,37.571259,126.96048
159,이대역 4번 출구,서대문구,서울특별시 서대문구 대현동 60-11,37.556953,126.946342
160,북아현동 가구거리,서대문구,서울특별시 서대문구 북아현동 251-78,37.557549,126.959381
161,무악재역1번 출구,서대문구,서울특별시 서대문구 통일로 380-4,37.582245,126.950645
162,봉원고가차도 밑,서대문구,서울특별시 서대문구 대신동 143-1,37.565269,126.946243
163,명지전문대학교 정문 앞,서대문구,서울특별시 서대문구 홍은동 산25-3,37.583698,126.924965
164,북가좌1동 주민센터,서대문구,서울특별시 서대문구 북가좌동 477-1,37.574478,126.910049
165,중앙근린공원,서대문구,서울특별시 서대문구 북가좌동 470-1,37.575138,126.91394
166,가재울 초등학교,서대문구,서울특별시 서대문구 연희동 530,37.573277,126.919678
167,연가초등학교 옆,서대문구,서울특별시 서대문구 북가좌동 70-119,37.57946,126.91713
169,북가좌 삼거리,서대문구,서울특별시 서대문구 북가좌동 400,37.573002,126.907799
170,가재울 뉴타운 주유소 옆,서대문구,서울특별시 서대문구 남가좌동 124,37.573112,126.922447
171,임광빌딩 앞,서대문구,미근동 317-1,37.564724,126.967278
173,서대문역 8번출구 앞,서대문구,서울특별시 서대문구 충정로2가 138,37.564777,126.966148
175,홍연2교옆,서대문구,서울특별시 서대문구 홍은동 387-16,37.578072,126.930817
176,명지대학교 도서관,서대문구,서울특별시 서대문구 거북골로 34,37.581097,126.924026
177,북가좌 초등학교,서대문구,서울특별시 서대문구 거북골로19길 20,37.577675,126.909805
178,증산3교 앞,서대문구,서울특별시 서대문구 북가좌동 352-9,37.579876,126.906349
179,가좌역 4번출구 앞,서대문구,서울특별시 서대문구 남가좌동 293-3 ,37.569122,126.914795
180,충정로역 7번출구 아래,서대문구,서울특별시 서대문구 충정로3가 56-1,37.559967,126.962463
188,홍은동 정원여중 입구,서대문구,서울특별시 서대문구 연희로37안길 51,37.586388,126.935127
191,서우빌딩(바른학원),서대문구,서울특별시 서대문구 응암로 66,37.578892,126.910736
192,연서어린이공원,서대문구,서울특별시 서대문구 연희동 519-7,37.572227,126.923065
194,증산교 앞,서대문구,서울특별시 서대문구 불광천길 36,37.577316,126.902969
195,모래내고가차도,서대문구,서울특별시 서대문구 연희동 446-76,37.567657,126.917809
196,연희교차로 인근,서대문구,서울특별시 서대문구 홍제천로 48,37.56612,126.925896
198,충정2교,서대문구,서울특별시 서대문구 충정로3가 155-4,37.562138,126.963776
3100,북성초교,서대문구,서울특별시 서대문구 신촌로 235-1,37.557396,126.952164
3101,서대문구청,서대문구,서울특별시 서대문구 연희로 242,37.578381,126.936096
3102,연희삼거리,서대문구,서울특별시 서대문구 연희로 113,37.567966,126.931725
3103,홍제삼거리 북측,서대문구,서대문구 홍제동 161-1,37.5867,126.94677
3104,e편한세상 신촌4단지 앞,서대문구,북아현동 251-71,37.558128,126.956207
3105,홍은센트레빌 아파트 앞,서대문구,서대문구 홍은동 164-44,37.597149,126.93853
3106,홍남교 두바퀴쉼터,서대문구,서대문구 홍제천로111,37.574909,126.926147
3107,연희초등학교 앞,서대문구,서대문구 연희동 87-27,37.56974,126.933327
3109,북한산더샾 106동 앞,서대문구,홍은동 137-8 ,37.592934,126.941292
3110,홍은 현대아이파크 아파트 202동 앞,서대문구,홍은동 202-6,37.589283,126.936943
3111,무악재역 4번 출구,서대문구,홍제동 25-1,37.582211,126.950165
3112,독립문역 5번 출구,서대문구,현저동 95-3,37.57386,126.958298
3113,독립문역사거리,서대문구,현저동 935,37.572205,126.959747
3114,충정로역 3번 출구,서대문구,합동 31-16,37.560463,126.965523
3115,북아현 치안센터 인근,서대문구,북아현동 251-73,37.561455,126.95575
3116,신촌역 4번출구,서대문구,창천동 30-16,37.555504,126.937203
3117,이화여대 인문관 인근,서대문구,대신동 143-14 ,37.564068,126.945328
3119,연희 브라운스톤 아파트 앞,서대문구,연희동 209-2,37.565197,126.929855
3120,DMC엘가아파트 앞,서대문구,남가좌동 105-4,37.569836,126.918091
3121,가좌삼거리,서대문구,북가좌동 487-1,37.570652,126.912987
3122,북가좌삼거리2,서대문구,북가좌동474-1,37.574284,126.906464
3123,DMC파크뷰자이1단지 110동 앞,서대문구,남가좌동 385-13 ,37.572388,126.915108
3124,DMC센트럴아이파크아파트,서대문구,남가좌동 318-4,37.578121,126.921753
3125,연희파크푸르지오아파트 앞,서대문구,연희동 736,37.575642,126.927826
3126,남가좌동 제2공영주차장,서대문구,남가좌동 3-76,37.583344,126.922745
3127,홍은2파출소 옆,서대문구,서대문구 홍은동424-1,37.583336,126.936287
3128,동신병원 맞은편,서대문구,서대문구 홍은동274-18,37.581318,126.935997
3129,DMC래미안e편한세상203동옆,서대문구,서대문구 북가좌동477-1,37.576263,126.911324
3130,가재울사거리,서대문구,서대문구 남가좌동385-16,37.574348,126.918823
3131,연가교 교차로,서대문구,서대문구 남가좌동 385-6,37.572159,126.921188
3132,홍제교,서대문구,서대문구 홍제동394-46,37.591862,126.944214
3133,핀란드 타워앞,서대문구,서대문구 대현동60-11,37.557114,126.948814
3134,SK리체블(상수도사업본부),서대문구,서대문구 합동 17-3 ,37.561317,126.966583
101,(구)합정동 주민센터,마포구,서울특별시 마포구 동교로8길 58,37.549561,126.905754
102,망원역 1번출구 앞,마포구,서울특별시 마포구 월드컵로 72,37.555649,126.910629
103,망원역 2번출구 앞,마포구,서울특별시 마포구 월드컵로 79,37.554951,126.910835
104,합정역 1번출구 앞,마포구,서울특별시 마포구 양화로 59,37.550629,126.914986
105,합정역 5번출구 앞,마포구,서울특별시 마포구 양화로 48,37.550007,126.914825
106,합정역 7번출구 앞,마포구,서울특별시 마포구 독막로 4,37.548645,126.912827
107,신한은행 서교동금융센터점 앞,마포구,서울특별시 마포구 월드컵북로 35,37.55751,126.918503
108,서교동 사거리,마포구,서울특별시 마포구 양화로 93,37.552746,126.918617
109,제일빌딩 앞,마포구,서울특별시 마포구 어울마당로 26,37.547691,126.919983
111,상수역 2번출구 앞,마포구,서울특별시 마포구 와우산로 40,37.547871,126.923531
112,극동방송국 앞,마포구,서울특별시 마포구 와우산로 56,37.549202,126.923203
113,홍대입구역 2번출구 앞,마포구,서울특별시 마포구 양화로 165,37.557499,126.923805
114,홍대입구역 8번출구 앞,마포구,서울특별시 마포구 양화로18길 3,37.55706,126.924423
118,광흥창역 2번출구 앞,마포구,서울특별시 마포구 독막로 지하165,37.547733,126.931763
119,서강나루 공원,마포구,서울특별시 마포구 창전로 30,37.545284,126.931053
120,신수동 사거리,마포구,서울특별시 마포구 토정로 211,37.545242,126.934113
121,마포소방서 앞,마포구,서울특별시 마포구 창전로 76,37.549767,126.933174
122,신성기사식당 앞,마포구,서울특별시 마포구 독막로 223-1,37.547459,126.938377
124,서강대 정문 건너편,마포구,서울특별시 마포구 서강로16길 72,37.55114,126.936989
125,서강대 남문 옆,마포구,서울특별시 마포구 백범로 35,37.549484,126.93895
126,서강대 후문 옆,마포구,서울특별시 마포구 대흥로 122,37.550411,126.943848
127,현대벤처빌 앞,마포구,서울특별시 마포구 백범로 10,37.55352,126.936951
129,신촌역(2호선) 6번출구 옆,마포구,서울특별시 마포구 신촌로 106,37.555054,126.937569
130,신촌역(2호선) 7번출구 앞,마포구,서울특별시 마포구 신촌로 94,37.554859,126.936157
136,대흥동 주민센터,마포구,서울특별시 마포구 신촌로26길 10,37.556004,126.942299
142,아현역 4번출구 앞,마포구,서울특별시 마포구 아현동 329-15,37.557201,126.955666
143,공덕역 2번출구,마포구,서울특별시 마포구 공덕동 257-88,37.544579,126.950218
144,공덕역 8번출구,마포구,서울특별시 마포구 공덕동 438-5,37.543579,126.951324
145,공덕역 5번출구,마포구,서울특별시 마포구 공덕동 237-9,37.54425,126.951637
146,마포역 2번출구 뒤,마포구,서울특별시 마포구 도화동 555-2,37.539936,126.945824
147,마포역 4번출구 뒤,마포구,서울특별시 마포구 도화동 292-29,37.539272,126.945915
148,용강동 주민센터 앞,마포구,서울특별시 마포구 용강동 234-1,37.542347,126.943024
150,서강대역 2번출구 앞,마포구,서울특별시 마포구 노고산동 112-13,37.552956,126.934341
151,망원1동주민센터,마포구,서울특별시 마포구 망원동 403-2,37.555687,126.905548
152,마포구민체육센터 앞,마포구,서울특별시 마포구 망원동 452-4,37.55661,126.898018
153,성산2교 사거리,마포구,서울특별시 마포구 성산동 54-17,37.564697,126.912613
154,마포구청역,마포구,서울특별시 마포구 망원동 477-23,37.560909,126.905495
155,가좌역1 번출구 뒤,마포구,서울특별시 마포구 성산동123-29,37.56855,126.914513
156,서울서부지방법원 앞,마포구,서울특별시 마포구 공덕동 105-11,37.549904,126.955147
157,애오개역 4번출구 앞,마포구,서울특별시 마포구 아현동 607-1,37.553001,126.956688
181,망원초록길 입구,마포구,서울특별시 마포구 마포나루길 467,37.551342,126.902672
182,망원2빗물펌프장 앞,마포구,서울특별시?마포구?동교로?7,37.551567,126.902847
183,하늘채코오롱아파트 건너편,마포구,서울특별시 마포구 연남로 30,37.565166,126.919395
184,SK망원동주유소 건너편,마포구,서울특별시 마포구 월드컵로 119?,37.558949,126.907753
185,마포 신수공원 앞,마포구,서울특별시 마포구 현석동 106-32,37.542545,126.934296
186,월드컵공원,마포구,서울특별시 마포구 하늘공원로 108-1,37.563965,126.898209
199,서울 월드컵 경기장,마포구,서울특별시 마포구 성산동 515,37.566845,126.896446
400,상암한화오벨리스크 1차 앞,마포구,서울특별시 마포구 구룡길 19,37.587524,126.883003
401,상암월드컵파크 10단지 앞,마포구,서울특별시 마포구 월드컵북로 502-36,37.586189,126.881615
402,상암월드컵파크 9단지 앞,마포구,서울특별시 마포구 월드컵북로 501,37.582855,126.879822
403,부엉이공원 앞,마포구,서울특별시 마포구 가양대로 189,37.58559,126.884727
405,DMC빌 앞,마포구,서울특별시 마포구 월드컵북로60길 13,37.582657,126.885788
406,상암월드컵파크 7단지 앞,마포구,서울특별시 마포구 상암산로1길 92,37.581314,126.880585
407,마포구 육아종합지원센터,마포구,서울특별시 마포구 상암산로1길 71,37.580631,126.883675
408,LG CNS앞,마포구,서울특별시 마포구 월드컵북로 424,37.580811,126.88665
409,누리꿈스퀘어 옆,마포구,서울특별시 마포구 월드컵북로 396,37.579399,126.88916
410,상암중학교 옆,마포구,서울특별시 마포구 상암산로1길 26,37.577496,126.887772
411,DMC홍보관,마포구,서울특별시 마포구 월드컵북로 366,37.577995,126.891472
412,DMC산학협력연구센터 앞,마포구,서울특별시 마포구 매봉산로 37,37.575802,126.890739
413,상암월드컵파크 3단지 후문,마포구,서울특별시 마포구 매봉산로 8,37.571476,126.889687
414,상암동주민센터 옆,마포구,서울특별시 마포구 매봉산로2길 16,37.57822,126.89447
415,DMC역 9번출구 앞,마포구,서울특별시 마포구 성암로 지하184,37.577469,126.897362
416,상암월드컵파크 1단지 교차로,마포구,서울특별시 마포구 월드컵북로 502-7,37.575665,126.894447
417,DMC역 2번출구 옆,마포구,서울특별시 은평구 수색로 지하175,37.575069,126.899918
418,월드컵경기장역 3번출구 옆,마포구,서울특별시 마포구 월드컵로 지하240,37.570721,126.898979
419,홈플러스 앞,마포구,서울특별시 마포구 월드컵로 240,37.56842,126.899429
420,서울시 공공자전거 상암센터,마포구,서울특별시 마포구 월드컵북로47길 10,37.566246,126.896179
421,마포구청 앞,마포구,서울특별시 마포구 월드컵로 212,37.565903,126.901184
422,문화비축기지,마포구,서울특별시 마포구 증산로 87,37.569084,126.894424
424,롯데하이마트 (상암월드컵점),마포구,서울특별시 상암동 1715-29,37.57362,126.898048
425,DMC첨단산업센터,마포구,서울특별시 마포구 성암로330,37.584503,126.885597
426,서울신용보증재단,마포구,서울특별시 마포구 마포대로 163,37.549061,126.954178
427,성산시영아파트,마포구,서울특별시 마포구 월드컵북로 260,37.569584,126.903816
432,마포중앙도서관,마포구,마포구 성산로 128,37.563339,126.908203
436,이대역 5번출구,마포구,마포구 대흥동 2-1,37.556591,126.94619
437,대흥역 1번출구,마포구,마포구 대흥동 105-4,37.54821,126.941383
438,성산2-1 공영주차장,마포구,마포구 성산동 199-46,37.56472,126.906769
439,마포어린이공원,마포구,마포구 마포동 364-4,37.535751,126.944038
440,하늘공원 입구,마포구,마포구 하늘공원로 108-2,37.570006,126.881149
487,신석초교앞 교차로 교통섬,마포구,마포구 용강동 494-6 ,37.54364,126.938309
489,구룡근린공원,마포구,마포구 상암동 1583,37.583336,126.8834
490,가온문화공원,마포구,마포구 상암동 1594,37.582077,126.887665
491,월드컵파크 4단지,마포구,마포구 상암동 1761,37.575977,126.888069
492,성산시영아파트 후문,마포구, 마포구 중동 77-11,37.573135,126.901848
493,홍대입구역 6번출구,마포구,마포구 서교동 193-4,37.556576,126.928856
494,신수동주민센터,마포구,마포구 신수동 458,37.547245,126.935028
495,염리초등학교 앞,마포구,마포구 도화동 536,37.542431,126.946999
497,합정동주민센터 앞,마포구,마포구 합정동 473-2,37.551754,126.9123
498,연남동주민센터 앞,마포구,마포구 연남동 250-11,37.564651,126.922127
3002,벽산상암스마트큐브 ,마포구,마포구 성산동 593-1,37.565044,126.903603
3003,래미안공덕3차아파트,마포구,마포구 공덕동 457,37.548805,126.951073
3005,마포구청 청사내,마포구,마포구 월드컵로 212,37.566246,126.902184
3006, 상암월드컵파크5단지(상암중학교),마포구,마포구 상암동 1727,37.57991,126.888237
3007,MBC 앞,마포구,마포구 상암동 1704,37.581947,126.890297
3008,DMC역7번출구,마포구,마포구 상암동 1133,37.577114,126.898361
3009,서교동사거리,마포구,마포구 서교동 418,37.55584,126.920433
3010,홍대입구역 3번출구,마포구,마포구 동교동 155-27,37.558296,126.925385
3011,경의선(노고산동),마포구,마포구 노고산동 112-12,37.553429,126.933792
4202,프런트원(공덕역 4번출구 앞),마포구,마포구 마포대로 122,37.54604,126.926727
4205,디지털미디어씨티역2번출구,마포구,마포구 상암동 1171-1,,
4206,광흥창역5번출구,마포구,마포구 창전동 246-34,,
4210,가좌행복주택 앞,마포구,마포구 중동 275,,
700,KB국민은행 염창역 지점 앞,양천구,서울특별시 양천구 목동 559,37.546848,126.872772
701,목동사거리 부근,양천구,서울특별시 양천구 목동 813,37.532803,126.86393
702,목4동주민센터 옆,양천구,서울특별시 양천구 목동 904-3,37.532543,126.868729
703,오목교역 7번출구 앞,양천구,서울특별시 양천구 목동 451,37.524063,126.87558
704,남부법원검찰청 교차로,양천구,서울특별시 양천구 신정동 1095,37.523254,126.864906
706,신정네거리역,양천구,서울특별시 양천구 신월동 894,37.521881,126.851753
707,신정3동주민센터,양천구,서울특별시 양천구 중앙로 209,37.515156,126.854897
708,서울출입국관리사무소 앞,양천구,서울특별시 양천구 신정동 319-3,37.51897,126.869965
709,신정3동 현장민원실 앞,양천구,서울특별시 양천구 신정동 760-2,37.511585,126.84156
710,금옥여고보도육교,양천구,신정로 213,,
711,신일해피트리아파트 앞,양천구,서울특별시 양천구 신월동 1063-4,37.517059,126.848488
712,강월초교입구 사거리,양천구,서울특별시 양천구 신월동 905,37.516998,126.838318
713,양서중학교 옆,양천구,서울특별시 양천구 신월동 790,37.533047,126.829956
714,한국SGI 양천문화회관 앞,양천구,서울특별시 양천구 신월동 790,37.532547,126.830803
716,신정6동 주민센터 인근,양천구,서울특별시 양천구 목동서로 355,37.517281,126.864334
719,홍익병원앞 교차로,양천구,서울특별시 양천구 등촌로 2,37.530369,126.864258
720,서울강월초등학교 앞,양천구,서울특별시 양천구 신월로 97,37.516197,126.8349
722,LG전자베스트샵 신정점,양천구,서울특별시 양천구 신월로 328,37.521435,126.857384
723,SBS방송국,양천구,서울특별시 양천구 목동서로161,37.529163,126.872749
724,계남공원 입구 주출입구 좌측,양천구,서울특별시 양천구 신정동 621-14,37.510681,126.857399
725,양강중학교앞 교차로,양천구,서울특별시 양천구 남부순환로88길5-16,37.524334,126.850548
726,목동3단지 시내버스정류장,양천구,서울특별시 양천구 목동중앙로 49 ,37.534389,126.869598
729,서부식자재마트 건너편,양천구,서울특별시 양천구 신정동 236 ,37.51038,126.866798
731,서울시 도로환경관리센터,양천구,서울특별시 양천구 목동동로 316-6,37.5299,126.876541
732,신월동 이마트,양천구,서울특별시 양천구 화곡로 59,37.539551,126.8283
733,신정이펜하우스314동,양천구,서울특별시 양천구 신정이펜1로50 ,37.514099,126.831001
734,신트리공원 입구,양천구,서울특별시 양천구 신정동 310-8 ,37.51395,126.856056
735,영도초등학교,양천구,서울특별시 양천구 목동중앙로 70 ,37.53643,126.871521
736,오솔길공원,양천구,서울특별시 양천구 남부순환로70길11-9,37.52219,126.8367
737,장수공원,양천구,서울특별시 양천구 신월로 894 ,37.52256,126.84948
739,신월사거리,양천구,서울특별시 양천구 신월동 263,37.536201,126.827797
740,으뜸공원,양천구,서울특별시 양천구 가로공원로 133,37.536369,126.831711
741,화곡로 입구 교차로,양천구,서울특별시 양천구 신월동 258,37.53952,126.825401
742,등촌역 5번 출구 뒤,양천구,서울특별시 양천구 등촌로 236,37.550732,126.864578
743,현대6차아파트 101동 옆,양천구,서울특별시 양천구 신정동 735-5,37.5089,126.842682
744,신목동역 2번 출구,양천구,서울특별시 양천구 목동중앙로 212 앞,37.543842,126.882545
745,강서초등학교,양천구,서울특별시 양천구 오목로 31 부근,37.522282,126.839699
746,목동2단지 상가,양천구,서울특별시  양천구 목동 902-5 ,37.536503,126.877747
747,목동3단지 상가,양천구,서울특별시 양천구 목동 903-6,37.53458,126.875648
748,목동운동장,양천구,서울특별시 양천구 안양천로 939,37.530251,126.879303
749,이대 목동병원 앞,양천구,서울특별시 양천구 목동 911-10,37.537228,126.886612
750,연의근린공원 건너편,양천구,서울특별시 양천구 신정로7길 92,37.512157,126.835625
752,성원2차 아파트,양천구,서울특별시 양천구 목동중앙남로 100,37.542183,126.863304
754,목동1단지아파트 118동 앞 (월촌초등학교 정류소 옆,양천구, 양천구 목동서로 38,37.541142,126.876678
755,목동1단지아파트 상가 앞 (월촌중학교 버스정류소 옆),양천구,양천구 목동서로 38,37.537868,126.881409
756,목동주차장,양천구,양천구 목동동로 298,37.52668,126.876167
757,신정이펜하우스 1단지아파트 입구 사거리,양천구,양천구 신정이펜1로 99,37.514278,126.828743
758,한사랑교회 앞,양천구,양천구 목동동로 33,37.514721,126.8592
759,보아스아파트 앞,양천구,양천구 오목로3길 32,37.524071,126.8386
760,잣절보도육교 아래,양천구, 양천구 남부순환로 699,37.506821,126.844299
762,오목로 무중력지대 앞,양천구, 양천구 신목로 126,37.524551,126.877052
763,목동11단지 아파트,양천구,목동동로 10,37.510658,126.859161
764,목동청소년수련관,양천구,양천구 목동동로 323,37.531029,126.875893
765,오목교역 3번출구,양천구,서울특별시 양천구 목동동로 270,37.524776,126.875481
766,신목동역 3번출구,양천구,양천구 목동 136-1,37.54426,126.88325
767,신정숲속마을아파트,양천구,양천구 신정로 110,37.505745,126.836311
768,목동5단지아파트 501동,양천구,양천구 목동,37.535919,126.882446
769,CBS방송국 앞,양천구,양천구 목동 917-1,37.527855,126.874672
770,목동역5번출구 교통정보센터 앞,양천구,양천구 목동로 186,37.525715,126.864868
771,목동아파트 703동 앞,양천구,양천구 목동로 186 ,37.527706,126.870064
773,"염창역 3, 4번 출구 사이",양천구,공항대로 630,37.546707,126.874573
774,등촌역 4번 출구 ,양천구,양천구 목동 603-2,37.549507,126.867218
775,세종그랑시아 앞(102동),양천구,양천구 목동중앙남로3가길 59,37.538376,126.863831
776,목마공원,양천구,양평교 하부,37.538742,126.885681
777,신월6차보람아파트 앞,양천구,양천구 곰달래로7길 7,37.530128,126.834778
779,양천나눔누리센터,양천구,양천구 중앙로 250,37.518845,126.853684
780,신정교 하부,양천구,양천구 신정동 871-37,37.516907,126.877586
781,신정보도육교 아래,양천구,양천구 신목로 10,37.517593,126.876556
782,서남병원 후문,양천구,양천구 신정이펜1로 20,37.511673,126.832741
785,"양천구청, 보건소 사잇길",양천구,양천구 신정동 321-8,37.517326,126.866303
786,목동아파트 8단지 상가동 앞,양천구,양천구 목동서로 280,37.520439,126.868401
787,양천아파트 입구,양천구,양천구 목동로3길 41,37.507904,126.862648
788,양천구청역 2번출구 옆,양천구,양천구 목동로3길 57,37.512379,126.865555
790,화곡고가 사거리,양천구,양천구 신월동 455-5 ,37.527607,126.848755
791,현대하이페리온,양천구,오목로300(205동앞 서쪽방향),37.52478,126.869835
792,목동트라팰리스 웨스턴에비뉴,양천구,오목로299(이마트 출입구측),37.525372,126.870926
793,목동5단지아파트 534동,양천구,서울특별시 양천구 목동동로 350 목동신시가지아파트5단지,37.53355,126.878143
794,양천문화회관,양천구,양천구 신정동 323-1,37.516842,126.862953
795,양천 해누리타운,양천구,양천구 신정동 327-4,37.515419,126.8638
796,목동아파트 14단지 B상가 앞,양천구,양천구 신정동 330,37.514664,126.871941
797,목동아파트 1422동 1434동 사잇길,양천구,양천구 신정동 332-2,37.515156,126.87249
1101,개화동상사마을종점 버스정류장,강서구,서울특별시 강서구 개화동로5길 3-8,37.581612,126.798599
1102,방화사거리 마을버스 버스정류장,강서구,서울특별시 강서구 양천로17길 6,37.573643,126.811806
1103,방화역 4번출구앞,강서구,서울특별시 강서구 금낭화로 135,37.577221,126.812195
1105,방화근린공원,강서구,서울특별시 강서구 금낭화로 176,37.581623,126.812653
1106,신방화사거리,강서구,서울특별시 강서구 방화대로 342,37.573032,126.816452
1108,공항시장역 2번출구 뒤,강서구,서울특별시 강서구 방화동로 지하 30,37.56356,126.81015
1109,공항시장역 4번출구,강서구,서울특별시 강서구 방화동로 지하 30,37.563347,126.810486
1110,공항중학교앞,강서구,서울특별시 강서구 방화대로 241,37.562683,126.816238
1111,마곡엠밸리6_7단지 마곡중학교,강서구,서울특별시 강서구 마곡중앙5로 58,37.566982,126.8218
1112,마곡엠밸리4단지 정문,강서구,서울특별시 강서구 마곡서로 175,37.568577,126.824776
1113,서남환경공원 버스정류장,강서구,서울특별시 강서구 양천로 201,37.573093,126.822899
1114,서남물재생센터 버스정류장,강서구,서울특별시 강서구 양천로 200,37.572781,126.826279
1115,등촌역 1번출구옆,강서구,서울특별시 강서구 공항대로59길 8,37.551666,126.86409
1117,스타벅스앞,강서구,서울특별시 강서구 공항대로 329,37.558197,126.844261
1118,증미역 3번출구뒤(등촌두산위브센티움오피스텔),강서구,서울특별시 강서구 양천로 지하 560,37.557461,126.861458
1119,염창동 한마음아파트앞(염창동 빛나는 음악학원앞),강서구,서울특별시 강서구 양천로 637,37.554253,126.867561
1120,대림경동아파트앞,강서구,서울특별시 강서구 허준로 121,37.565189,126.853996
1121,가양레포츠센터앞,강서구,서울특별시 강서구 양천로61길 101,37.559479,126.86438
1122,황금내근린공원,강서구,서울특별시 강서구 허준로 221-40,37.561932,126.863869
1124,발산역 6번 출구 뒤,강서구,서울특별시 강서구 공항대로 280,37.557968,126.838287
1125,명덕고교입구(영종빌딩),강서구,서울특별시 강서구 강서로 304,37.552914,126.836571
1126,우장산역 1번출구옆(우장산아이파크105동앞),강서구,서울특별시 강서구 강서로 지하 262,37.548908,126.836563
1127,화곡역(에이스정형외과앞) 버스정류장,강서구,서울특별시 강서구 화곡로 157,37.540981,126.838547
1128,화곡역 6번출구,강서구,서울특별시 강서구 화곡로 지하 168,37.541412,126.840225
1129,화곡역 1번 출구 앞,강서구,서울특별시 강서구 화곡로 지하 168,37.542099,126.840218
1130,화곡본동시장 버스정류장,강서구,서울특별시 강서구 화곡로 196,37.542751,126.842621
1131,꿈돌이공원 앞,강서구,서울특별시 강서구 화곡로 232,37.546444,126.845459
1132,등촌역 7번출구,강서구,서울특별시 강서구 공항대로 지하 529,37.551109,126.863708
1135,강서구의회,강서구,서울특별시 강서구 등촌로 185,37.546532,126.862549
1136,등촌2파출소,강서구,서울특별시 강서구 등촌로 167,37.544788,126.862
1137,등촌2동주민센터,강서구,서울특별시 강서구 등촌로 143,37.541431,126.86322
1139,용문사 버스정류장,강서구,서울특별시 강서구 등촌로 95,37.536991,126.863365
1140,목동사거리 버스정류장,강서구,서울특별시 강서구 등촌로 19,37.531399,126.863609
1141,곰달래 문화복지센터 1-1,강서구,서울특별시 강서구 강서로5길 50,37.52906,126.84848
1145,곰달래 문화복지센터 1-2,강서구,서울특별시 강서구 강서로5길 50,37.528919,126.848083
1146,곰달래사거리,강서구,서울특별시 강서구 곰달래로 51,37.530338,126.838257
1148,볏골공원,강서구,서울특별시 강서구 까치산로4길 22,37.54147,126.84478
1149,신방화역환승주차장,강서구,서울특별시 강서구 마곡서1로 111-12,37.567284,126.818275
1150,송정역 1번출구,강서구,서울특별시 강서구 공항대로3길 18,37.56155,126.810478
1151,마곡역1번출구,강서구,서울특별시 강서구 마곡동 727-716,37.560234,126.823471
1152,마곡역교차로,강서구,서울특별시 강서구 마곡동 728-168,37.558666,126.826614
1153,"발산역 1번, 9번 인근 대여소",강서구,서울특별시 강서구 공항대로 281,37.55891,126.838097
1155,기쁜우리복지관,강서구,서울특별시 강서구 가양동 1458-15 ,37.56926,126.848419
1157,강서구청,강서구,서울특별시 강서구 화곡로 302,37.550659,126.84977
1158,가양역 8번출구,강서구,서울특별시 강서구 양천로 지하 485,37.561035,126.854813
1159,서서울모터리움앞,강서구,서울특별시 강서구 양천로53길 30,37.565853,126.846596
1160,양천향교역 7번출구앞,강서구,서울특별시 강서구 양천로 지하 341,37.56768,126.840897
1161,강서면허시험장앞,강서구,서울특별시 강서구 남부순환로 171,37.549694,126.819664
1162,공항초등학교건너편,강서구,서울특별시 강서구 마곡서1로 68,37.562679,126.820473
1163,방화동강서기동대앞,강서구,서울특별시 강서구 방화대로34길 65,37.570499,126.820084
1165,마곡중학교 후문,강서구,서울특별시 강서구 마곡중앙5로 58,37.568447,126.821648
1166,강서구립등빛도서관,강서구,서울특별시 강서구 강서로62길 48,37.562569,126.842461
1167,마곡수명산파크3단지 교차로,강서구,서울특별시 강서구 수명로 72,37.553467,126.825928
1168,마곡엠밸리10단지 앞,강서구,서울특별시 강서구 마곡중앙1로 72,37.560226,126.819069
1169,염창역 1번 출구,강서구,강서구 공항대로 625,37.547199,126.874489
1170,강서구보건소 (삼성디지털 프라자),강서구,강서구 공항대로 571 ,37.549179,126.868797
1171,염창동 새마을금고 건너편 (모닝글로리),강서구,강서구 양천로 696,37.550049,126.873161
1172,가양3동 주민센터,강서구,강서구 허준로 202,37.561249,126.86058
1173,강서구청사거리(SH타워),강서구,강서구 공항대로 411 ,37.556259,126.853317
1174,강서구청사거리(부민병원),강서구,강서구 공항대로 395 ,37.556599,126.851471
1175,대한항공 인력개발센터,강서구,강서구 공항대로 453 ,37.554379,126.857536
1177,수명중?고교,강서구,"강서구 수명로1길 16, 401동 앞",37.55011,126.823677
1178,개화산역 2번 출구,강서구,강서구 양천로 22,37.572472,126.806168
1180,마곡엠밸리 15단지(1502동) 건너편,강서구,강서구 마곡중앙로 36,37.557468,126.82972
1181,농수산식품공사 (강서지사),강서구,강서구 발산로 40,37.551044,126.818497
1182,KBS 스포츠월드,강서구,강서구 공항대로 376,37.556877,126.848808
1183,KC 대학교,강서구,강서구 까치산로 24길 47,37.548321,126.853401
1184,마곡13단지,강서구,강서구 공항동 1343,37.55645,126.815979
1185,등촌9단지,강서구,강서구 화곡로 63가길 92 (등촌동 704),37.562901,126.849472
1186,송정중학교,강서구,강서구 공항동 1342,37.554729,126.816093
1187,강서수산물도매시장,강서구,강서구 외발산동 424,37.55302,126.818367
1188,롯데중앙연구소,강서구,강서구 마곡동 301-3,37.571381,126.828339
1190,마곡역 교차로(2번출구),강서구,강서구 마곡동 727-747 ,37.560501,126.826653
1191,마곡역 교차로(NH농협),강서구,강서구 마곡동 727-925,37.560242,126.827164
1192,마곡수명산파크 209동 건너편,강서구,강서구 내발산동 741-8,37.555538,126.826759
1193,마곡센트럴타워 1차,강서구,강서구 마곡동 727-1136,37.559471,126.832077
1194,센서텍㈜,강서구,강서구 마곡동 727-457,37.563301,126.836823
1195,코오롱One&Only타워,강서구,강서구 마곡동 727-525,37.564129,126.834312
1196,서울식물원(문화센터) 건너편,강서구,강서구 마곡동 727-286,37.568241,126.835831
1197,엠펠리체 호텔 건너편,강서구,강서구 마곡동 727-1187,37.560242,126.835808
1198,LG 사이언스파크,강서구,강서구 마곡동 727-925,37.56255,126.827438
1199,우장산역 3번출구,강서구,강서구 화곡동 1006-2,37.547821,126.836128
1200,개화광역환승센터,강서구,강서구 개화동 492-22,37.578449,126.798973
2701,마곡나루역 5번출구 뒤편,강서구,강서구 마곡동 761-5,37.565201,126.827316
2702,마곡 엠밸리2단지,강서구,강서구 마곡동 735-1,37.56918,126.819443
2703,서울도시가스 앞 ,강서구,강서구 공항대로 607 ,37.547485,126.872025
2704,홈플러스(강서점),강서구,강서구 화곡로 398 ,37.558334,126.854065
2706,강서공업고등학교 앞,강서구,"강서구 방화대로47가길 22, 411동 앞",37.576317,126.816498
2707,한강아파트,강서구,강서구 허준로 23,37.57037,126.844414
2708,강서한강자이타워 앞,강서구,강서구 양천로 401 ,37.564682,126.848908
2709,강변아파트 310동 앞,강서구,강서구 가양동 1459-8 ,37.564587,126.856918
2710,라이품 공영주차장 앞,강서구,강서구 강서로 515,37.570728,126.841568
2711,가로공원공영주차장 1번 출구,강서구,강서구 가로공원로 193,37.537361,126.837448
2712,화곡터널입구교차로,강서구,강서구 가로공원로 238 ,37.538338,126.842392
2713,우장초등학교 앞,강서구,강서구 화곡로 263,37.548534,126.846672
2714,발산1동주민센터교차로,강서구,강서구 강서로47길 86 ,37.553173,126.831238
2715,마곡나루역 2번 출구 ,강서구,강서구 마곡중앙5로 6 ,37.566883,126.827683
2716,롯데 R&D 센터,강서구,강서구 마곡동 301-2 ,37.569176,126.828217
2717,LG유플러스 마곡사옥,강서구,강서구 마곡중앙8로 71,37.561337,126.833901
2718,마곡수명산파크1단지,강서구,강서구 마곡동 728-148 ,37.554993,126.831894
2719,마곡문화공원,강서구,강서구 마곡중앙8로 20,37.561371,126.830124
2720,힐스테이트에코,강서구,강서구 마곡동 727-1120,37.559589,126.829781
2721,등촌1-10단지 교차로,강서구,강서구 강서로 419,37.563145,126.839562
2722,마곡 문영비지웍스,강서구,강서구 강서로 391,37.560604,126.83873
2723,마곡 필네이처,강서구,강서구 마곡동 727-1190,37.560894,126.836693
2724,(재)FITI시험연구원,강서구,강서구 마곡동 727-211,37.568665,126.838799
2725,서울식물원 식물문화센터,강서구,강서구 마곡동 727-305,37.569294,126.836197
2727,서울식물원 잔디마당 앞,강서구,강서구 마곡동 727-558,37.564087,126.830849
2728,마곡나루역 3번 출구,강서구,강서구 마곡동 372-23,37.565804,126.828079
2729,넥센 유니버시티 앞,강서구,강서구 마곡동 301-2,37.569485,126.828095
2730,마곡메가박스 앞,강서구,강서구 마곡동 727-1179,37.559128,126.834953
2731,명덕고교,강서구,강서구 마곡동 728-46,37.554951,126.834732
2732,마곡수명산 1-2단지 ,강서구,강서구 마곡동 728-350,37.555145,126.829453
2733,마곡13단지 정문 앞,강서구,강서구 마곡동 730-417 ,37.55854,126.820107
2735,마곡 공공청사,강서구,강서구 마곡서로 101 ,37.562294,126.823952
2737,까치산역 3번 출구,강서구,강서로 45,37.531693,126.846588
2739,수명산파크1단지교차로,강서구,강서로47길 142,37.553585,126.828568
2740,마곡레포츠센터,강서구,양천로 251,37.57272,126.832069
2741,마곡수명산파크5-6단지,강서구,강서구 내발산동 751-1,37.550617,126.826881
2742,강서구민올림픽체육센터,강서구,화곡로65길 62,37.559402,126.850441
2743,동신아파트 104동 앞,강서구,강서로532,,
2744,강서세무서앞,강서구,마곡서1로 60,,
2745,수명초등학교,강서구,수명로1길 84,,
2746,수명산파크4단지411동 앞,강서구,내발산동 751-6,,
3753,공항중학교 버스정류장,강서구,공항동9-12,,
3756,마곡힐스테이트 정문,강서구,마곡중앙3로74,,
3760,발산역 8번 출구,강서구,마곡동727-1222,,
3761,나이아가라관광호텔,강서구,양천로743,,
3763,등촌태영아파트,강서구,양천로590,,
3765,문소빌딩,강서구,화곡로229,,
3766,강서문화센터,강서구,화곡로215,,
3792,화곡본동시장 입구,강서구,화곡로206,,
3767,대원빌딩,강서구,화곡로228,,
3772,길성그랑프리텔아파트,강서구,방화대로319,,
3775,가양오토갤러리,강서구,강서로74길58,,
3776,김포공항교차로,강서구,방화동651-1,,
3778,김포공항입구 교차로,강서구,방화동621-6,,
3779,유광사여성병원,강서구,강서로191,,
3780,등촌서광아파트,강서구,공항대로45길68-6,,
3781,강서아동복지센터,강서구,금낭화로26가길 130,,
3782,겸재정선미술관,강서구,강서구 양천로47길 24 ,,
3784,벽산아파트,강서구,양천로47길 112 ,,
3794,안양천합수부(현대3차아파트),강서구,강서구 염창동 222,,
3786,강서힐스테이트 상가 앞,강서구,강서구 강서로 242,,
3787,가양나들목,강서구,강서구 가양동 1456-6,,
3788,정곡나들목,강서구,강서구 방화동 57-5번지,,
3789,염창나들목,강서구,강서구 염창동 223-4번지,,
3795,공항신성빌딩 앞,강서구,강서구 공항대로 49-2 ,,
3796,송정역 3번출구 앞,강서구,강서구 공항대로 48,,
3797,마곡수명산파크7단지 710동 앞,강서구,강서구 내발산동 755,,
3798,그랜드아이파트아파트 앞,강서구,강서구 화곡로 347,,
3769,가양동 이마트 앞,강서구,강서구 화곡로 347,,
1901,신도림동주민센터 앞,구로구,서울특별시 구로구 신도림로 40,37.507332,126.87973
1904,도림천역 1번 출구 앞,구로구,서울특별시 구로구 경인로67길 160,37.51424,126.882874
1906,신도림역 1번 출구 앞,구로구,서울특별시 구로구 경인로 688,37.50972,126.890099
1907,구일우성(아) 육교 밑,구로구,서울특별시 구로구 구일로2길 59,37.489632,126.876259
1908,해원리바파크 육교 밑,구로구,서울특별시 구로구 구일로 110,37.495285,126.872162
1910,낙원교회 맞은편,구로구,서울특별시 구로구 구로동로42길 43,37.497505,126.884377
1911,구로디지털단지역 앞,구로구,서울특별시 구로구 시흥대로 577-2,37.48494,126.901321
1912,한신휴아파트 앞,구로구,서울특별시 구로구 디지털로31길 120,37.4888,126.890663
1913,구로리공원,구로구,서울특별시 구로구 구로중앙로 13,37.491032,126.892151
1914,대림역4번출구,구로구,서울특별시 구로구 도림천로 351,37.494404,126.894447
1916,구로중학교앞,구로구,서울특별시 구로구 구로중앙로 48,37.494141,126.889984
1920,서울미래초등학교 사거리,구로구,서울특별시 구로구 새말로 73,37.504379,126.888298
1924,삼부르네상스파크빌,구로구,서울특별시 구로구 남부순환로 1299,37.478741,126.895096
1925,동양미래대학교 정문 옆,구로구,서울특별시 구로구 경인로 445,37.499889,126.867699
1928,고척스카이돔구장 광장,구로구,서울특별시 구로구 경인로 430,37.49947,126.868401
1929,고척근린공원 고척도서관 앞,구로구,서울특별시 구로구 고척로45길 31,37.505135,126.85276
1930,개봉지구대 개봉치안센터,구로구,서울특별시 구로구 경인로 293,37.497684,126.853729
1931,개봉역(북측광장),구로구,서울특별시 구로구 경인로40길 47,37.494995,126.858253
1933,개봉푸르지오아파트 상가,구로구,서울특별시 구로구 남부순환로 775,37.501583,126.84687
1936,개봉역 1번 출구 자전거보관서쪽,구로구,서울특별시 구로구 경인로40길 47,37.494282,126.859215
1937,한진아파트 입구,구로구,서울특별시 구로구 개봉로3길 87,37.486061,126.852013
1941,오류동역 2번출구,구로구,서울특별시 구로구 서해안로 2340-10,37.493938,126.844055
1943,온수역 북측,구로구,서울특별시 구로구 경인로3길 지하 64,37.49279,126.824524
1946,구로역 광장,구로구,서울특별시 구로구 구로중앙로 174,37.503117,126.880386
1951,천왕이펜하우스 4단지 상가 앞,구로구,서울특별시 구로구 천왕로 9,37.480289,126.8395
1952,천왕연지타운2단지 앞,구로구,서울특별시 구로구 오리로 1102-10,37.482105,126.845726
1953,천왕역 4번출구 뒤,구로구,서울특별시 구로구 오리로 지하 1154,37.486385,126.839211
1955,디지털입구 교차로,구로구,서울특별시 구로구 시흥대로 551,37.482883,126.901039
1956,도야미리숯불갈비 앞,구로구,서울특별시 구로구 신도림로 67,37.51001,126.88205
1957,구일고등학교 정문,구로구,서울특별시 구로구 구일로 90-51,37.493401,126.874329
1958,강서수도사업소민원센터,구로구,서울특별시 구로구 가마산로 272,37.495781,126.890121
1959,구로구의회 앞,구로구,서울특별시 구로구 가마산로25길 9-24,37.496456,126.889587
1960,화광신문사 앞,구로구,서울특별시 구로구 공원로 68,37.50285,126.889481
1961,신도림테크노근린공원,구로구,서울특별시 구로구 새말로 121-15,37.508194,126.891304
1962,가리봉동주민센터,구로구,서울특별시 구로구 디지털로26길 5,37.481602,126.892799
1964,원메디타운 앞,구로구,서울특별시 구로구 경인로 403,37.49789,126.864502
1965,삼환로즈빌아파트 105동 옆,구로구,서울특별시 구로구 경인로 343,37.497231,126.859192
1966,한마을아파트 정문상가,구로구,서울특별시 구로구 경인로 382,37.496498,126.863098
1967,참새공원(백곡경노당),구로구,서울특별시 구로구 고척로21길 85,37.505138,126.844337
1968,동인오피스텔 건너편 소공원,구로구,서울특별시 구로구 고척로22길 64,37.498482,126.847504
1969,궁동생태공원,구로구,서울특별시 구로구 오리로 1352,37.501904,126.828964
1971,오정초교 앞 보도육교,구로구,서울특별시 구로구 경인로2길 10,37.490723,126.826393
1973,오리로와 서해안도로 교차로 앞,구로구,서울특별시 구로구 오리로 1181,37.488598,126.836494
1974,신도림2차e편한세상아파트 203동 앞,구로구,서울특별시 구로구 신도림로 16,37.50518,126.882538
1975,대림역 1번 출입구 밑,구로구,서울특별시 구로구 도림천로 351,37.49258,126.894737
1976,남구로역 5번 출입구 앞,구로구,서울특별시 구로구 도림로 지하 7,37.48568,126.886703
1977,천왕역 1번 출입구 앞,구로구,서울특별시 구로구 오리로 지하 1154,37.48621,126.838821
1979,구로1동우체국 앞,구로구,서울특별시 구로구 구일로 64,37.492031,126.873772
1981,천왕이펜하우스5단지 앞,구로구,서울특별시 구로구 천왕로 10,37.479431,126.842697
1983,구로동롯데아파트,구로구,서울특별시 구로구 새말로 31,37.502548,126.883881
1984,구로구청,구로구,서울특별시 구로구 가마산로 245,37.495266,126.888474
1985,구로도서관,구로구,서울특별시 구로구 공원로 15,37.498516,126.891991
1986,태평양물산빌딩,구로구,구로구 구로동 197-21,37.484859,126.895187
1987,개봉아이파크아파트 앞,구로구,구로구 개봉동 489-1,37.490341,126.860931
1988,고척LIGA아파트 앞,구로구,구로구 고척동 185-10,37.50605,126.860786
1991,오류동역 맞은편,구로구, 구로구 오류동 6-2,37.496761,126.844963
1992,구로구배드민턴실내체육관 앞,구로구,구로구 오류동 326-1,37.491798,126.83242
1993,금강수목원아파트 앞,구로구,구로구 오류동 255-5,37.48938,126.834198
1994,삼성전자 물류센터 앞,구로구,서울시 구로구 구일로126,37.496998,126.87178
1996,구일역 1번 출입구 앞,구로구,구로구 구로동 642-77,37.495399,126.87101
1998,고척교 교차로,구로구,구로구 구로동 621-12,37.498569,126.871521
1999,수궁동 성당 주변,구로구,구로구 궁동 252-17,37.495258,126.830658
2000,신도림4차 e편한세상 아파트 1109동 앞,구로구,구로구 신도림동 312-16,37.512329,126.886833
2801,대륭포스트타워1차,구로구,구로구 디지털로31길 33-1,37.484371,126.895424
2804,항동지구 6단지 602동 앞,구로구,구로구 항동 216-11 ,37.477375,126.820015
2805,구로자원순환센터 ,구로구,구로구 항동 216-11 ,37.48251,126.82576
2806,항동지구 4단지 입구,구로구,구로구 항동 82-9,37.482597,126.826454
2807,항동지구 1단지 105동 앞,구로구,구로구 항동 100-14,37.480629,126.821816
2808,항동지구 2단지 202동 앞,구로구,구로구 항동 113-1,37.480808,126.821907
2809,항동지구 11단지 1103동 앞,구로구,구로구 항동 169-1,37.477905,126.823113
2810,항동지구 3단지 311동 앞,구로구,구로구 항동 169-2,37.47794,126.823273
2812,항동프라자,구로구,구로구 항동 120-5,37.479832,126.822754
2813,항동지구 3단지 302동 앞,구로구,구로구 항동 135-26,37.47937,126.82547
2814,항동지구 10단지 1001동 앞,구로구,구로구 항동 135-11,37.479343,126.825638
2817,천왕이펜하우5단지 앞,구로구,구로구 천왕동 277-4,37.479897,126.84037
2818,천왕이펜하우스3단지 앞,구로구,구로구 천왕동 277-4,37.482239,126.838532
2819,하늘숲초등학교 앞,구로구,구로구 천왕동 산13-1,37.483665,126.841614
2820,신세기아파트 앞,구로구,구로구 개봉동 412-52,37.493965,126.853043
2821,청구아파트 앞,구로구,구로구 고척동 50-65,37.50119,126.863533
2822,제니스스포츠 앞,구로구,구로구 고척동 60-42,37.50452,126.870552
2823,중앙유통단지 앞,구로구,구로구 구로동 635-32,37.499813,126.874313
2824,미래사랑어린이공원 앞,구로구,구로구 신도림동 314-2,37.510063,126.889565
2825,초롱타운 앞,구로구,구로구 구로동 467-62,37.495453,126.880394
2826,가마산지하보도 옆,구로구,구로구 구로동 390-157,37.488647,126.88047
2815,항동지구 7단지 정문,구로구,구로구 항동 207-1,37.476013,126.81646
2816,항동지구 8단지 803동옆(주차장입구),구로구,구로구 항동 220,37.474731,126.817009
3902,항동지구5단지 501동 앞,구로구,서울 구로구 항동 140-2,,
3903,현대아파트 앞,구로구,서울 구로구 개봉동 412-43,,
3904,테크노마트 앞,구로구,서울 구로구 구로동 1-2,,
3905,희훈타워빌 앞,구로구,서울 구로구 구로동 50,,
3906,천왕차량사업소 입구,구로구,서울 구로구 천왕동 63-5,,
1804,독산역 2번출구 자전거주차장,금천구,서울특별시 금천구 벚꽃로 115,37.46653,126.888718
1805,서울디지털운동장 앞,금천구,서울특별시 금천구 가산디지털2로 151,37.482288,126.877769
1806,에이스하이엔드타워9차 앞,금천구,서울특별시 금천구 가산디지털1로 233,37.486214,126.878639
1808,에이스하이엔드타워8차 앞,금천구,서울특별시 금천구 가산디지털1로 84,37.473209,126.884941
1809,LG전자 별관동(호서대 벤처타워 맞은편),금천구,서울특별시 금천구 가산디지털1로 63,37.470779,126.885155
1812,갑을그레이트밸리 앞,금천구,서울특별시 금천구 디지털로9길 32,37.479031,126.887299
1814,두산위브아파트 옆 상가건물 앞,금천구,서울특별시 금천구 가산로 99,37.47422,126.894127
1816,금천폭포공원 앞,금천구,서울특별시 금천구 시흥대로38길 61,37.446861,126.903831
1819,금천구청 앞 자전거거치대,금천구,서울특별시 금천구 시흥대로73길 70,37.456478,126.895927
1820,신한은행 시흥대로금융센터지점,금천구,서울특별시 금천구 시흥대로 446,37.44334,126.903358
1821,홈플러스 시흥점 맞은편 다비치안경 앞,금천구,서울특별시 금천구 시흥대로 198,37.451458,126.902115
1822,서울 시흥동우체국 앞,금천구,서울특별시 금천구 시흥대로 217,37.452991,126.900909
1823,상신정비공업 앞,금천구,서울특별시 금천구 시흥대로 287,37.458912,126.89859
1824,독산근린공원 입구,금천구,서울특별시 금천구 독산동 ,37.46455,126.883728
1825,한신아파트 앞 육교 아래,금천구,서울특별시 금천구 금하로1길 70,37.4547,126.891052
1826,한신코아 앞,금천구,서울특별시 금천구 한내로 62,37.456841,126.888344
1827,독산보도육교 앞 자전거 보관소,금천구,서울특별시 금천구 서부샛길 70,37.455849,126.893143
1828,한양수자인아파트 앞,금천구,서울특별시 금천구 시흥대로150길 6,37.475319,126.898888
1829,홈플러스 금천점 앞,금천구,서울특별시 금천구 시흥대로 391,37.469139,126.897202
1830,빅마켓 금천점 앞,금천구,서울특별시 금천구 두산로 71,37.47023,126.895073
1831,메이퀸웨딩컨벤션 앞,금천구,서울특별시 금천구 시흥대로 435,37.4725,126.897957
1833,독산역 1번출구 앞 자전거보관소,금천구,서울특별시 금천구 벚꽃로 115,37.466541,126.890282
1834,월드메르디앙 벤처센터 2차,금천구,서울특별시 금천구 가산디지털2로 123,37.479084,126.879044
1835,STX V타워,금천구,서울특별시 금천구 가산디지털1로 128,37.47707,126.88443
1836,금천구립 독산도서관,금천구,서울특별시 금천구 독산로54길 114,37.467403,126.908142
1839,수출의 다리 아래,금천구,서울특별시 가산동 60-35,37.477058,126.885185
1840,솔브레인이엔지 뒤편,금천구,서울특별시 가산동 219-18,37.475101,126.888069
1841,가산동 주민센터,금천구,서울특별시 가산동 144-3,37.476952,126.891869
1842,한울중학교,금천구,서울특별시 시흥동 1000-3,37.462574,126.90686
1843,독산고등학교,금천구,서울특별시 독산동 906-42,37.477097,126.911133
1845,롯데캐슬골드파크1차 서문,금천구,서울특별시 금천구 벚꽃로40 ,37.460289,126.892189
1846,롯데캐슬골드파크1차 동문,금천구,서울특별시 금천구 독산동 441-19 ,37.460171,126.896042
1847,독산주공 14단지 버스정류소,금천구,서울특별시 금천구 안양천로,37.461033,126.8871
1848,벽산 디지털밸리 5차,금천구,서울특별시 금천구 가산동 60-73 ,37.476276,126.885391
1849,대륭포스트타워5차,금천구,서울특별시 금천구 디지털로9길 68,37.481354,126.88694
1850,코오롱테크노밸리,금천구,서울특별시 금천구 디지털로9길 56,37.48016,126.886368
1851,가산디지털단지 7번출구,금천구,서울특별시 금천구 벚꽃로 309,37.481232,126.881485
1852,혜명양로원 담장 옆,금천구,금하로29길36(시흥동),37.451771,126.913399
1853,서울디자인직업전문학교 앞,금천구,금천구 가산로70(가산동),37.472481,126.895866
1854,가산아네스트 오피스텔 앞,금천구,금천구 남부순환로1314(가산동),37.47818,126.897408
1855,성지아파트 옆 도로변,금천구,금천구 시흥대로51길55,37.451321,126.897621
1856,모두의학교,금천구,금천구 남부순환로 128길 42,37.478409,126.907372
1857,주공14단지,금천구,금천구 한내로 69-54,37.46056,126.887093
1858,석수역1번출구 앞 (SK주유소),금천구,금천구 시흥동 1001-34,37.437271,126.902687
1859,대륭테크노타운 18차,금천구,금천구 가산동 668,37.467999,126.886841
1861,IBK기업은행 석수역 지점 앞,금천구,시흥대로46 IBK기업은행 석수역 지점,37.436981,126.903297
1862,스타즈호텔독산 빌딩 앞,금천구,시흥대로 315,37.461346,126.897583
1863,위너스 스포츠클럽 골프연습장옆,금천구,시흥대로 302 옆,37.460537,126.898605
1864,산호시티빌 옆,금천구,시흥대로 251 옆,37.45652,126.899551
1865,금천구청앞(M빌딩),금천구,시흥대로67 옆,37.456333,126.896454
1866,서울안천초등학교 옆,금천구,한내로 69-16,37.457779,126.889427
1867,대륭포스트타워6차 앞,금천구,벚꽃로 298,37.480888,126.883804
1868,우리은행 시흥남자동화점 앞,금천구,시흥대로155,37.447853,126.902885
1869,롯데캐슬골드파크3차 301동 앞,금천구,"시흥대로291, 롯데캐슬3차 301동 앞",37.459019,126.896713
1870,독산3동주민센터 앞,금천구,독산로 317,37.475071,126.903359
200,국회의원회관,영등포구,서울특별시 영등포구 의사당대로 1,37.528416,126.913918
201,진미파라곤 앞,영등포구,서울특별시 영등포구 국회대로76길 10,37.531239,126.921333
202,국민일보 앞,영등포구,서울특별시 영등포구 여의공원로 101,37.528816,126.92453
203,국회의사당역 3번출구 옆,영등포구,서울특별시 영등포구 국회대로 지하758,37.528057,126.918701
204,국회의사당역 5번출구 옆,영등포구,서울특별시 영등포구 의사당대로 8,37.528164,126.917023
205,산업은행 앞,영등포구,서울특별시 영등포구 의사당대로 97,37.526264,126.920509
206,KBS 앞,영등포구,서울특별시 영등포구 여의공원로 13,37.524666,126.918022
207,여의나루역 1번출구 앞,영등포구,서울특별시 영등포구 여의동로 지하343,37.526989,126.932098
209,유진투자증권빌딩 앞,영등포구,서울특별시 영등포구 국제금융로 24,37.524612,126.927834
210,IFC몰,영등포구,서울특별시 영등포구 국제금융로 10,37.526066,126.925537
211,여의도역 4번출구 옆,영등포구,서울특별시 영등포구 국회대로68길 7,37.522228,126.924637
212,여의도역 1번출구 옆,영등포구,서울특별시 영등포구 의사당대로 88,37.521362,126.923462
213,KT앞,영등포구,서울특별시 영등포구 여의대로 38,37.521908,126.918953
214,금융감독원 앞,영등포구,서울특별시 영등포구 여의대로 38,37.523022,126.920837
215,여의도고교 앞,영등포구,서울특별시 영등포구 국제금융로7길 37,37.524837,126.934906
217,NH농협은행 앞,영등포구,서울특별시 영등포구 국제금융로8길 2,37.522079,126.930367
218,증권거래소 앞,영등포구,서울특별시 영등포구 여의나루로 76,37.523277,126.929237
219,롯데캐슬엠파이어 옆,영등포구,서울특별시 영등포구 의사당대로 127,37.520695,126.925835
220,미성아파트 A동 앞,영등포구,서울특별시 영등포구 의사당대로 110,37.519363,126.926048
221,여의도초교 앞,영등포구,서울특별시 영등포구 여의대방로 439,37.522675,126.93779
222,시범아파트버스정류장 옆,영등포구,서울특별시 영등포구 63로 45,37.519436,126.937599
223,진주아파트상가 앞,영등포구,서울특별시 영등포구 국제금융로 108-6,37.519314,126.933167
224,롯데캐슬 앞,영등포구,서울특별시 영등포구 국제금융로 86,37.520088,126.932365
225,앙카라공원 앞,영등포구,서울특별시 영등포구 의사당대로 지하166,37.517368,126.929253
226,샛강역 1번출구 앞,영등포구,서울특별시 영등포구 의사당대로 지하166,37.517765,126.928413
227,양평2나들목 보행통로 입구,영등포구,서울특별시 영등포구 양화동 17-4,37.544666,126.888359
228,선유도역 3번출구 앞,영등포구,서울특별시 영등포구 양평동4가 202-1,37.53846,126.894508
229,양평1 보행육교 앞,영등포구,서울특별시 영등포구 양평동4가 20-4,37.535873,126.892181
230,영등포구청역 1번출구,영등포구,서울특별시 영등포구 당산로 111-2,37.524635,126.896217
231,남부고용노동지청 남측,영등포구,서울특별시 영등포구 양평동1가 115-2,37.524506,126.891823
232,양평우림 이비즈센타 앞,영등포구,서울특별시 영등포구 양평동3가 14-1,37.52565,126.887817
233,YP 센터 앞,영등포구,서울특별시 영등포구 양평동3가 60-1,37.528488,126.891647
234,영등포구민체육센터 앞,영등포구,서울특별시 영등포구 신길동 399 ,37.500462,126.905846
235,신길동 우리은행 옆,영등포구,서울특별시 영등포구 신길동 250-4 ,37.504566,126.910233
236,문래동자이아파트 앞,영등포구,서울특별시 영등포구 문래동3가 68-1,37.516155,126.894615
238,제2구민체육센타 앞,영등포구,서울특별시 영등포구 당산동4가 96-2,37.526386,126.902756
239,유스호스텔 앞,영등포구,서울특별시 영등포구 영등포동7가 58-2,37.525852,126.903282
240,문래역 4번출구 앞,영등포구,서울특별시 영등포구 문래동3가 55-12 ,37.518738,126.895576
241,신길우성1차아파트 앞 공원,영등포구,서울특별시 영등포구 도림동 255-2 ,37.505329,126.898483
242,신길선원가와인아파트 앞,영등포구,서울특별시 영등포구 신길동 215-28 ,37.510933,126.910225
243,이앤씨드림타워 앞,영등포구,서울특별시 영등포구 양평동3가 48-1,37.527084,126.89138
244,영등포삼환아파트 앞,영등포구,서울특별시 영등포구 영등포동8가 82-4 ,37.530079,126.905708
245,삼성생명 당산사옥 앞,영등포구,서울특별시 영등포구 당산동4가 35-24 ,37.528263,126.896629
247,당산역 10번출구 앞,영등포구,서울특별시 영등포구 당산동5가 14-4,37.533688,126.902107
248,초원아파트 앞,영등포구,서울특별시 영등포구 여의도동8-13,37.531055,126.92421
249,여의도중학교 옆,영등포구,서울특별시 영등포구 여의도동 8,37.52412,126.936546
250,대림아파트 사거리,영등포구,서울특별시 영등포구 신길동 249,37.507641,126.92308
251,서울지방병무청 버스정류장,영등포구,서울특별시 영등포구 신길동853,37.504494,126.921951
252,보라매역4번출구,영등포구,서울특별시 영등포구 신길동4884,37.499828,126.919945
253,신풍역 5번출구 인근,영등포구,서울특별시 영등포구 신길동3596,37.500648,126.909515
254,도림신협 앞,영등포구,서울특별시 영등포구 신길동263-76,37.503803,126.903419
255,도림사거리,영등포구,서울특별시 영등포구 신길동373-1,37.506573,126.901131
256,동아에코빌입구,영등포구,서울특별시 영등포구 도림동 159-70,37.509476,126.8993
257,신길삼거리(우리은행),영등포구,서울특별시 영등포구 신길동95-256,37.513844,126.919357
258,신길역3번출구,영등포구,서울특별시 영등포구 영등포동1가35,37.517693,126.914299
259,대방역6번출구,영등포구,서울특별시 영등포구 신길동1368,37.513592,126.925934
260,여의도 마리나선착장 앞,영등포구,서울특별시 영등포구 여의서로 160,37.53368,126.912086
262,영문초등학교 사거리,영등포구,서울특별시 영등포구 문래로 56,37.519928,126.889183
263,근로자회관 사거리,영등포구,서울특별시 영등포구 선유로 34,37.517151,126.888626
264,교보생명보험 앞,영등포구,서울특별시 영등포구 영등포로 96,37.521931,126.891617
265,영등포유통상가 사거리,영등포구,서울특별시 영등포구 영등포로 124,37.521133,126.896538
266,영등포청과시장 사거리,영등포구,서울특별시 영등포구 영등포로 177,37.520294,126.901192
267,삼성화재 사옥 옆,영등포구,서울특별시 영등포구 양평로 76,37.535961,126.8983
268,그랜드컨벤션센터 앞,영등포구,서울특별시 영등포구 양평로 58,37.534718,126.900002
270,증권거래소후문교차로,영등포구,서울특별시 영등포구 여의나루로 76,37.522343,126.927101
271,샛강생태공원방문자센터 앞,영등포구,서울특별시 영등포구 여의동로 48,37.518963,126.921616
272,당산육갑문,영등포구,서울특별시 영등포구 당산로52길 3,37.535339,126.903679
274,영등포역지하쇼핑센타 5번출구,영등포구,서울특별시 영등포구 경인로 846,37.516651,126.90799
275,신동아아파트,영등포구,서울특별시 영등포구 선유서로 76,37.522816,126.885651
276,SK 영등포주유소,영등포구,서울특별시 영등포구 경인로112길 1,37.518284,126.912636
277,영등포뉴타운지하상가 2번게이트,영등포구,서울특별시 영등포구 영중로 22,37.520119,126.905167
278,쌍용플레티넘오피스텔,영등포구,서울특별시 영등포구 도영로 18,37.507931,126.895233
279,영등포 푸르지오 아파트,영등포구,서울특별시 영등포구 도신로29길 28,37.513229,126.904465
280,양평동6차현대아파트 앞,영등포구,양평동 3가 80-9,37.532101,126.89444
281,신동아아파트 앞,영등포구,가마산로 311 앞 복개천 보도,37.498241,126.893982
282,신한은행,영등포구,시흥대로 617,37.48753,126.904877
283,아크로타워 스퀘어(영등포시장),영등포구,영등포구 영등포동7가 3-2,37.522518,126.907219
284,센트럴 푸르지오 시티 앞,영등포구,문래로 180,37.518211,126.902229
285,대림3동사거리(하나은행),영등포구,가마산로 343,37.499859,126.89724
286,우성아파트 교차로,영등포구,대림로 153 ,37.494572,126.89975
287,영등포전화국사거리 (서강어린이공원),영등포구,영등포동8가 29-1,37.525768,126.905739
288,쌍용예가(구청별관),영등포구,당산로31길 32 서측(구청별관 주변),37.528099,126.893387
289,대림3동사거리,영등포구,가마산로 352 커피베이 앞,37.499809,126.898003
290,당산동 SK V1 빌딩,영등포구,영등포구 당산동4가 89-1,37.531509,126.897827
291,문래동 하이테크 시티,영등포구,영등포구 문래동3가 55-21,37.513851,126.89888
292,영일 어린이공원,영등포구,영등포구 영등포동 647-3,37.51012,126.904068
293,충북 미래관,영등포구,영등포구 당산동 121-258,37.529171,126.907578
295,영등포공원 분수대 앞,영등포구,영등포구 신길로 275,37.514824,126.911881
296,KT플라자 영등포점,영등포구,영등포구 영중로 119,37.526302,126.90538
297,국회3문,영등포구,영등포구 여의동로 330,37.528637,126.912674
298,KBS 연구동 건너편,영등포구,영등포구 여의도동 1-877,37.527508,126.914299
299,여의도 순복음교회,영등포구,영등포구 여의도동 8,37.531792,126.922455
3201,당산skv1센터,영등포구,영등포구 당산로41길 11,37.530735,126.89917
3202,당산롯데캐슬프레스티지,영등포구,영등포구 영신로 237,37.52869,126.903862
3203,도림동배드민턴체육관,영등포구,영등포구 도림동 276-2,37.506115,126.89859
3204,도림고가도로 밑,영등포구,영등포구 도림동 187-68,37.511242,126.898186
3205,문래중학교,영등포구,영등포구 선유서로13길 6,37.520466,126.884819
3206,문래동 주민센터,영등포구,영등포구 문래동3가 55-6,37.517071,126.899086
3207,양남사거리 교통섬,영등포구,영등포구 영등포로 71-2,37.522526,126.889969
3211,신길 래미안 프레비뉴,영등포구,영등포구 가마산로 442,37.504383,126.908089
3212,신풍역 6번출구,영등포구,영등포구 신풍로 43,37.500172,126.911308
3214,영등포 푸르지오,영등포구,도신로29길 28,37.512024,126.901054
3215,강변삼성래미안,영등포구,영등포구 버드나루로 130,37.529743,126.907829
3219,영등포역 2번출구,영등포구,청구로 64,37.514874,126.907585
3220,래미안에스티움(신풍로) 앞,영등포구,신풍로77(GS25),37.500137,126.913979
3221,서울특별시 남부교육지원청,영등포구,영등포구 문래로121,37.519333,126.895302
4556,리버뷰신안인스빌1차 후문,영등포구,영등포구 경인로77길 49,,
4557,리버뷰신안인스빌2차 후문,영등포구,영등포구 도림로143길 27,,
2002,노들역 1번출구,동작구,서울특별시 동작구 노량진로 지하 238,37.512844,126.952469
2003,사육신공원앞,동작구,서울특별시 동작구 노량진로 191,37.513359,126.948059
2007,유한양행앞,동작구,서울특별시 동작구 노량진로 74,37.512939,126.934242
2008,노량진근린공원 대방공원,동작구,서울특별시 동작구 여의대방로44길 20,37.509369,126.92807
2009,보라매역 8번출구,동작구,서울특별시 동작구 상도로 지하 2,37.500076,126.921082
2012,녹십초요양병원앞,동작구,서울특별시 동작구 시흥대로 634,37.488361,126.906227
2013,장승배기역 5번출구,동작구,서울특별시 동작구 상도로 지하 188,37.505852,126.939362
2015,신대방삼거리역 6번출구쪽,동작구,서울특별시 동작구 상도로 지하 76,37.499855,126.929565
2016,신대방삼거리역 3번출구쪽,동작구,서울특별시 동작구 상도로 지하 76,37.499645,126.927094
2020,장승배기역2번출구뒷편쪽,동작구,서울특별시 동작구 상도로 지하 188,37.504498,126.938988
2024,상도역 1번출구,동작구,서울특별시 동작구 상도로 지하 272,37.502178,126.948204
2025,흑석역 1번출구,동작구,서울특별시 동작구 현충로 지하 90,37.50938,126.963615
2026,흑석역 4번출구,동작구,서울특별시 동작구 현충로 지하 90,37.508587,126.963493
2027,중앙대학교 정문,동작구,서울특별시 동작구 흑석로 47,37.507042,126.959152
2032,이수역 11번출구쪽,동작구,서울특별시 동작구 사당로 지하 310,37.485508,126.981621
2033,사당동 아르테스 웨딩앞,동작구,서울특별시 동작구 동작대로 지하 3,37.481491,126.981583
2034,사당역 7번출구쪽,동작구,서울특별시 동작구 동작대로 지하 3,37.476891,126.980576
2036,정금마을 마을버스정류장,동작구,서울특별시 서초구 동작대로 198,37.494705,126.982391
2037,동작역 5번출구 동작주차공원,동작구,서울특별시 동작구 현충로 지하 220,37.503189,126.97715
2038,동작역 7번출구,동작구,서울특별시 동작구 현충로 지하 220,37.503181,126.976089
2040,비계 버스정류소,동작구,서울특별시 동작구 현충로 151,37.506359,126.969078
2041,사당중학교 버스정류소,동작구,서울특별시 동작구 사당로 169,37.486835,126.968048
2048,삼일초등학교 인근,동작구,서울특별시 동작구 사당로23나길 27,37.489087,126.97358
2050,노량진역 5번출구,동작구,서울특별시 동작구 노량진로 지하 130,37.513248,126.939972
2054,삼익아파트,동작구,서울특별시 동작구 만양로 84,37.510548,126.944847
2056,동작구민 체육센터,동작구,서울특별시 동작구 여의대방로16길 53,37.494499,126.916527
2057,상도 아이파크 아파트,동작구,서울특별시 동작구 장승배기로 26,37.500881,126.94175
2058,노량진동 맥도널드앞,동작구,서울특별시 동작구 노량진동 113-7 ,37.513523,126.943527
2059,보라매공원 정문,동작구,서울특별시 동작구 신대방동 395 ,37.497078,126.917793
2060,남성역3번출구 뒤,동작구,서울특별시 동작구 사당동 1131 ,37.484631,126.97155
2061,한강 현대아파트 건너편,동작구,동작구 흑석동 27-83 ,37.505928,126.969231
2062,사당새마을금고,동작구,서울특별시 사당동 211-2 ,37.486652,126.967842
2063,대방역 4번출구,동작구,서울특별시 영등포구 여의대방로 300,37.512901,126.926613
2064,흑석한강푸르지오 106동앞,동작구,서울특별시 동작구 흑석한강로 27,37.505356,126.966179
2065,서울시여성가족재단,동작구,서울특별시 동작구 여의대방로54길 18,37.51199,126.927086
2066,양문교회 앞,동작구,동작구 신대방동 607-8,37.489399,126.907112
2067,LG전자 베스트? 대리점 앞,동작구,고덕동 230,37.497669,126.919868
2068,총신대 앞(육교),동작구,동작구  사당동 1112,37.488159,126.966476
2069,숭실대 입구역3번 출구 앞,동작구,동작구  상도동 514,37.496601,126.953682
2070,노량진역 2번 출구 앞,동작구,동작구  노량진동 67-3,37.51392,126.943069
2071,대림아파트 후문 상가 옆,동작구,동작구 사당로23길 137,37.488869,126.971909
237,보라매 두산위브 건너편,동작구,서울특별시 영등포구 신길동 4490 ,37.496513,126.914803
2076,노들나루공원 입구,동작구, 동작구 본동 258-49,37.513577,126.955551
2077,노들역 3번출구,동작구, 동작구 노량진로 250-1,37.511936,126.954163
2078,흑석 아크로리버하임(103동),동작구, 동작구 흑석동 143-57,37.510838,126.961632
2079,중앙대학교 정문,동작구, 동작구 흑석동 221-1,37.506672,126.957779
2080,빕스 대방점 앞,동작구, 동작구 대방동 341-15,37.512135,126.925438
2081,대방1차 e편한세상 앞,동작구, 동작구 대방동 338-6,37.513062,126.929512
2082,7호선 이수역7번출구,동작구, 동작구 동작대로 89,37.485615,126.981979
2083,흑석롯데캐슬에듀포레(107동),동작구, 동작구 흑석동 86-212,37.504704,126.960732
2084,e편한세상 상도노빌리티 앞,동작구, 동작구 상도동 26-77,37.504562,126.946785
2085,강남중학교 앞,동작구, 동작구 대방동 466-45,37.502743,126.921578
2086,삼일수영장 앞,동작구, 동작구 사당로27길 103,37.487412,126.974739
2088,상도중앙하이츠빌 입구,동작구, 동작구 상도동 159-186,37.500248,126.94973
2089,사당역10번출구(금강빌딩),동작구, 동작구 동작대로 29,37.479107,126.981506
2090,기아자동차 사당점 앞,동작구, 동작구 사당로 272,37.48378,126.977921
2091,이수역9번출구(맥도날드),동작구, 동작구 사당동 147-141,37.484135,126.977882
2092,흑석한강푸르지오(110동),동작구, 동작구 흑석동 336-7,37.503113,126.964714
2093,상도SH빌아파트 입구,동작구, 동작구 상도로53길 70,37.503212,126.954598
2094,숭실대학교(중문) ,동작구, 동작구 상도동 512-10,37.495506,126.956375
2095,경문고등학교 앞,동작구, 동작구 동작동 산1-13,37.491501,126.982407
2096,서울특별시 동작관악교육지원청,동작구,동작구 상도2동175-1,37.502838,126.940338
2102,봉림교 교통섬,관악구,서울특별시 관악구 관천로 52,37.48423,126.926392
2103,신림동 우방아파트,관악구,서울특별시 관악구 관천로27길 2,37.489178,126.919273
2104,사당역 5번출구,관악구,서울특별시 동작구 남부순환로 지하 2089,37.476089,126.981331
2105,미성동 신림체육센터,관악구,서울특별시 관악구 난곡로 295,37.480251,126.914604
2106,난곡 새마을금고,관악구,서울특별시 관악구 난곡로 210,37.473728,126.918404
2107,도림천 신화교,관악구,서울특별시 관악구 신림로 40,37.475471,126.936455
2108,은천치안센터,관악구,서울특별시 관악구 봉천로 375,37.483341,126.943199
2109,은천로입구 가로공원,관악구,서울특별시 양천구 가로공원로 지하 133,37.486225,126.935829
2110,조원동 미성아파트,관악구,서울특별시 관악구 시흥대로 560,37.483192,126.902031
2111,서울대입구역 1번출구,관악구,서울특별시 관악구 남부순환로 1830,37.480869,126.953316
2112,서울대입구역 마에스트로,관악구,서울특별시 관악구 남부순환로 지하 1822,37.481339,126.950645
2113,관악동작견인차량보관소,관악구,서울특별시 관악구 신사로 7,37.484661,126.9039
2115,관악농협농산물백화점,관악구,서울특별시 관악구 남부순환로 1369,37.479916,126.90284
2116,에이스에이존빌딩,관악구,서울특별시 관악구 남부순환로 지하 1822,37.481705,126.950829
2119,중앙동 동진빌딩,관악구,서울특별시 관악구 관악로 217,37.484257,126.954697
2122,낙성대로 입구,관악구,서울특별시 관악구 남부순환로 1889,37.478058,126.960495
2127,보성운수차고지 맞은편,관악구,서울특별시 관악구 난곡로 99,37.464886,126.919479
2128,관악구청교차로,관악구,서울특별시 관악구 관악로 153,37.479164,126.952583
2129,낙성대 과학전시관,관악구,서울특별시 관악구 낙성대로 101,37.469055,126.958145
2130,영어마을 관악캠프,관악구,서울특별시 관악구 낙성대로 70,37.471989,126.958427
2135,신림역 5번출구,관악구,서울특별시 관악구 남부순환로 지하 1614,37.484409,126.928909
2136,신림역 8번출구,관악구,서울특별시 관악구 신림로 340,37.484577,126.929916
2137,KT&G 관악지점,관악구,서울특별시 관악구 남부순환로 1675,37.484901,126.936531
2139,서울신성초등학교,관악구,서울특별시 관악구 신림로 114,37.471165,126.937019
2140,신림1교 교차로,관악구,서울특별시 관악구 신림로 270,37.478428,126.931862
2141,미림여고입구 교차로,관악구,서울특별시 관악구 신림로 137,37.472294,126.933411
2143,서울산업정보학교,관악구,서울특별시 관악구 신림로 67,37.470695,126.9422
2144,난우길입구,관악구,서울특별시 관악구 문성로 115,37.477776,126.916756
2145,은천초등학교 육교,관악구,서울특별시 관악구 은천로 69,37.486359,126.942924
2148,낙성대역 3번출구 뒤,관악구,서울특별시 관악구 남부순환로 지하 1928,37.477028,126.963394
2156,농협 관악문성지점,관악구,서울특별시 금천구 남부순환로 1428,37.480721,126.909325
2159,인헌초교,관악구,서울특별시 관악구 봉천동 244-1 ,37.47509,126.959229
2164,관악우체국,관악구,서울특별시 관악구 남부순환로 1641,37.484768,126.932877
2165,JK장평타워,관악구,서울특별시 관악구 남부순환로 1943,37.476482,126.965363
2167,낙성대역 1번출구,관악구,서울특별시 관악구 남부순환로 1944,37.476295,126.964958
2169,봉천역 2번출구,관악구,서울특별시 관악구 남부순환로 1728,37.482189,126.942131
2170,조원동서울본병원,관악구,서울특별시 관악구 남부순환로 1451,37.481529,126.912033
2171,서울대입구역 5번출구,관악구,서울특별시 관악구 남부순환로 1817,37.481548,126.952003
2172,나들목공원,관악구,서울특별시 관악구 신림로 41,37.469406,126.944511
2173,당곡사거리,관악구,서울특별시 관악구 보라매로 3,37.48975,126.927467
2174,삼성디지털프라자관악점,관악구,서울특별시 관악구 신림로 386,37.488564,126.928482
2175,신림동걷고싶은문화의거리입구,관악구,서울특별시 관악구 신림로 369,37.487301,126.928703
2176,보라매공원 보도육교,관악구,서울특별시 관악구 신사로 132,37.488991,126.916382
2177,신대방역 2번 출구,관악구,신림동 신대방역 2번출구,37.487129,126.913017
2178,서울대학교 정문,관악구,신림동 56-1,37.46682,126.948807
2179,양녕로 입구,관악구,남부순환로 1761,37.482189,126.946159
2183,동방1교,관악구,신림로 144,37.471828,126.933922
2184,구암초등학교 버스정류장,관악구,관악구 봉천동 490-9,37.489491,126.945923
2185,대학동 고시촌,관악구,서울특별시 관악구 신림로 97 밀라트,37.470467,126.938652
2186,우리은행 낙성대역지점,관악구,남부순환로 1889,37.478821,126.95961
2187,현대시장사거리(신한은행),관악구,은천로 110,37.486736,126.947517
2189,삼성서비스센터(관악점) ,관악구,남부순환로 1719,37.482754,126.941406
2190,도원맨션,관악구,남부순환로 1699,37.483688,126.939156
2191,대학동주민센터 ,관악구,신림로 115,37.470688,126.936485
2195,은천교회,관악구,남부순환로 1654,37.484646,126.934509
2196,삼화페인트 봉천점,관악구,남부순환로 1700,37.483311,126.939026
2198,사랑의병원,관악구,남부순환로 1868,37.479465,126.956932
2199,신봉천주유소,관악구,남부순환로 1884,37.478771,126.958695
2200,관악문화원 건너편,관악구,신림동 138-54,37.468567,126.946755
3304,낙성대역 5번 출구,관악구,남부순환로 1917,37.477753,126.962364
3305,낙성대역 8번 출구,관악구,남부순환로 1939,37.476776,126.964867
3306,서울신우초등학교,관악구,호암로 498,37.462147,126.931778
3307,봉천고개 육교,관악구,관악로 306,37.491226,126.956078
3310,영락고등학교,관악구,청룡16길 25,37.476627,126.943642
3311,서울대입구역 4번 출구,관악구,참숯5길 7,37.48122,126.951576
3802,관악구민체육센터,관악구,낙성대로3길37,,
2201,본마을 정류소 앞,서초구,서울특별시 서초구 본마을2길 2,37.453281,127.051483
2202,청계산입구역 1번출구,서초구,서울특별시 서초구 청계산로 지하 179,37.448936,127.054375
2203,청계산입구역 2번출구,서초구,서울특별시 서초구 청계산로 지하 179,37.447659,127.055016
2205,내곡3단지 어린이공원 앞,서초구,서울특별시 서초구 청계산로9길 76,37.453751,127.05938
2206,언남초등학교 앞,서초구,서울특별시 서초구 헌릉로8길 42,37.454357,127.062103
2207,내곡파출소 뒤 정자,서초구,서울특별시 서초구 헌릉로 226,37.454407,127.064926
2210,반포1동 주민센터 앞,서초구,서울특별시 서초구 사평대로 지하 285,37.505096,127.013107
2211,서초구립반포도서관 앞,서초구,서울특별시 서초구 고무래로 34,37.502636,127.012314
2212,서초현대4차아파트 201동 맞은편,서초구,서울특별시 서초구 고무래로 94,37.500961,127.017929
2213,고속터미널역 5번출구 앞,서초구,서울특별시 서초구 신반포로 지하 188,37.502232,127.002258
2214,신반포역 2번출구 앞,서초구,서울특별시 서초구 신반포로 지하 105,37.504116,126.99749
2215,반포종합운동장 입구,서초구,서울특별시 서초구 신반포로16길 30,37.501713,126.995476
2217,아크로리버뷰 부지 앞,서초구,서초구 잠원동 78,37.513046,127.005959
2219,"고속터미널역 8-1번, 8-2번 출구 사이",서초구,서울특별시 서초구 신반포로 지하 188,37.506199,127.003944
2220,반포본동 주민센터 앞,서초구,서울특별시 서초구 신반포로 10,37.500614,126.98616
2221,하나은행 방배동지점 앞,서초구,서울특별시 서초구 방배로 110,37.485611,126.994682
2222,사당역 12번출구 뒤,서초구,서울특별시 동작구 동작대로 지하 3,37.478069,126.982033
2223,방배래미안 정문 앞,서초구,서울특별시 서초구 남부순환로 2183,37.47261,126.983009
2225,백석예술대학교 제3캠퍼스 앞,서초구,서울특별시 서초구 방배로9길 23,37.473759,126.995247
2226,신동아럭스빌아파트 앞,서초구,서울특별시 서초구 방배로1길 9,37.475182,127.001389
2227,방배열린문화센터 앞,서초구,서울특별시 서초구 서초대로 지하 103,37.489052,126.992523
2228,뒷벌공원 옆,서초구,서울특별시 서초구 방배중앙로 131,37.489586,126.986725
2229,로고스교회 맞은 편,서초구,서울특별시 서초구 방배천로 126,37.487011,126.984962
2230,이수역 4번 출구,서초구,서울특별시 동작구 사당로 지하 310,37.485828,126.982628
2231,삼성타운(삼성생명) A동 맞은편,서초구,서울특별시 서초구 서초대로 405,37.496914,127.024963
2233,서초신동아1차아파트 옆,서초구,서울특별시 서초구 효령로36길 22,37.491112,127.022957
2235,KT 서초지사 앞,서초구,서울특별시 서초구 사평대로 73,37.482159,127.002701
2237,서울남부터미널 대합실 입구,서초구,서울특별시 서초구 서초중앙로 지하 31,37.484558,127.01487
2239,교대역 6번출구,서초구,서울특별시 서초구 서초대로 지하 294,37.494217,127.013786
2241,양재전화국 사거리,서초구,서울특별시 강남구 논현로 201,37.485378,127.041702
2242,양재역 11번 출구 앞,서초구,서울특별시 서초구 남부순환로 지하 2585,37.48399,127.03418
2243,서울가정법원,서초구,서울특별시 서초구 강남대로 193,37.481491,127.036728
2244,교육개발원입구 교차로,서초구,서울특별시 서초구 바우뫼로1길 35,37.477852,127.03891
2245,양재초등학교 맞은편,서초구,서울특별시 서초구 바우뫼로18길 14,37.473614,127.03051
2246,서울시 품질시험소 앞,서초구,서울특별시 서초구 태봉로 131,37.4692,127.029007
2247,섬들근린공원,서초구,서울특별시 서초구 태봉로2길 24,37.462639,127.026619
2248,서초리슈빌S 글로벌 앞,서초구,서울특별시 서초구 양재대로2길 8,37.459953,127.024742
2249,우솔초등학교 맞은편,서초구,서울특별시 서초구 양재대로2길 74,37.456234,127.019348
2250,서초유치원 맞은편,서초구,서울특별시 서초구 양재대로2길 74,37.455799,127.016289
2251,더케이호텔 입구(양재2),서초구,서울특별시 서초구 바우뫼로12길 70,37.467506,127.034477
2252,하이브랜드 앞,서초구,서울특별시 서초구 매헌로 16,37.463322,127.036041
2255,시민의숲역 1번출구 옆,서초구,서울특별시 서초구 매헌로 지하 116,37.47044,127.038857
2256,양재동 꽃시장 입구,서초구,서울특별시 서초구 강남대로 27,37.46769,127.040359
2257,하나로클럽 양재점 맞은편,서초구,서울특별시 서초구 청계산로 10,37.462688,127.046112
2258,구룡사 삼거리,서초구,서울특별시 강남구 논현로2길 22,37.471539,127.050591
2259,잠원역 3번-4번 출구사이,서초구,서울특별시 서초구 잠원로4길 지하 46,37.512989,127.011177
2262,한신16차아파트 119동 앞,서초구,서울특별시 서초구 나루터로4길 60,37.516598,127.00959
2263,바우뫼문화복지회관,서초구,서울특별시 서초구 바우뫼로 43,37.471928,127.02684
2264,이수역 1번출구,서초구,서울특별시 서초구 동작대로 134,37.488556,126.982574
2265,이수고가차도 남단,서초구,서울특별시 서초구 동작대로 204 청남빌딩,37.494743,126.983063
2266,서초역 3번출구,서초구,서울특별시 서초동 1748-14,37.49054,127.008163
2268,서초4동주민센터,서초구,서울특별시 서초동 1389,37.502319,127.02227
2269,주홍교 하부,서초구,서울특별시 잠원동 91-29,37.510349,127.016052
2270,서초포레스타 7단지,서초구,서울특별시 신원동 266,37.448967,127.057739
2271,내방역 8번출구 앞,서초구,서울특별시 서초구 방배로 162,37.487865,126.994293
2272,교대입구 교차로,서초구,서울특별시 서초동 1748-33,37.487309,127.010582
2273,일동제약 사거리,서초구,서울특별시 양재동 67-12,37.477829,127.038269
2274,양재시민의숲역 3번출구,서초구,서울특별시 양재동 316-11,37.46965,127.039612
2275,염곡치안센터 건너편,서초구,서울특별시 염곡동 260-1,37.461578,127.048798
2276,영동1교 (양재천근린공원),서초구,서울특별시 양재동 261-23,37.474388,127.038902
2277,길마중4교 하부,서초구,서울특별시 잠원동 84-3,37.51487,127.015282
2279,교대역 5번출구뒤,서초구,서울특별시 서초구 서초중앙로 130,37.493618,127.014183
2280,서울서초고용센터앞,서초구,서울특별시 서초구 반포대로 43,37.484161,127.010971
2281,연세사랑병원신관앞,서초구,서울특별시 서초구 효령로 10,37.475979,126.986282
2282,방배래미안아트힐 101동앞,서초구,서울특별시 서초구 남부순환로 2311-12,37.477203,127.005836
2283,그룹한빌딩옆,서초구,서울특별시 서초구 서초대로 62,37.486526,126.989166
2284,CJ오쇼핑앞,서초구,서울특별시 서초구 과천대로 870-13,37.468102,126.986801
2285,LH서초3단지 301동 맞은편,서초구,서울특별시 서초구 양재대로2길 33,37.457424,127.022652
2286,탑성마을입구,서초구,서울특별시 서초구 탑성말길 2,37.458549,127.055885
2287,능안마을입구,서초구,서울특별시 서초구 능안말길 1-2,37.45562,127.067101
2288,안골마을입구,서초구,서울특별시 서초구 안골2길 3,37.455608,127.064453
2289,남태령역 2번출구,서초구,서울특별시 서초구 과천대로 810,37.464298,126.988525
2292,무지개아파트 앞,서초구,서울특별시 서초구 효령로 391,37.488243,127.027016
2293,SPC 앞,서초구,서울특별시 서초구 남부순환로 2620,37.484798,127.036995
2294,두상빌딩 앞,서초구,서울특별시 서초구 언남길 87,37.475906,127.046242
2297,남부터미널역 1번출구,서초구,서울특별시 서초구 서초중앙로 38,37.485672,127.015923
2298,래미안서초스위트앞,서초구,서울특별시 서초구 서운로 221,37.502411,127.021606
2299,한전아트센터 앞,서초구,서울특별시 서초구 효령로72길 60,37.486469,127.028061
2501,서초 포레스타5단지,서초구,신원동 347-6,37.450661,127.05706
2502,서초역1번출구 앞,서초구,서초동 1553-21,37.491951,127.008553
2503,반포1동 서초빌딩 앞,서초구,반포동 749-35,37.503811,127.021362
2504,신사역 4번출구 뒤,서초구,잠원동 88,37.515881,127.019302
2505,우성아파트사거리 (기업은행앞),서초구,서초동 1374,37.493259,127.029533
2506,LG유플러스 (방배사옥),서초구,방배동 980-53,37.479092,126.990677
2508,양재이스타빌 앞,서초구,양재동 4(양재동 3-14 앞),37.482979,127.042259
2509,KT반포지사,서초구,서초구 반포동 128-13,37.498371,126.992462
2510,JW타워,서초구,서초구 서초동 1748-45,37.48304,127.021461
2511,이수역 6번출구 앞,서초구,서초구 방배동 438-35,37.483662,126.982323
2514,사평역 2번출구,서초구,서울시 서초구 반포동 30-5 ,37.503643,127.016022
2515,서초초등학교 후문,서초구,서울시 서초구 서운로 178,37.498928,127.024727
2516,본마을 노인복지센터 앞,서초구,서울특별시 서초구 본마을2길 2,37.454418,127.052742
2517,서초3교(효령로69길 방면),서초구,서울특별시 서초구 효령로69길,37.48716,127.024376
2518,서초3교(효령로70길 방면),서초구,서울특별시 서초구 효령로70길,37.487484,127.025147
2519,서초2교(사임당로 방면),서초구,서울특별시 서초구 사임당로137,37.491009,127.023521
2520,서초1교 (진흥아파트 방면),서초구,서초구 서초대로65길,37.496193,127.021011
2521,서초 크로바타워 앞,서초구,서초구 서초대로 347,37.495564,127.01918
2523,뉴코아 킴스클럽 앞,서초구,서초구 잠원로 51,37.510193,127.007256
2524,반포쇼핑타운 8동 앞,서초구,서초구 신반포로 219 반포쇼핑타운,37.507351,127.008019
2525,반포쇼핑타운 2동 앞,서초구,서초구 신반포로 165 ,37.505608,127.002159
2526,반포경남쇼핑 앞,서초구,서초구 신반포로 143 ,37.504787,126.999924
2527,반포중학교 앞(세화여고 맞은편),서초구,서초구 신반포로67,37.502674,126.993698
2528,함지박 사거리,서초구,서초구 방배로 230-1 ,37.493771,126.990067
2529,우리은행 방배동지점 앞,서초구,서초구 방배로 183,37.489918,126.992081
2530,삼호3차아파트 앞,서초구,서초구 방배동 757-3,37.497795,126.987068
2531,멤피스아파트 앞,서초구,서초구 방배로 245,37.494205,126.989357
2532,국립국악원 앞,서초구,서초구 남부순환로 2364,37.478203,127.008781
2533,한가람미술관 앞,서초구,서초구 남부순환로 2406,37.481098,127.014061
2534,신흥교(애견훈련소),서초구,서초구 내곡동 1-3031 ,37.455631,127.080978
2535,신반포역 3번출구 뒤,서초구,서초구 신반포로 ,37.503624,126.997322
2536,서초종합체육관 입구,서초구,서초구 원지동 28,37.459248,127.041634
2537,양재역 8번출구 앞,서초구,서초구 양재동,37.482571,127.036438
2538,사평리 공원,서초구,서초구 잠원동 51,37.520267,127.015251
2539,대한무역투자진흥공사 KOTRA 앞,서초구,서초구 헌릉로 13,37.464897,127.044182
2540,반포천 앞,서초구,서초구 사평대로 108 ,37.498455,126.996643
2541,옛골 입구,서초구,청계산로 434,37.430977,127.070335
2542,신논현역2번출구(신논현타워 앞),서초구,서초구 강남대로 479,37.505089,127.023911
2543,경문고교 사거리,서초구,서초구 동작대로 164,37.491264,126.982956
2545,국립중앙도서관(국제회의장옆),서초구,반포동 산60-1,37.497688,127.002388
2547,포드서초서비스센터앞,서초구,잠원동 55-1,,
2548,반포1동 자율방범초소 옆,서초구,반포동 28-4,,
2549,LH 서초 4단지 403동,서초구,우면동 788,,
2550,양재동 꽃시장 건너편,서초구,양재동 351,,
2301,현대고등학교 건너편,강남구,서울특별시 강남구 압구정로 134,37.524071,127.02179
2302,교보타워 버스정류장(신논현역 3번출구 후면),강남구,서울특별시 강남구 봉은사로 지하 102,37.505581,127.024277
2303,논현역 7번출구,강남구,서울특별시 강남구 학동로 지하 102,37.511517,127.021477
2304,신영 ROYAL PALACE 앞,강남구,서울특별시 강남구 언주로 626,37.512527,127.035835
2305,MCM 본사 직영점 앞,강남구,서울특별시 강남구 언주로 734,37.520641,127.034508
2306,압구정역 2번 출구 옆,강남구,서울특별시 강남구 압구정로 지하 172,37.527122,127.028717
2307,압구정 한양 3차 아파트,강남구,서울특별시 강남구 압구정로 321,37.528614,127.038559
2308,압구정파출소 앞,강남구,서울특별시 강남구 압구정로 311,37.529301,127.035599
2309,청담역(우리들병원 앞),강남구,서울특별시 강남구 학동로 443,37.518902,127.049385
2310,청담동 맥도날드 옆(위치),강남구,서울특별시 강남구 학동로 지하 508,37.523613,127.040176
2311,학동로 래미안 아파트 앞,강남구,서울특별시 강남구 학동로 지하 508,37.517773,127.043022
2312,청담역 13번 출구 앞,강남구,서울특별시 강남구 영동대로 703,37.52058,127.056328
2313,금원빌딩 앞,강남구,서울특별시 강남구 도산대로 539,37.525116,127.052467
2314,청담나들목입구,강남구,서울특별시 강남구 영동대로128길 59,37.521275,127.061035
2315,봉은사역 5번출구 옆,강남구,서울특별시 강남구 봉은사로 지하 601,37.514248,127.061119
2316,삼성역 8번출구,강남구,서울특별시 강남구 영동대로 502,37.509575,127.063408
2317,삼성도로공원,강남구,서울특별시 강남구 영동대로112길 66,37.515888,127.0662
2318,삼성중앙역4번출구(문화센터더 리빌),강남구,서울특별시 강남구 봉은사로 531,37.513577,127.055031
2319,포스코사거리 서측(수협 삼성동 지점),강남구,서울특별시 강남구 테헤란로 435,37.506607,127.05468
2320,도곡역 대치지구대 방향,강남구,서울특별시 강남구 남부순환로 지하 2814,37.491928,127.056969
2321,학여울역 사거리,강남구,서울특별시 강남구 남부순환로 지하 3104,37.496117,127.069443
2322,삼성역 3번 출구,강남구,서울특별시 강남구 테헤란로 534,37.508091,127.063103
2323,주식회사 오뚜기 정문 앞,강남구,서울특별시 강남구 영동대로 308,37.502213,127.067207
2324,천주교 대치 2동 교회 옆,강남구,서울특별시 강남구 도곡로 540,37.500439,127.066223
2325,대치동 버거킹대치점,강남구,서울특별시 강남구 도곡로 447,37.49865,127.059319
2326,대치동 삼성로,강남구,서울특별시 강남구 삼성로 350,37.502396,127.0588
2327,뱅뱅사거리 랜드마크타워 앞,강남구,서울특별시 강남구 강남대로 308,37.490551,127.031464
2328,르네상스 호텔 사거리 역삼지하보도 7번출구 앞,강남구,서울특별시 강남구 언주로 506,37.503586,127.042641
2329,르네상스호텔사거리 역삼지하보도 2번출구,강남구,서울특별시 강남구 테헤란로 지하 156,37.502357,127.04319
2330,스타벅스 앞,강남구,서울특별시 강남구 도곡로 183,37.492199,127.039459
2331,동영문화센터앞,강남구,서울특별시 강남구 언주로 337,37.498051,127.044601
2332,선릉역3번출구,강남구,서울특별시 강남구 선릉로 435,37.504208,127.048965
2333,양재역 3번출구 주변,강남구,서울특별시 강남구 강남대로 240,37.485157,127.034073
2334,삼호아파트 2동 ( 간선도로),강남구,서울특별시 강남구 선릉로 지하 228,37.493759,127.045898
2335,3호선 매봉역 3번출구앞,강남구,서울특별시 강남구 남부순환로 2748,37.486767,127.046761
2336,강남세브란스교차로 래미안그레이튼 104동 앞,강남구,서울특별시 강남구 선릉로 지하 228,37.494236,127.047462
2337,대모산입구역 2번출구 앞,강남구,서울특별시 강남구 영동대로 101,37.492077,127.071976
2339,현대아파트 정문 앞,강남구,서울특별시 강남구 언주로 107,37.483261,127.052299
2340,삼호물산버스정류장(23370) 옆,강남구,서울특별시 강남구 논현로 82,37.477509,127.045174
2341,일원역 4~5번 출구 사이,강남구,서울특별시 강남구 일원로 127,37.483311,127.084938
2342,대청역 1번출구 뒤,강남구,서울특별시 강남구 개포로 623,37.494007,127.079514
2343,세곡사거리 대왕파출소 앞,강남구,서울특별시 강남구 헌릉로 623,37.465317,127.107727
2344,리엔파크 2단지 앞,강남구,서울특별시 강남구 헌릉로590길 10,37.465061,127.101196
2347,두산건설 본사,강남구,서울특별시 강남구 언주로 726,37.518639,127.0354
2348,포스코사거리(기업은행),강남구,서울특별시 강남구 테헤란로 501,37.507233,127.056854
2349,역삼빌딩 앞(하나은행 옆),강남구,서울특별시 강남구 테헤란로 지하 156,37.501545,127.038567
2350,래미안그레이튼102동앞,강남구,서울특별시 강남구 선릉로69길 19,37.494823,127.047905
2351,청소년수련관(수영장)앞,강남구,서울특별시 강남구 광평로 144,37.483879,127.089027
2352,서울본부세관(건설회관 앞),강남구,서울특별시 강남구 언주로 721,37.51759,127.035027
2353,강남구청역 2번출구 뒤,강남구,서울특별시 강남구 학동로 342,37.516811,127.040474
2354,청담역 2번출구,강남구,서울특별시 강남구 영동대로 647,37.519787,127.056763
2355,삼성역 5~6번 출구 사이,강남구,서울특별시 강남구 봉은사로 524,37.509121,127.062309
2356,강남구청,강남구,서울특별시 강남구 학동로 지하 346,37.51807,127.047119
2357,르네상스호텔사거리 역삼지하보도 3번출구 앞 (더 오번,강남구,서울특별시 강남구 언주로89길 7,37.501949,127.04277
2358,구룡초사거리 (현대아파트10동 앞 ),강남구,서울특별시 강남구 개포로 303,37.481384,127.053917
2359,"국립국악중,고교 정문 맞은편",강남구,서울특별시 강남구 논현로10길 29,37.475605,127.050377
2360,도곡1동 주민센터 교차로,강남구,서울특별시 강남구 도곡로 205,37.492809,127.041389
2361,압구정역 교차로,강남구,서울특별시 강남구 신사동 580-7,37.526844,127.028259
2362,신사동 가로수길 입구,강남구,서울특별시 강남구 신사동 501-5,37.517635,127.022453
2363,강남 을지병원 교차로,강남구,서울특별시 강남구 도산대로 172 ,37.51918,127.027466
2364,도산대로 렉서스 앞,강남구,서울특별시 강남구 도산대로 229 ,37.52124,127.031898
2365,K+ 타워 앞,강남구,서울특별시 강남구 도산대로 333 ,37.5233,127.038475
2368,도곡동 경남아파트 건너편,강남구,서울특별시 강남구 도곡동 874-1,37.489342,127.041298
2369,KT선릉타워,강남구,서울특별시 강남구 대치동 1011,37.505428,127.052872
2370,한티역 3번출구,강남구,서울특별시 강남구 대치동 1026,37.496552,127.054298
2371,한국우편사업진흥원,강남구,서울특별시 강남구 언주로 651,37.514748,127.035133
2372,대치역 사거리,강남구,서울특별시 강남구 삼성로 156 ,37.494499,127.063797
2373,개포동역 사거리,강남구,서울특별시 강남구 개포동 181-3,37.489277,127.065575
2375,수서역 1번출구 앞,강남구,서울특별시 강남구 수서동 728,37.48735,127.100998
2376,수서역 6번출구 앞,강남구,서울특별시 강남구 수서동 740,37.486778,127.100517
2377,수서역 5번출구 뒤,강남구,서울특별시 강남구 수서동 724-4,37.486835,127.102753
2380,삼성동베이직하우스앞,강남구,서울특별시 강남구 봉은사로 456,37.511696,127.049347
2381,언주역 6번출구앞,강남구,서울특별시 강남구 논현로 566,37.506367,127.034523
2382,역삼동 sk뷰 501동앞,강남구,서울특별시 강남구 역삼로 315-1,37.501343,127.050468
2383,보금자리정원,강남구,서울특별시 강남구 헌릉로569길 39-6,37.466328,127.094887
2384,자곡사거리,강남구,서울특별시 강남구 밤고개로 206,37.476028,127.105942
2385,학동역,강남구,서울특별시 강남구 학동로 지하 180,37.51395,127.030151
2386,논현동 279-165,강남구,논현동 279-166,37.509586,127.040909
2387,래미안강남힐즈 사거리,강남구,서울특별시 강남구 자곡로 101,37.472454,127.096077
2388,강남구 도시관리공단,강남구,강남구 삼성동 111-61,37.516785,127.051613
2389,경기여자고등학교 후문 (삼성로3길 입구),강남구,강남구 개포동 198,37.48616,127.067238
2390,구룡마을 입구 (래미안블레스티지 아파트),강남구,강남구 개포동 146-1,37.480881,127.063042
2391,구룡터널 입구(개포1단지아파트),강남구,강남구 개포동 146-1,37.475986,127.059624
2392,구룡산 입구 (구룡산 서울둘레길 입구),강남구,강남구 개포동 1277,37.474579,127.05545
2393,구룡사 앞 교차로 (보도육교),강남구,강남구 개포동 1277,37.472,127.051338
2394,개포래미안포레스트아파트 107동 앞,강남구,강남구 개포로 264,37.479092,127.055397
2395,개포1단지아파트 입구 (보도육교),강남구,강남구 개포동 659,37.47929,127.055733
2396,영동3교 북단(우성캐릭터 앞 보도),강남구,강남구 도곡동 466,37.485741,127.051048
2398,더라움,강남구,강남구 역삼동 801-7,37.50811,127.039452
2401,밀알학교 입구 (삼성서울병원 입구),강남구,강남구 일원동 128-10,37.486561,127.082672
2403,공무원연금매점 교차로 (개포주공9단지 입구),강남구,강남구 일원동 703-2,37.48872,127.074539
2404,대모산입구역 4번 출구 앞,강남구,강남구 일원동 700-1,37.49181,127.073158
2405,청담공원앞 교차로,강남구,강남구 삼성동 111-44,37.518711,127.05085
2406,논현동 광명빌딩 앞,강남구,강남구 논현동 279,37.51757,127.023643
2407,역삼.서초.삼성 세무서 앞 (역삼빌딩 앞),강남구,강남구 역삼동 804,37.49847,127.030113
2408,강남한양수자인아파트,강남구,강남구 자곡로 260,37.477341,127.113274
2409,역삼동 디오슈페리움 (우성아파트 사거리),강남구,강남구 역삼동 858(강남대로 342 앞 도로),37.492062,127.030746
2410,포스코피앤에스타워 (역삼역 3번출구 부근),강남구,강남구 역삼동 804(강남구 테헤란로 134 앞 보도),37.499599,127.033752
2411,세곡동 성당,강남구,강남구 율현동 165-2(강남구 밤고개로21길 50),37.472969,127.112228
2412,일원1동 주민센터,강남구,강남구 일원동 712-5 ,37.491791,127.088211
2413,도곡역 1번 출구,강남구,남부순환로 2814,37.490959,127.054985
2414,도곡역 아카데미스위트 앞,강남구,언주로30길 21,37.488972,127.051827
2415,한티역 롯데백화점 앞,강남구,선릉로 228,37.496674,127.053429
2416,한티역 6번 출구,강남구,선릉로 227,37.495899,127.052193
2417,선정릉 디캠프(D.CAMP)앞,강남구,선릉로 551,37.507999,127.04525
2418,봉은사역 7번 출구,강남구,봉은사로 601,37.513935,127.059822
2419,"봉은사역 1,2번 출구",강남구,봉은사로 601,37.514309,127.0597
2420,학여울역 사거리(LG베스트샵 앞),강남구,영동대로 202,37.496895,127.070137
2421,신논현역 4번출구,강남구,봉은사로 110,37.504673,127.025795
2422,수서동 성당 맞은편,강남구,광평로34길 202,37.484169,127.094849
2423,영희초교 사거리(래미안개포루체하임),강남구,개포로110길 50,37.490837,127.08065
2425,세곡동 사거리(대왕초등학교 정류장),강남구,헌릉로618길 8,37.464619,127.10685
2426,강남한신휴플러스 6단지,강남구,강남구 율현동 333-1,37.468296,127.104698
2427,개포고등학교 정문앞,강남구,강남구 개포로402,37.484852,127.058373
2428,롯데리아 개포점앞,강남구,강남구 선릉로26,37.482368,127.061188
2429,압구정로데오역 6번출구,강남구,선릉로845,37.527454,127.040428
2430,강남파이낸스센터앞(역삼역2번출구),강남구,테헤란로152,37.500244,127.036057
2431,대치역 7번출구,강남구,남부순환로155,37.494118,127.062904
1201,가락시장역 3번 출구,송파구,서울특별시 송파구 송파대로 지하 257,37.493179,127.118546
1203,밀리아나2빌딩 앞,송파구,서울특별시 송파구 송파대로28길 24,37.493729,127.120621
1204,거여역 3번출구,송파구,서울특별시 송파구 오금로 지하 499,37.493343,127.14473
1205,종합운동장역 4번출구,송파구,서울특별시 송파구 올림픽로 8,37.510429,127.071373
1206,9호선종합운동장역 9번출구,송파구,서울특별시 송파구 올림픽로 지하 23,37.51128,127.078239
1207,마천CU우방점 앞,송파구,서울특별시 송파구 성내천로 233,37.499756,127.152504
1208,풍납현대아파트쉼터,송파구,서울특별시 송파구 풍성로14길 19,37.529675,127.119789
1209,잠실나루역 (2번 출구 쪽),송파구,서울특별시 송파구 오금로 20,37.520451,127.104202
1210,롯데월드타워(잠실역2번출구 쪽),송파구,서울특별시 송파구 올림픽로 293-19,37.513126,127.10096
1211,방이삼거리,송파구,서울특별시 송파구 석촌호수로 298,37.512104,127.10778
1212,송파역 2번 출구앞,송파구,서울특별시 송파구 송파대로 지하 354,37.499413,127.112869
1213,백토공원 앞,송파구,서울특별시 송파구 양재대로72길 47-8,37.50766,127.132736
1214,오금역 7번 출구 인근,송파구,서울특별시 송파구 오금로 지하 321,37.502594,127.127647
1215,올림픽공원역 1번출구 앞,송파구,서울특별시 송파구 양재대로 지하 1233,37.516571,127.131538
1217,송파파인타운 7단지,송파구,서울특별시 송파구 충민로4길 19,37.479305,127.129799
1218,방이역 4번출구,송파구,서울특별시 송파구 양재대로 지하 1127,37.508968,127.125839
1220,잠실본동주민센터뒤 잠실근린공원,송파구,서울특별시 송파구 백제고분로15길 7,37.505692,127.084038
1221,삼전사거리 포스코더샵,송파구,서울특별시 송파구 백제고분로 188,37.5042,127.087532
1222,잠실새내역 5번 출구 뒤,송파구,서울특별시 송파구 백제고분로 95,37.511982,127.085052
1224,아시아지하보도 2번 출구,송파구,서울특별시 송파구 올림픽로 74,37.512169,127.078934
1226,잠실4동 주민센터 옆,송파구,서울특별시 송파구 올림픽로35길 16,37.520077,127.112366
1227,거여역 8번출구 뒤,송파구,서울특별시 송파구 오금로 지하 499,37.493126,127.143822
1228,마천사거리,송파구,서울특별시 송파구 거마로 51,37.4977,127.146202
1229,송파체육문화회관 앞,송파구,서울특별시 송파구 양산로 15,37.490688,127.143127
1230,송파중학교 정문,송파구,서울특별시 송파구 동남로 203,37.49567,127.130592
1231,잠실역 6번출구,송파구,서울특별시 송파구 석촌호수로12길 3-5,37.514088,127.09903
1232,롯데마트 주차장 옆,송파구,서울특별시 송파구 석촌호수로12길 3-19,37.512089,127.096191
1233,잠실3거리(갤러리아팰리스),송파구,서울특별시 송파구 석촌호수로12길 3-17,37.510509,127.093369
1235,잠실트리지움310동 옆,송파구,서울특별시 송파구 잠실로 62,37.508339,127.088142
1239,문정 법조단지3,송파구,서울특별시 송파구 정의로 30,37.480843,127.118011
1240,문정 법조단지4,송파구,서울특별시 송파구 새말로 62,37.480576,127.118568
1241,문정 법조단지5,송파구,서울특별시 송파구 새말로 62,37.481239,127.119797
1242,문정 법조단지6,송파구,서울특별시 송파구 법원로 101,37.48209,127.119743
1243,문정 법조단지7,송파구,서울특별시 송파구 법원로 101,37.484531,127.120163
1244,문정 법조단지8,송파구,서울특별시 송파구 법원로 101,37.481537,127.122124
1245,문정 법조단지9,송파구,서울특별시 송파구 법원로 101,37.479465,127.125328
1246,문정 법조단지10,송파구,서울특별시 송파구 송파대로 지하 82,37.477509,127.126328
1247,문정 법조단지11,송파구,서울특별시 송파구 법원로 101,37.478821,127.123512
1248,방이초등학교,송파구,서울특별시 송파구 위례성대로 114,37.513962,127.121674
1249,아주중학교건너편,송파구,서울특별시 송파구 도곡로 446,37.505463,127.077347
1250,문정2동 주민센터,송파구,서울특별시 송파구 중대로 16,37.489872,127.11084
1251,석촌역 2번출구,송파구,서울특별시 송파구 송파동 68 ,37.505932,127.10775
1253,오금역 3번 출구 뒤,송파구,서울특별시  송파구 가락동 10-15 ,37.501652,127.128181
1256,문정현대아파트 교차로,송파구,서울특별시 송파구 문정동 3-2 ,37.491131,127.125809
1257,가락시장역 롯데마트앞,송파구,서울특별시 송파구 가락동 214-15 ,37.4921,127.117752
1258,가락미륭아파트 앞,송파구,서울특별시 서울 송파구 가락동 195-4,37.493198,127.128998
1259,방이역 1번출구,송파구,서울특별시 송파구 오금동 17-20,37.508984,127.126595
1260,방이동 한양3차아파트 옆,송파구,서울특별시 송파구 방이동 225-1,37.506302,127.121399
1262,송파여성문화회관 앞,송파구,서울특별시 송파구 송파동 2-3 ,37.505802,127.109718
1263,장지공영차고지,송파구,서울특별시 송파구 장지동 861-6,37.480541,127.137016
1264,천호역 10번 출구 앞,송파구,서울특별시 송파구 풍납동 490-16,37.538582,127.122803
1265,문정동 근린공원,송파구,서울특별시 송파구 문정동 38-3,37.486149,127.124802
1266,문정동 글샘 공원,송파구,서울특별시 송파구 문정동 627,37.478809,127.120003
1267,올림픽공원 남2문 앞,송파구,서울특별시 송파구 올림픽로 424,,
1268,몽촌토성역 1번출구 옆,송파구,서울특별시 송파구 방이동 88-21 ,,
1269,리센츠아파트,송파구,서울특별시 송파구 올림픽로 135,37.511944,127.091217
1271,송파도서관,송파구,서울특별시 송파구 동남로 263,37.499985,127.135391
1274,영파여고 앞,송파구,서울특별시 송파구 올림픽로 565,37.532848,127.121048
1275,거여초등학교 옆,송파구,서울특별시 송파구 마천로25길 18,37.504589,127.139366
1277,오금동 송파 참병원,송파구,서울특별시 송파구 마천로 164,37.503757,127.137093
1278,송파구청 교차로,송파구,서울특별시 송파구 올림픽로 336,37.515831,127.106796
1279,마천금호어울림 1차아파트 건너편,송파구,서울특별시 송파구 성내천로39길 4,37.497517,127.154678
1280,송파파크데일 2단지입구 앞 주차장,송파구,서울특별시 송파구 성내천로47길 23,37.495659,127.157173
1282,송파소방서 맞은편(성내4교),송파구,서울특별시 송파구 오금로51길 56,37.499874,127.141479
1283,오금공원 사거리,송파구,서울특별시 송파구 오금로 363,37.505455,127.131752
1285,위례별 유치원 뒤,송파구,서울특별시 송파구 위례광장로 136,37.47747,127.144592
1286,위례중앙푸르지오 1단지 앞,송파구,서울특별시 송파구 위례광장로 120,37.474377,127.140671
1287,위례아이파크 101동 맞은편,송파구,서울특별시 송파구 위례순환로 419,37.477531,127.141518
1288,문정중교 사거리,송파구,서울특별시 송파구 송이로 238,37.487999,127.131088
1289,풍납동 자전거보관소,송파구,서울특별시 송파구 토성로 2,37.531471,127.111092
1290,위례송파꿈에그린아파트24단지 앞 성벽 다리 밑,송파구,송파구 위례광장로 121,37.474659,127.137718
1291,서울체육고등학교 앞,송파구,송파구 강동대로 232,37.521938,127.131866
1293,석촌호교차로 (스타벅스 앞),송파구,송파구 삼전동 152,37.506561,127.096558
1295,잠실역 8번출구,송파구,송파구 신천동 8,37.513962,127.100304
1296,석촌호수교차로 (송파나루근린공원 앞),송파구,송파구 잠실동 48,37.508678,127.103432
1297,석촌호수교차로(동호 팔각정 앞),송파구,송파구 잠실동 48,37.509201,127.104118
1299,송파소방서 (방이119안전센터),송파구,송파구 방이동 89-29 ,37.519878,127.136711
1300,오륜사거리,송파구,송파구 방이동 452-17 ,37.506939,127.139221
2601,석촌호수 서호사거리,송파구,송파구 삼학사로 136,37.506748,127.098831
2603,송파 글마루 도서관,송파구,송파구 충민로 1206,37.480801,127.130341
2604,삼표레미콘 앞,송파구,송파구 풍납동 307-4,37.531311,127.111282
2605,복정역 1번 출구 앞,송파구,송파구 장지동 602-18,37.471298,127.12709
2606,위례동주민센터 맞은편 근린공원,송파구,송파구 거여동 497,37.481739,127.143227
2607,복정역 2번출구 후문 (장지치안센터),송파구,송파구 장지동 600-31,37.47065,127.127113
2608,송파구청,송파구,송파구 올림픽로 326,37.514359,127.106194
2609,보성중고등학교 후문 앞,송파구,송파구 양재대로 1278,37.520489,127.135201
2610,여흥레이크빌 앞 (석촌호수 까페거리),송파구,송파구 석촌호수로 278,37.510441,127.106377
2611,송파지역자활센터 뒤,송파구,송파구 풍성로 5길 16,37.536331,127.11618
2612,문정·가락 대여소 앞,송파구,송파구 중대로 2길 6,37.489071,127.109299
2613,잠실나들목,송파구,서울 송파구 잠실동 1,37.516781,127.090492
2614,가락고등학교 앞,송파구,서울 송파구 송이로 42,37.501862,127.117233
2615,테라타워2,송파구,송파대로 201,37.48835,127.120781
2616,거여동 사거리,송파구,송파구 문정로 196,37.496078,127.140106
2617,가락삼환아파트 앞,송파구,송파구 가락동 165-2,37.496181,127.138031
2618,삼전역 1번출구,송파구,송파구 잠실동 289,37.504711,127.087563
2619,석촌고분역 4번출구,송파구,송파구 삼전동 90,37.502338,127.096443
2620,송파나루역 4번 출구옆,송파구,송파구 송파동 3-15,37.509979,127.112312
2621,한성백제역 2번 출구,송파구,송파구 방이동 11,37.516659,127.116257
2622,올림픽공원역 3번출구,송파구,송파구 방이동 89-28,37.516258,127.130592
2623,석촌동 주민센터,송파구,송파구 석촌동 312,37.503624,127.103554
2625,가락1동 주민센터,송파구,양재대로 925,37.495876,127.108505
2626,경찰병원,송파구,가락동 59,37.49543,127.123108
2627,문정시영아파트 5동 앞 공원,송파구,송이로 31길 56,37.491123,127.135109
2628,문정역 1번출구,송파구,문정동 55-13,37.486698,127.122444
2629,문정동 힐스데이트 에코 송파,송파구,정의로 7길 13,37.485218,127.115402
2630,서울방이동 고분군,송파구,방이동 17,37.507866,127.116989
2631,배명고등학교,송파구,삼학사 11,37.497414,127.096306
2632,석촌고분역 2번 출구,송파구,백제고분로 275,37.502644,127.097397
2633,송파학사 옆,송파구,위례순환로 364,37.47813,127.147217
2634,위례포레샤인아파트 2318동,송파구,장지동 390-4,37.477211,127.137177
2635,잠실새내역 1번출구,송파구,올림픽로 지하 140,37.511295,127.086739
2637,잠실월드 메르디앙,송파구,올림픽로 74,37.511463,127.078812
2638,쌍용아파트,송파구,풍납동 457,37.526814,127.118149
2639,석촌역 8번출구,송파구,송파구 석촌동 209,37.505505,127.106575
2641,송파역 4번출구,송파구,송파대로 345,37.497726,127.107033
2642,마천동 성내천 쉼터,송파구,성내천로 179,37.501495,127.147781
2643,풍납중학교 측면,송파구,풍납동460,37.525291,127.112473
2644,성내5교 (GS주유소),송파구,동남로298,37.501984,127.138046
2645,잠실나들목2(엘스아파트136동),송파구,송파구 잠실동 18-1,37.515049,127.081612
2646,레이클펠리스101동앞,송파구,잠실로88,37.507759,127.091293
2647,잠실 자전거 수리센터 앞,송파구,송파구 잠실동 41,37.51157,127.101074
2648,헬리오시티 112동 앞,송파구,송파구 가락동 509-11,37.494698,127.104645
2649,오금공원사거리2,송파구,마천로103,37.505444,127.132332
2650,위례22단지 2208동 다리앞,송파구,위례광장로163,37.47855,127.138138
2651,경찰병원역 3번출구 앞,송파구,송파구 가락동 123,37.495773,127.12458
2652,송파 레미니스1단지 102동 앞,송파구,오금동 96,37.508831,127.134262
2653,올림픽공원사거리(선수촌아파트),송파구,양재대로 1218,37.511498,127.12912
2654,올림픽선수촌아파트 136동 앞,송파구,양재대로 1218,37.509975,127.133698
2655,송이공원,송파구,송파동 169,37.50058,127.118843
2656,풍납동 아이파크 107동 앞,송파구,올림픽로43길 34,37.524525,127.11451
2657,송파 파인타운 11단지,송파구,장지동 854-3,37.478825,127.132668
2658,가락몰 업무동,송파구,가락동 600,,
2659,서울친환경유통센터,송파구,가락동 600,,
1001,광진교 남단 사거리(디지털프라자앞),강동구,서울특별시 강동구 구천면로 171,37.541805,127.124718
1002,해공공원(천호동),강동구,서울특별시 강동구 올림픽로 702,37.545219,127.125916
1003,해공도서관앞,강동구,서울특별시 강동구 올림픽로 702,37.543915,127.125458
1004,삼성광나루아파트 버스정류장,강동구,서울특별시 강동구 상암로3길 77,37.553349,127.12886
1006,롯데캐슬 115동앞,강동구,서울특별시 강동구 양재대로 1665,37.55492,127.142799
1007,암사동 선사유적지,강동구,서울특별시 강동구 올림픽로 875,37.559517,127.130844
1008,암사역 3번출구(국민은행앞),강동구,서울특별시 강동구 올림픽로 지하 776,37.549549,127.127151
1009,천호역4번출구(현대백화점),강동구,서울특별시 강동구 천호대로 지하 997,37.538658,127.124214
1010,강동세무서,강동구,서울특별시 강동구 천호대로 1139,37.534481,127.138344
1011,LIGA 아파트 앞,강동구,서울특별시 강동구 천호대로 1120,37.534771,127.135239
1012,서울 상운차량,강동구,서울특별시 강동구 올림픽로 610,37.536026,127.122726
1013,강동구청역 1번 출입구,강동구,서울특별시 강동구 올림픽로 지하 550,37.530773,127.120926
1014,강동구평생학습관앞,강동구,서울특별시 강동구 고덕로 295,37.5508,127.142624
1015,샛마을 근린공원,강동구,서울특별시 강동구 구천면로 431-2,37.550079,127.146912
1016,해뜨는 주유소옆 리엔파크 109동앞,강동구,서울특별시 강동구 상일로 152,37.559399,127.171158
1017,맥도날드(길동),강동구,서울특별시 강동구 천호대로 1207,37.535473,127.145172
1018,둔촌 주공 GS 맞은편,강동구,서울특별시 강동구 양재대로 1330,37.524681,127.135406
1019,다성이즈빌아파트(호원대 대각선 맞은편),강동구,서울특별시 강동구 성내로 91,37.526825,127.130028
1020,강동경찰서,강동구,서울특별시 강동구 성내로 57,37.52829,127.126801
1021,강일동 리슈빌 빌딩앞,강동구,서울특별시 강동구 아리수로 419,37.564301,127.17395
1022,길동 사거리(초소앞),강동구,서울특별시 강동구 양재대로 1441,37.533764,127.138031
1023,한국종합기술사옥 앞,강동구,서울특별시 강동구 상일동 504 ,37.549999,127.17469
1024,강동구청 앞,강동구,서울특별시 성내동 546-3 ,37.529251,127.123108
1025,상일초등학교,강동구,서울특별시  상일동 440-3,37.546841,127.172516
1026,대명초교 입구 교차로,강동구,서울특별시 명일동 59,37.546631,127.155884
1027,프라자 아파트 앞,강동구,서울특별시 길동 176-3,37.535999,127.147697
1028,포레스 주상복합 빌딩,강동구,서울특별시 성내동 119-2,37.5331,127.12278
1029,롯데 시네마,강동구,서울특별시 성내동  44-1,37.536541,127.125397
1030,미호 플랜트 앞,강동구,서울특별시 성내동 478,37.527061,127.12207
1031,암사동 CBIS,강동구,서울특별시 암사동 440-13,37.555851,127.129898
1032,선사고등학교,강동구,서울특별시 암사동 445,37.556728,127.136208
1033,고덕동 아남아파트,강동구,서울특별시 고덕동 673,37.557991,127.144707
1034,고덕동 래미안 힐스테이트,강동구,서울특별시 고덕동 603,37.561909,127.150749
1035,고덕역 4번출구,강동구,서울특별시 명일동 46-5,37.555016,127.155273
1036,고덕동 주양쇼핑,강동구,서울특별시 명일동 48-2,37.551998,127.153297
1037,강일리버파크 6단지,강동구,서울특별시 강일동 448-2,37.562588,127.177612
1038,강일 다솜 어린이 공원,강동구,서울특별시 강일동 333-2,37.568668,127.174797
1039,고덕초등학교,강동구,서울특별시 고덕동 215,37.561279,127.167801
1041,묘곡초등학교,강동구,서울특별시 고덕동 499-2,37.559196,127.153297
1042,강일리버파크 2~5단지,강동구,서울특별시 강일동 63-20,37.568562,127.177002
1044,굽은다리역,강동구,서울특별시  양재대로 1572,37.545399,127.142601
1047,건강보험 강동지사kt,강동구,서울특별시 강동구 천호대로175길 39,37.536381,127.137253
1048,동부기업(둔촌동),강동구,서울특별시 강동구 진황도로 172,37.531013,127.142365
1049,강일리버파크 10단지,강동구,서울특별시 강동구 고덕로97길 20,37.56118,127.180267
1050,둔촌역 3번 출입구,강동구,서울특별시 강동구 양재대로 1355,37.526695,127.135529
1051,양지시장 (용성약국앞) 입구,강동구,서울특별시 강동구 고덕로 109,37.554829,127.137321
1052,리싸이클시티,강동구,강동구 동남로 930,37.556469,127.156822
1053,동명근린공원 진입로 (아리수로),강동구,고덕동 230,37.562538,127.164528
1054,말우물 어린이 공원,강동구,상일로 27길 14-7,37.560009,127.169579
1056,강일리버파크 7~11단지,강동구,강일동 435-2,37.563332,127.179092
1057,능골근린공원,강동구,상일동 482,37.55579,127.173813
1058,고덕숲 아이파크 1,강동구,상일동 133,37.553471,127.165001
1059,래미안 강동팰리스(102동),강동구,강동구 천호동 166-56,37.538181,127.131752
1060,천일초교 사거리,강동구,강동구 천호동 217-18,37.544659,127.132637
1061,천호초교 입구 사거리(일주빌딩),강동구, 강동구 천호동 234-2,37.546928,127.134621
1062,고덕숲 아이파크 2,강동구,강동구 상일동 163,37.551079,127.162621
3539,서원마을,강동구,암사동 117-3,37.56382,127.132843
1063,강동롯데캐슬퍼스트 아파트(관리동),강동구,강동구 고덕로 131,37.556664,127.142738
1064,중앙보훈병원역 1번출구,강동구,둔촌동 산17-4 ,37.527794,127.147644
1065,보훈병원 정문옆(중앙대영약국),강동구,동남로 635,37.531208,127.149269
1066,생태공원앞 교차로(조명탑),강동구,강동구 둔촌동 564,37.537766,127.152016
1067,한영중고앞사거리,강동구, 명일동 59 ,37.549053,127.156403
1068,명일파출소,강동구,동남로 895,37.55365,127.156227
1069,강동경희대학교병원 입구,강동구,동남로 892,37.553055,127.156883
1070,(시립)고덕평생학습관,강동구,고덕로 295,37.555702,127.157921
1071,명일근린공원공동체텃밭,강동구,상일동 145-6,37.555687,127.159912
1072,고덕역 5번출구,강동구,5호선 고덕역 5번출구 뒤,37.554863,127.153725
1073,SSTS 몰 앞,강동구,양재대로 1517,37.541145,127.141052
1074,대명초교입구 사거리,강동구,명일동 59 ,37.546837,127.149162
1075,천동초교 삼거리,강동구,천호동 114-2 (정자 쉼터),37.541363,127.137184
1076,전자랜드 길동점,강동구,양재대로 1504,37.539894,127.141037
1077,강동역 1번출구 앞,강동구,천호동 571-2 ,37.536205,127.132561
1078,둔촌사거리,강동구,성내동 449-22 ,37.521976,127.133621
1079,강일동입구교차로,강동구,강일동 607-7,37.561844,127.170845
1080,엘웨딩,강동구,천호대로 1052,37.536831,127.128418
1081,트레빌빌딩,강동구,천호동451-20,37.536999,127.129532
1082,중앙보훈병원역3번출구,강동구,둔촌동6-14,37.52956,127.14901
1083,광문고교사거리(아이파크),강동구,고덕동302,37.560368,127.156593
1084,윤선생빌딩(JYP사옥),강동구,강남대로207(윤선생빌딩),37.52393,127.129128
1085,래미안 솔베뉴(고덕로),강동구,양재대로1650,37.554569,127.145874
1086,래미안 솔베뉴(구천면로),강동구,양재대로1650,37.550598,127.145454
1088,풍납사거리(강동),강동구,성내동451-3,37.528122,127.119522
1089,고덕 래미안힐스테이트(201동),강동구,고덕동 675,37.5606,127.146698
1090,상일동역 2번출구 앞,강동구,고덕로 333,37.556789,127.166145
