no,name,routename,lat,lng,address,telno
2545,군자,서울 도시철도 5호선,37.55713392,127.079433,서울특별시 광진구 천호대로 지하550,02-6311-5441
2546,아차산,서울 도시철도 5호선,37.55203633,127.0896015,서울특별시 광진구 천호대로 지하657,02-6311-5451
2547,광나루,서울 도시철도 5호선,37.5450481,127.1035121,서울특별시 광진구 아차산로 지하571 (광장동),02-6311-5461
2548,천호,서울 도시철도 5호선,37.53842355,127.1236234,서울특별시 강동구 천호대로 지하997 (천호동),02-6311-5471
2549,강동,서울 도시철도 5호선,37.53587886,127.132079,서울특별시 강동구 천호대로 지하1097 (천호동),02-6311-5481
2550,길동,서울 도시철도 5호선,37.53794494,127.1400433,서울특별시 강동구 양재대로 지하1480 (길동),02-6311-5491
2551,굽은다리,서울 도시철도 5호선,37.54537927,127.1428116,서울특별시 강동구 양재대로 지하1572 (명일동),02-6311-5501
2552,명일,서울 도시철도 5호선,37.55149734,127.1439883,서울특별시 강동구 양재대로 지하1632 (명일동),02-6311-5511
2553,고덕,서울 도시철도 5호선,37.55503473,127.1540785,서울특별시 강동구 고덕로 지하253 (고덕동),02-6311-5521
2554,상일동,서울 도시철도 5호선,37.55658759,127.1652632,서울특별시 강동구 고덕로 지하359 (상일동),02-6311-5531
2555,둔촌동,서울 도시철도 5호선,37.52774726,127.136296,서울특별시 강동구 양재대로 지하1369 (둔촌동),02-6311-5541
2556,올림픽공원,서울 도시철도 5호선,37.51620079,127.1308803,서울특별시 송파구 양재대로 지하1233,02-6311-5551
2557,방이,서울 도시철도 5호선,37.50865738,127.1260716,서울특별시 송파구 양재대로 지하1127 (방이동),02-6311-5561
2558,오금,서울 도시철도 5호선,37.50196105,127.1277379,서울특별시 송파구 오금로 지하 321 (오금동),02-6110-3521
2559,개롱,서울 도시철도 5호선,37.49782678,127.1348328,서울특별시 송파구 오금로 지하402 (가락동),02-6311-5581
2560,거여,서울 도시철도 5호선,37.49316744,127.1436672,서울특별시 송파구 오금로 지하499(거여동),02-6311-5591
2561,마천,서울 도시철도 5호선,37.49495884,127.152476,서울특별시 송파구 마천로57길 지하7(마천동),02-6311-5601
2611,응암,서울 도시철도 6호선,37.59853005,126.9155088,서울특별시 은평구 증산로 지하477 (역촌동),02-6311-6101
2612,역촌,서울 도시철도 6호선,37.60625985,126.9227732,서울특별시 은평구 서오릉로 지하63 (녹번동),02-6311-6111
2613,불광,서울 도시철도 6호선,37.61033354,126.9298281,서울특별시 은평구 통일로 지하 723-1 (대조동),02-6311-6121
2614,독바위,서울 도시철도 6호선,37.61844071,126.9329961,서울특별시 은평구 불광로 지하129-1 (불광동),02-6311-6131
2615,연신내,서울 도시철도 6호선,37.61881292,126.9206158,서울특별시 은평구 통일로 지하 849 (갈현동),02-6311-6141
2616,구산,서울 도시철도 6호선,37.61125852,126.9171923,서울특별시 은평구 연서로 지하137-1(구산동),02-6311-6151
2617,새절,서울 도시철도 6호선,37.59099413,126.9136601,서울특별시 은평구 증산로 지하400 (신사동,02-6311-6161
2618,증산,서울 도시철도 6호선,37.58375597,126.9094115,서울특별시 은평구 증산로 지하306(증산동),02-6311-6171
2619,디지털미디어시티,서울 도시철도 6호선,37.57663026,126.8996845,서울특별시 은평구 수색로 지하175 (증산동),02-6311-6181
2620,월드컵경기장,서울 도시철도 6호선,37.56938269,126.8990612,서울특별시 마포구 월드컵로 지하240 (성산동),02-6311-6191
2621,마포구청,서울 도시철도 6호선,37.56350657,126.9031935,서울특별시 마포구 월드컵로 지하190 (성산동),02-6311-6201
2622,망원,서울 도시철도 6호선,37.55594386,126.9098166,서울특별시 마포구 월드컵로 지하77 (망원동),02-6311-6211
2623,합정,서울 도시철도 6호선,37.54979888,126.9141239,서울특별시 마포구 양화로 지하 45,02-6311-6221
2624,상수,서울 도시철도 6호선,37.54776978,126.9225838,서울특별시 마포구 독막로 지하85 (상수동),02-6311-6231
2625,광흥창,서울 도시철도 6호선,37.54746977,126.9318177,서울특별시 마포구 독막로 지하 165,02-6311-6241
2626,대흥,서울 도시철도 6호선,37.54766489,126.9422206,서울특별시 마포구 대흥로 지하 85,02-6311-6251
2627,공덕,서울 도시철도 6호선,37.54354807,126.9518977,서울특별시 마포구 백범로 지하 200(공덕동),02-6311-5291
2628,효창공원앞,서울 도시철도 6호선,37.539542,126.961371,서울특별시 용산구 백범로 지하287 (효창동),02-6311-6271
2629,삼각지,서울 도시철도 6호선,37.53471155,126.9733777,서울특별시 용산구 한강대로 지하 180 (한강로1가),02-6311-6281
2630,녹사평,서울 도시철도 6호선,37.53464201,126.9867518,서울특별시 용산구 녹사평대로 지하195 (용산동4가),02-6311-6291
2631,이태원,서울 도시철도 6호선,37.53449861,126.994038,서울특별시 용산구 이태원로 지하177(이태원동),02-6311-6301
2632,한강진,서울 도시철도 6호선,37.53974445,127.0014826,서울특별시 용산구 이태원로 지하287 (한남동),02-6311-6311
2633,버티고개,서울 도시철도 6호선,37.54806951,127.0066086,서울특별시 중구 다산로 지하38 (신당동),02-6311-6321
2634,약수,서울 도시철도 6호선,37.5542519,127.0104682,서울특별시 중구 다산로 지하 155 (신당동),02-6311-6331
2635,청구,서울 도시철도 6호선,37.56021257,127.0135698,서울특별시 중구 청구로 지하77(신당동),02-6311-5371
2636,신당,서울 도시철도 6호선,37.56582912,127.0181023,서울특별시 중구 퇴계로 지하 431-1 (신당동),02-6311-6351
2637,동묘앞,서울 도시철도 6호선,37.57226031,127.0158732,서울특별시 종로구 종로 359 (숭인동),02-6311-6361
2638,창신,서울 도시철도 6호선,37.57934562,127.0151078,서울특별시 종로구 지봉로 지하112 (창신동),02-6311-6371
2639,보문,서울 도시철도 6호선,37.58543035,127.0192192,서울특별시 성북구 보문로 지하116 (보문동1가),02-6311-6381
2640,안암,서울 도시철도 6호선,37.58623045,127.0292203,서울특별시 성북구 고려대로 지하89 (안암동5가),02-6311-6391
2641,고려대,서울 도시철도 6호선,37.59033908,127.0358642,서울특별시 성북구 종암로 지하1 (종암동),02-6311-6401
2642,월곡,서울 도시철도 6호선,37.6020753,127.0414221,서울특별시 성북구 월곡로 지하107 (하월곡동),02-6311-6411
2643,상월곡,서울 도시철도 6호선,37.60632242,127.0485887,서울특별시 성북구 화랑로 지하157 (상월곡동),02-6311-6421
2644,돌곶이,서울 도시철도 6호선,37.61052771,127.0564482,서울특별시 성북구 화랑로 지하243 (석관동),02-6311-6431
2645,석계,서울 도시철도 6호선,37.61498323,127.0655612,서울특별시 노원구 화랑로 지하347-1 (월계동),02-6311-6441
2646,태릉입구,서울 도시철도 6호선,37.61796533,127.0748937,서울특별시 노원구 동일로 지하992-1 (공릉동),02-6311-7171
2647,화랑대,서울 도시철도 6호선,37.62013061,127.0844264,서울특별시 노원구 화랑로 지하510,02-6311-6461
2648,봉화산,서울 도시철도 6호선,37.61747193,127.0910857,서울특별시 중랑구 신내로 지하232 (신내동),02-6311-6471
2649,신내,서울 도시철도 6호선,37.61264135,127.103395,서울특별시 중랑구 용마산로136길 33,02-6311-6481
2711,장암,서울 도시철도 7호선,37.69984712,127.0527785,경기도 의정부시 동일로 121 (장암동),02-6311-7091
2712,도봉산,서울 도시철도 7호선,37.68923188,127.0461005,서울특별시 도봉구 도봉로 964-40 (도봉동),02-6311-7101
2713,수락산,서울 도시철도 7호선,37.67791554,127.0552343,서울특별시 노원구 동일로 지하1662 (상계동),02-6311-7111
2714,마들,서울 도시철도 7호선,37.66516233,127.0573337,서울특별시 노원구 동일로 지하1530-1 (상계동),02-6311-7121
2715,노원,서울 도시철도 7호선,37.65496036,127.0620053,서울특별시 노원구 상계로 69-1 (상계동),02-6311-7131
323,약수,서울 도시철도 3호선,37.5544519,127.0104682,서울특별시 중구 다산로 지하 122 (신당동),02-6110-3331
324,금호,서울 도시철도 3호선,37.54800401,127.0156615,서울특별시 성동구 동호로 지하 104 (금호동4가),02-6110-3341
325,옥수,서울 도시철도 3호선,37.5414877,127.0177608,서울특별시 성동구 동호로 21 (옥수동) 옥수역,02-6110-3351
326,압구정,서울 도시철도 3호선,37.52668639,127.0283697,서울특별시 강남구 압구정로 지하 172 (신사동),02-6110-3361
327,신사,서울 도시철도 3호선,37.51618776,127.020092,서울특별시 강남구 도산대로 지하 102 (신사동),02-6110-3371
328,잠원,서울 도시철도 3호선,37.51282982,127.0112442,서울특별시 서초구 잠원로 4길 지하 46 (잠원동),02-6110-3381
329,고속터미널,서울 도시철도 3호선,37.50436623,127.0049403,서울특별시 서초구 신반포로 지하 188 (반포동),02-6110-3391
330,교대,서울 도시철도 3호선,37.49320061,127.0140237,서울특별시 서초구 서초대로 지하 294 (서초동),02-6110-3401
331,남부터미널,서울 도시철도 3호선,37.48482472,127.0161898,서울특별시 서초구 서초중앙로 지하 31 (서초동),02-6110-3411
332,양재,서울 도시철도 3호선,37.48381174,127.0345768,서울특별시 서초구 남부순환로 지하 2585 (서초동),02-6110-3421
333,매봉,서울 도시철도 3호선,37.48684644,127.0467037,서울특별시 강남구 남부순환로 지하 2744 (도곡동),02-6110-3431
334,도곡,서울 도시철도 3호선,37.49082524,127.0553484,서울특별시 강남구 남부순환로 지하 2814 (도곡동),02-6110-3441
335,대치,서울 도시철도 3호선,37.4942795,127.0632665,서울특별시 강남구 남부순환로 지하 2952 (대치동),02-6110-3451
336,학여울,서울 도시철도 3호선,37.49655351,127.0713676,서울특별시 강남구 남부순환로 지하 3104 (대치동),02-6110-3461
337,대청,서울 도시철도 3호선,37.49346096,127.079515,서울특별시 강남구 일원로 지하 2 (일원동),02-6110-3471
338,일원,서울 도시철도 3호선,37.48382242,127.0843143,서울특별시 강남구 일원로 지하 121 (일원동),02-6110-3481
339,수서,서울 도시철도 3호선,37.48716257,127.101553,서울특별시 강남구 광평로 지하 270 (수서동),02-6110-3491
340,가락시장,서울 도시철도 3호선,37.49276539,127.1178996,서울특별시 송파구 송파대로 지하 257 (가락동),02-6311-8171
341,경찰병원,서울 도시철도 3호선,37.49576539,127.1242996,서울특별시 송파구 중대로 지하 149 (가락동),02-6110-3511
342,오금,서울 도시철도 3호선,37.50216539,127.1278996,서울특별시 송파구 오금로 지하 321 (오금동),02-6110-3521
409,당고개,서울 도시철도 4호선,37.67032572,127.0789555,서울특별시 노원구 상계로 305 (상계동),02-6110-4091
410,상계,서울 도시철도 4호선,37.66090497,127.0731287,서울특별시 노원구 상계로 182 (상계동),02-6110-4101
411,노원,서울 도시철도 4호선,37.6551493,127.0624948,서울특별시 노원구 상계로 69-1 (상계동),02-6110-4111
412,창동,서울 도시철도 4호선,37.65312232,127.0476886,서울특별시 도봉구 마들로 11길 77 (창동),02-6110-4121
413,쌍문,서울 도시철도 4호선,37.64853159,127.0345002,서울특별시 도봉구 도봉로 지하 486-1 (창동),02-6110-4131
414,수유,서울 도시철도 4호선,37.63796529,127.0254433,서울특별시 강북구 도봉로 지하 50 (미아동),02-6110-4141
415,미아,서울 도시철도 4호선,37.62657144,127.0258287,서울특별시 강북구 도봉로 지하 198 (미아동),02-6110-4151
416,미아사거리,서울 도시철도 4호선,37.61325241,127.0298981,서울특별시 강북구 도봉로 지하 50 (미아동),02-6110-4161
417,길음,서울 도시철도 4호선,37.6035085,127.0249611,서울특별시 성북구 동소문로 지하 248 (길음동),02-6110-4171
418,성신여대입구,서울 도시철도 4호선,37.5927377,127.0163071,서울특별시 성북구 동소문로 지하 102 (동선동4가),02-6110-4181
152,종각,서울 도시철도 1호선,37.57020349,126.9829483,서울특별시 종로구 종로 지하 55 (종로1가),02-6110-1311
153,종로3가,서울 도시철도 1호선,37.57139366,126.9914115,서울특별시 종로구 종로 지하 129 (종로3가),02-6110-1301
154,종로5가,서울 도시철도 1호선,37.57100685,127.001799,서울특별시 종로구 종로 지하 216  (종로5가),02-6110-1291
155,동대문,서울 도시철도 1호선,37.57129132,127.0101189,서울특별시 종로구 종로 지하 302 (창신동),02-6110-1281
156,신설동,서울 도시철도 1호선,37.57528723,127.0249104,서울특별시 동대문구 왕산로 지하 1 (신설동),02-6110-1261
157,제기동,서울 도시철도 1호선,37.57812027,127.0344966,서울특별시 동대문구 왕산로 지하 93 (제기동),02-6110-1251
158,청량리,서울 도시철도 1호선,37.5801441,127.0457768,서울특별시 동대문구 왕산로 지하 205(전농동),02-6110-1241
159,동묘앞,서울 도시철도 1호선,37.57253741,127.0155932,서울특별시 종로구 종로 359 (숭인동),02-6110-1271
200,까치산,서울 도시철도 2호선,37.53168373,126.8467432,서울특별시 강서구 강서로 지하54(화곡동),02-6311-5181
201,시청,서울 도시철도 2호선,37.56461852,126.9760864,서울특별시 중구 세종대로 지하 101 (정동),02-6110-2011
202,을지로입구,서울 도시철도 2호선,37.56597747,126.9825045,서울특별시 중구 을지로 지하 42 (을지로1가),02-6110-2021
203,을지로3가,서울 도시철도 2호선,37.56634826,126.991482,서울특별시 중구 을지로 지하 106 (을지로3가),02-6110-2031
204,을지로4가,서울 도시철도 2호선,37.56682797,126.9979016,서울특별시 중구 을지로 지하 178 (을지로4가),02-6110-2041
205,동대문역사문화공원,서울 도시철도 2호선,37.56500251,127.007394,서울특별시 중구 을지로 지하 279 (을지로7가),02-6110-2051
206,신당,서울 도시철도 2호선,37.56582912,127.0181023,서울특별시 중구 퇴계로 지하 431-1 (신당동),02-6110-2061
207,상왕십리,서울 도시철도 2호선,37.56417104,127.0293524,서울특별시 성동구 왕십리로 지하 374 (하왕십리동),02-6110-2071
208,왕십리,서울 도시철도 2호선,37.56152516,127.0375076,서울특별시 성동구 왕십리로 지하300(행당동),02-6110-2081
209,한양대,서울 도시철도 2호선,37.55522179,127.0434917,서울특별시 성동구 왕십리로 206 (행당동),02-6110-2091
210,뚝섬,서울 도시철도 2호선,37.54712239,127.0473648,서울특별시 성동구 아차산로 18 (성수동1가),02-6110-2101
241,이대,서울 도시철도 2호선,37.55672128,126.945801,서울특별시 마포구 신촌로 지하 180 (염리동),02-6110-2411
242,아현,서울 도시철도 2호선,37.55721977,126.9561295,서울특별시 마포구 신촌로 지하 270 (아현동),02-6110-2421
243,충정로,서울 도시철도 2호선,37.56022847,126.9634503,서울특별시 서대문구 서소문로 지하 17 (충정로3가),02-6110-2431
244,용답,서울 도시철도 2호선,37.56183232,127.050871,서울특별시 성동구 용답길 86 (용답동),02-6110-1341
245,신답,서울 도시철도 2호선,37.56961893,127.0468598,서울특별시 성동구 천호대로 232 (용답동),02-6110-1351
246,신설동,서울 도시철도 2호선,37.57519632,127.0248584,서울특별시 동대문구 왕산로 지하 1 (신설동),02-6110-1371
247,도림천,서울 도시철도 2호선,37.51420522,126.8827022,서울특별시 구로구 경인로 67길 160 (신도림동),02-6110-2441
248,양천구청,서울 도시철도 2호선,37.51205148,126.8656075,서울특별시 양천구 목동로3길 지하 33(신정동),02-6110-2451
249,신정네거리,서울 도시철도 2호선,37.51999688,126.8528986,서울특별시 양천구 중앙로 지하 261 (신정동),02-6110-2461
250,용두,서울 도시철도 2호선,37.57389197,127.0379098,서울특별시 동대문구 천호대로 지하 129,02-6110-1361
309,지축,서울 도시철도 3호선,37.64793834,126.9137407,경기도 고양시 덕양구 삼송로 300 (지축동),02-6110-3191
310,구파발,서울 도시철도 3호선,37.63664912,126.9187832,서울특별시 은평구 진관2로 지하 15-25 (진관동),02-6110-3201
311,연신내,서울 도시철도 3호선,37.61881292,126.9208158,서울특별시 은평구 통일로 지하 849 (갈현동),02-6110-3211
312,불광,서울 도시철도 3호선,37.61013354,126.9296281,"서울특별시 은평구 통일로 지하 723-1 (대조동, 3호선 불광역)",02-6110-3221
313,녹번,서울 도시철도 3호선,37.60085525,126.935753,서울특별시 은평구 통일로 지하 602-1 (녹번동),02-6110-3231
314,홍제,서울 도시철도 3호선,37.58852355,126.944165,서울특별시 서대문구 통일로 지하 440-1 (홍제동),02-6110-3241
315,무악재,서울 도시철도 3호선,37.58211864,126.9501814,서울특별시 서대문구 통일로 지하 361 (홍제동),02-6110-3251
316,독립문,서울 도시철도 3호선,37.57448506,126.9578508,서울특별시 서대문구 통일로 지하 247 (현저동),02-6110-3261
317,경복궁,서울 도시철도 3호선,37.57560542,126.9734832,서울특별시 종로구 사직로 지하 130 (적선동),02-6110-3271
318,안국,서울 도시철도 3호선,37.57666379,126.9854787,서울특별시 종로구 율곡로 지하 62 (안국동),02-6110-3281
319,종로3가,서울 도시철도 3호선,37.57139366,126.9914115,서울특별시 종로구 종로 지하 129 (종로3가),02-6110-3291
320,을지로3가,서울 도시철도 3호선,37.56634826,126.991482,서울특별시 중구 을지로 지하 106 (을지로3가),02-6110-3301
321,충무로,서울 도시철도 3호선,37.56140209,126.9943556,서울특별시 중구 퇴계로 지하 199 (필동2가),02-6110-4231
322,동대입구,서울 도시철도 3호선,37.55883276,127.0052813,서울특별시 중구 동호로 지하 256 (장충동2가),02-6110-3321
211,성수,서울 도시철도 2호선,37.5444338,127.0559893,서울특별시 성동구 아차산로 100 (성수동2가),02-6110-2111
212,건대입구,서울 도시철도 2호선,37.54060889,127.0700628,서울특별시 광진구 아차산로 243 (화양동),02-6110-2121
213,구의,서울 도시철도 2호선,37.53691864,127.0857297,서울특별시 광진구 아차산로 384-1 (구의동),02-6110-2131
214,강변,서울 도시철도 2호선,37.53487706,127.0946944,서울특별시 광진구 강변역로 53 (구의동),02-6110-2141
215,잠실나루,서울 도시철도 2호선,37.52054808,127.1036977,서울특별시 송파구 오금로 20 (신천동),02-6110-2151
216,잠실,서울 도시철도 2호선,37.51376934,127.1021882,서울특별시 송파구 올림픽로 지하 265 (잠실동),02-6110-2161
217,잠실새내,서울 도시철도 2호선,37.51141143,127.0860068,서울특별시 송파구 올림픽로 지하 140 (잠실동),02-6110-2171
218,종합운동장,서울 도시철도 2호선,37.51106095,127.073542,서울특별시 송파구 올림픽로 지하 23 (잠실동),02-6110-2181
219,삼성,서울 도시철도 2호선,37.5086936,127.063165,서울특별시 강남구 테헤란로 지하 538 (삼성동),02-6110-2191
220,선릉,서울 도시철도 2호선,37.50437895,127.0486966,서울특별시 강남구 테헤란로 지하 340 (삼성동),02-6110-2201
221,역삼,서울 도시철도 2호선,37.50054496,127.0363944,서울특별시 강남구 테헤란로 지하 156 (역삼동),02-6110-2211
222,강남,서울 도시철도 2호선,37.49720244,127.0280537,서울특별시 강남구 강남대로 지하 396 (역삼동),02-6110-2221
223,교대,서울 도시철도 2호선,37.49320061,127.0142237,서울특별시 서초구 서초대로 지하 294 (서초동),02-6110-2231
224,서초,서울 도시철도 2호선,37.49178284,127.0075972,서울특별시 서초구 서초대로 지하 233 (서초동),02-6110-2241
225,방배,서울 도시철도 2호선,37.48130245,126.997636,서울특별시 서초구 방배로 지하 80 (방배동),02-6110-2251
226,사당,서울 도시철도 2호선,37.4767992,126.9816245,서울특별시 동작구 남부순환로 지하 2089 (사당동),02-6110-2261
227,낙성대,서울 도시철도 2호선,37.47692607,126.9636002,서울특별시 관악구 남부순환로 지하 1928 (봉천동),02-6110-2271
228,서울대입구,서울 도시철도 2호선,37.48103059,126.9526269,서울특별시 관악구 남부순환로 지하 1822 (봉천동),02-6110-2281
229,봉천,서울 도시철도 2호선,37.48245978,126.9418478,서울특별시 관악구 남부순환로 지하 1721 (봉천동),02-6110-2291
230,신림,서울 도시철도 2호선,37.48420085,126.9295937,서울특별시 관악구 남부순환로 지하 1614 (신림동),02-6110-2301
231,신대방,서울 도시철도 2호선,37.48741288,126.9135942,서울특별시 동작구 대림로 2 (신대방동),02-6110-2311
232,구로디지털단지,서울 도시철도 2호선,37.48516215,126.9014847,서울특별시 구로구 도림천로 477 (구로동),02-6110-2321
233,대림,서울 도시철도 2호선,37.49307207,126.8957105,서울 구로구 구로6동 125-66,02-6110-2331
234,신도림,서울 도시철도 2호선,37.50874994,126.8912511,서울특별시 구로구 새말로 지하 117-21 (신도림동),02-6110-2341
235,문래,서울 도시철도 2호선,37.51779736,126.8945439,서울특별시 영등포구 당산로 지하 28 (문래동3가),02-6110-2351
236,영등포구청,서울 도시철도 2호선,37.52524847,126.8958333,서울특별시 영등포구 당산로 지하 121 (당산동3가),02-6110-2361
237,당산,서울 도시철도 2호선,37.53425753,126.9024241,서울특별시 영등포구 당산로 229 (당산동 6가),02-6110-2371
238,합정,서울 도시철도 2호선,37.54959888,126.9141239,서울특별시 마포구 양화로 지하 55 (서교동),02-6110-2381
239,홍대입구,서울 도시철도 2호선,37.55701523,126.9249829,서울특별시 마포구 양화로 지하160 (동교동),02-6110-2391
240,신촌,서울 도시철도 2호선,37.555342,126.9368826,서울특별시 마포구 신촌로 지하 90 (노고산동),02-6110-2401
319,지축역,일산선,37.648114,126.913746,경기도 고양시 덕양구 삼송로 300(지축동),1544-7788
318,삼송역,일산선,37.653096,126.895559,경기도 고양시 덕양구 삼송로 205번길(삼송동 20-14),1544-7788
317,원흥역,일산선,37.650709,126.873239,경기도 고양시 덕양구 원흥동 569-15,1544-7788
316,원당역,일산선,37.653103,126.842891,경기도 고양시 덕양구 덕양대로 1429(성사1동 4100-7),1544-7788
315,화정역,일산선,37.637837,126.832503,경기도 고양시 덕양구 화정동 400-2,1544-7788
313,백석역,일산선,37.642973,126.788109,경기도 고양시 일산동구 중앙로 1042,1544-7788
312,마두역,일산선,37.652185,126.777641,경기도 고양시 일산동구 중앙로 지하 1180(마두동),1544-7788
311,정발산역,일산선,37.659709,126.773254,경기도 고양시 일산동구 마두 1동 1123(일산동구 중앙로 1270),1544-7788
310,주엽역,일산선,37.670138,126.761232,경기도 고양시 일산서구 중앙로 1432(주엽동 166-7),1544-7788
309,대화역,일산선,37.675883,126.747756,경기도 고양시 일산서구 중앙로 1569(대화동 2221),1544-7788
246,고색,수인선,37.248829,126.977899,경기도 수원시 권선구 매송고색로 지하690(고색동),1544-7788
247,오목천,수인선,37.243011,126.9636354,경기도 수원시 권선구 삼천병마로 1576(오목천동),1544-7788
248,어천,수인선,37.250076,126.908805,경기도 화성시 매송면 화성로 2227-5(어천리),1544-7788
249,야목,수인선,37.261011,126.88429,경기도 화성시 매송면 본오매송로 286(야목리),1544-7788
250,사리,수인선,37.289982,126.856872,경기도 안산시 상록구 충장로 93(사동),1544-7788
251,한대앞,수인선,37.309685,126.853656,경기도 안산시 상록구 충장로 337,1544-7788
252,중앙,수인선,37.316055,126.838532,경기도 안산시 단원구 중앙대로 918,1544-7788
253,고잔,수인선,37.316821,126.823094,경기도 안산시 상록구 충장로 337,1544-7788
254,초지,수인선,37.320583,126.806151,경기도 안산시 단원구 중앙대로 784,1544-7788
255,안산,수인선,37.327006,126.788748,경기도 안산시 단원구 중앙대로 620,1544-7788
256,신길온천,수인선,37.337488,126.767306,경기도 안산시 단원구 중앙대로 462,1544-7788
257,정왕,수인선,37.351816,126.742844,경기도 안산시 단원구 황고개로 2,1544-7788
258,오이도,수인선,37.361773,126.738437,경기도 시흥시 역전로 430,1544-7788
259,달월역,수인선,37.379993,126.745431,경기도 시흥시 서해안로 736번길 55(월곶동),1544-7788
260,월곶역,수인선,37.39189,126.742741,경기도 시흥시 월곶 중앙로 14번길,1544-7788
261,소래포구역,수인선,37.400963,126.733533,인천시 남동구 소래역로 51,1544-7788
262,인천논현역,수인선,37.400641,126.722495,인천시 남동구 청능대로 567,1544-7788
263,호구포역,수인선,37.401622,126.708682,인천시 남동구 호구포로 205,1544-7788
264,남동인더스파크역,수인선,37.407868,126.695613,인천광역시 남동구 고잔동 970-14,1544-7788
265,원인재역,수인선,37.412921,126.686952,인천시 연수구 벚꽃로 195,1544-7788
266,연수역,수인선,37.417769,126.678991,인천시 연수구 벚꽃로 115,1544-7788
267,송도역,수인선,37.417769,126.678991,인천시 연수구 비류대로 175(옥련동),1544-7788
269,인하대역,수인선,37.448191,126.649832,인천시 남구 용현동 294-3,1544-7788
270,숭의역,수인선,37.460891,126.638035,인천시 남구 인주대로 지하6,1544-7788
271,신포역,수인선,37.468442,126.624509,인천시 중구 사동 26-19,1544-7788
272,인천,수인선,37.476364,126.616936,인천시 중구 제물량로 269,1544-7788
419,한성대입구,서울 도시철도 4호선,37.58838493,127.0059994,서울특별시 성북구 삼선교로 지하1 (삼선동1가),02-6110-4191
420,혜화,서울 도시철도 4호선,37.58228892,127.0016857,서울특별시 종로구 대학로 지하 120 (동숭동),02-6110-4201
421,동대문,서울 도시철도 4호선,37.57089132,127.0101189,서울특별시 종로구 율곡로 308,02-6110-4211
422,동대문역사문화공원,서울 도시철도 4호선,37.56507829,127.0071679,서울특별시 중구 장충단로 지하 230 (광희동 2가),02-6110-4221
423,충무로,서울 도시철도 4호선,37.56120209,126.9943556,서울특별시 중구 퇴계로 지하 199 (필동2가),02-6110-4231
424,명동,서울 도시철도 4호선,37.56075073,126.9862482,서울특별시 중구 퇴계로 지하 126 (충무로2가),02-6110-4241
425,회현,서울 도시철도 4호선,37.55851662,126.9781303,서울특별시 중구 퇴계로 지하 54 (남창동),02-6110-4251
426,서울역,서울 도시철도 4호선,37.55356539,126.9724996,서울특별시 용산구 한강대로 지하 392(동자동),02-6110-4261
427,숙대입구,서울 도시철도 4호선,37.54467788,126.9719943,서울특별시 용산구 한강대로 지하 306,02-6110-4271
428,삼각지,서울 도시철도 4호선,37.53475857,126.9734308,서울특별시 용산구 한강대로 지하 180 (한강로1가),02-6110-4281
429,신용산,서울 도시철도 4호선,37.5292129,126.9677003,서울특별시 용산구 한강대로 지하 112 (한강로2가),02-6110-4291
430,이촌,서울 도시철도 4호선,37.52234094,126.9741382,서울특별시 용산구 용산동5가 17,02-6110-4301
431,동작,서울 도시철도 4호선,37.50300413,126.9790224,서울특별시 동작구 현충로 257 (동작동),02-6110-4311
432,총신대입구,서울 도시철도 4호선,37.48678247,126.981945,서울특별시 동작구 동작대로 지하 117 (사당동),02-6110-4321
433,사당,서울 도시철도 4호선,37.4767992,126.9814245,"서울특별시 동작구 동작대로 3(사당동,사당역(4호선))",02-6110-4331
434,남태령,서울 도시철도 4호선,37.46424858,126.9888363,서울특별시 서초구 과천대로 지하 816 (방배동),02-6110-4341
2511,방화,서울 도시철도 5호선,37.57729066,126.8127115,서울특별시 강서구 금낭화로 지하132 (방화동),02-6311-5101
2512,개화산,서울 도시철도 5호선,37.57231242,126.8062885,서울특별시 강서구 양천로 22(방화동),02-6311-5111
2513,김포공항,서울 도시철도 5호선,37.5622601,126.8014703,서울특별시 강서구 하늘길 지하77 (방화동),02-6311-5121
2514,송정,서울 도시철도 5호선,37.56115795,126.811792,서울특별시 강서구 공항대로 지하33 (공항동),02-6311-5131
2515,마곡,서울 도시철도 5호선,37.56025035,126.8248665,서울특별시 강서구 공항대로 지하163 (가양동),02-6311-5141
150,서울역,서울 도시철도 1호선,37.55575305,126.9724563,서울특별시 중구 세종대로 지하 2 (남대문로 5가),02-6110-1331
151,시청,서울 도시철도 1호선,37.56471664,126.9767513,서울특별시 중구 세종대로 지하 101 (정동),02-6110-1321
2516,발산,서울 도시철도 5호선,37.55848385,126.837456,서울특별시 강서구 공항대로 지하267 (가양동),02-6311-5151
2517,우장산,서울 도시철도 5호선,37.54886035,126.8363531,서울특별시 강서구 강서로 지하262 (화곡동),02-6311-5161
2518,화곡,서울 도시철도 5호선,37.54175707,126.8402952,서울특별시 강서구 화곡로 지하168 (화곡동),02-6311-5171
2519,까치산,서울 도시철도 5호선,37.53168373,126.8467432,서울특별시 강서구 강서로 지하54(화곡동),02-6311-5181
2520,신정,서울 도시철도 5호선,37.52501081,126.8562294,서울특별시 양천구 오목로 지하179 (신정동),02-6311-5191
2521,목동,서울 도시철도 5호선,37.52586671,126.8645757,서울특별시 양천구 오목로 지하245 (목동),02-6311-5201
2522,오목교,서울 도시철도 5호선,37.52436614,126.8750582,서울특별시 양천구 오목로 지하342 (목동),02-6311-5211
2523,양평,서울 도시철도 5호선,37.52558457,126.8862032,서울특별시 영등포구 양산로 지하21(양평동2가),02-6311-5221
2524,영등포구청,서울 도시철도 5호선,37.52524847,126.8958333,서울특별시 영등포구 당산로 지하 121 (당산동3가),02-6311-5231
2525,영등포시장,서울 도시철도 5호선,37.52274531,126.9047596,서울특별시 영등포구 양산로 지하200 (영등포동5가),02-6311-5241
2526,신길,서울 도시철도 5호선,37.51742655,126.916543,서울특별시 영등포구 경인로114가길 지하9 (영등포동1가),02-6311-5251
2527,여의도,서울 도시철도 5호선,37.52165166,126.9242291,서울특별시 영등포구 여의나루로 지하40 (여의도동),02-6311-5261
2528,여의나루,서울 도시철도 5호선,37.52707204,126.9328665,서울특별시 영등포구 여의동로 지하343 (여의도동),02-6311-5271
2529,마포,서울 도시철도 5호선,37.53956668,126.9457536,서울특별시 마포구 마포대로 지하33 (도화동),02-6311-5281
2530,공덕,서울 도시철도 5호선,37.54412449,126.9513584,서울특별시 마포구 마포대로 지하100(공덕동),02-6311-5291
2531,애오개,서울 도시철도 5호선,37.5535295,126.956632,서울특별시 마포구 마포대로 지하210 (아현동),02-6311-5301
2532,충정로,서울 도시철도 5호선,37.56022847,126.9636503,서울특별시 서대문구 충정로 28-1,02-6311-5311
2533,서대문,서울 도시철도 5호선,37.56573781,126.9665864,서울특별시 종로구 통일로 지하126 (평동),02-6311-5321
2534,광화문,서울 도시철도 5호선,37.5708165,126.9762129,서울특별시 종로구 세종대로 지하172 (세종로),02-6311-5331
2535,종로3가,서울 도시철도 5호선,37.57139366,126.9912115,서울특별시 종로구 종로 지하 129 (종로3가),02-6311-5341
2536,을지로4가,서울 도시철도 5호선,37.56702797,126.9979016,서울특별시 중구 을지로 지하 178 (을지로4가),02-6311-5351
2537,동대문역사문화공원,서울 도시철도 5호선,37.56507829,127.0071679,서울특별시 중구 을지로 지하 279 (을지로7가),02-6311-5361
2538,청구,서울 도시철도 5호선,37.56021257,127.0137698,서울특별시 중구 청구로 지하77(신당동),02-6311-5371
2539,신금호,서울 도시철도 5호선,37.55440938,127.0205515,서울특별시 성동구 금호로 지하154 (금호동2가),02-6311-5381
2540,행당,서울 도시철도 5호선,37.55754312,127.0296931,서울특별시 성동구 행당로 지하89 (행당동),02-6311-5391
2541,왕십리,서울 도시철도 5호선,37.56172516,127.0369076,서울특별시 성동구 왕십리로 지하300 (행당동),02-6311-5401
2542,마장,서울 도시철도 5호선,37.56620675,127.0429769,서울특별시 성동구 마장로 지하296 (마장동),02-6311-5411
2543,답십리,서울 도시철도 5호선,37.56690598,127.0524701,서울특별시 성동구 천호대로 지하300(용답동),02-6311-5421
2544,장한평,서울 도시철도 5호선,37.56153057,127.0642826,서울특별시 동대문구 천호대로 지하405 (장안동),02-6311-5431
2716,중계,서울 도시철도 7호선,37.64521691,127.0640831,서울특별시 노원구 동일로 지하1308-1 (중계동),02-6311-7141
2717,하계,서울 도시철도 7호선,37.63642687,127.0678149,서울특별시 노원구 동일로 지하1196(하계동),02-6311-7151
2718,공릉,서울 도시철도 7호선,37.62551321,127.0728236,서울특별시 노원구 동일로 지하1074,02-6311-7161
2755,춘의,서울 도시철도 7호선,37.50372821,126.7868467,경기도 부천시 길주로 지하 406,02-6311-7531
2719,태릉입구,서울 도시철도 7호선,37.61816533,127.0746937,서울특별시 노원구 동일로 지하992-1 (공릉동),02-6311-7171
2720,먹골,서울 도시철도 7호선,37.61073429,127.0775891,서울특별시 중랑구 동일로 지하901 (묵동),02-6311-7181
2721,중화,서울 도시철도 7호선,37.60251645,127.079253,서울특별시 중랑구 동일로 지하797 (중화동),02-6311-7191
2722,상봉,서울 도시철도 7호선,37.59608092,127.0853862,서울특별시 중랑구 망우로 지하 297,02-6311-7201
2723,면목,서울 도시철도 7호선,37.58852412,127.0874251,"서울특별시 중랑구 면목로 지하407(면목동,면목역)",02-6311-7211
2724,사가정,서울 도시철도 7호선,37.58101455,127.0884688,서울특별시 중랑구 사가정로 지하393 (면목동),02-6311-7221
2725,용마산,서울 도시철도 7호선,37.5736549,127.0865586,서울특별시 중랑구 용마산로 지하227(면목동),02-6311-7231
2726,중곡,서울 도시철도 7호선,37.56568111,127.0841504,서울특별시 광진구 능동로 지하417 (중곡동),02-6311-7241
2727,군자,서울 도시철도 7호선,37.55713392,127.079433,서울특별시 광진구 천호대로 지하550,02-6311-5441
2728,어린이대공원,서울 도시철도 7호선,37.54780394,127.0745637,서울특별시 광진구 능동로 지하210(화양동),02-6311-7261
2729,건대입구,서울 도시철도 7호선,37.54060889,127.0698628,서울특별시 광진구 능동로110(화양동6-3),02-6311-7271
2730,뚝섬유원지,서울 도시철도 7호선,37.53125616,127.0666673,서울특별시 광진구 능동로 10 (자양동),02-6311-7281
2731,청담,서울 도시철도 7호선,37.5195959,127.0537514,서울특별시 강남구 학동로 지하508 (청담동),02-6311-7291
2732,강남구청,서울 도시철도 7호선,37.51714842,127.0411628,서울특별시 강남구 학동로 지하346 (삼성동),02-6311-7301
2733,학동,서울 도시철도 7호선,37.51428621,127.0317362,서울특별시 강남구 학동로 지하180(논현동),02-6311-7311
2734,논현,서울 도시철도 7호선,37.51118691,127.0212831,서울특별시 강남구 학동로 지하102(논현동),02-6311-7321
2735,반포,서울 도시철도 7호선,37.50820769,127.011532,서울특별시 서초구 신반포로 지하241(잠원동),02-6311-7331
2736,고속터미널,서울 도시철도 7호선,37.50436623,127.0045403,서울특별시 서초구 신반포로 지하 188 (반포동),02-6311-7341
2737,내방,서울 도시철도 7호선,37.4875118,126.9932223,서울특별시 서초구 서초대로 지하103 (방배동),02-6311-7351
2738,이수,서울 도시철도 7호선,37.48658247,126.981745,서울특별시 동작구 사당로 지하310 (사당동),02-6311-7361
2739,남성,서울 도시철도 7호선,37.48453469,126.9712351,서울특별시 동작구 사당로 지하218 (사당동),02-6311-7371
2740,숭실대입구,서울 도시철도 7호선,37.4961804,126.9534722,서울특별시 동작구 상도로 지하 378,02-6311-7381
2741,상도,서울 도시철도 7호선,37.50285237,126.9477417,서울특별시 동작구 상도로 지하272(상도1동),02-6311-7392
2742,장승배기,서울 도시철도 7호선,37.50482108,126.9388623,서울특별시 동작구 상도로 지하188(상도동),02-6311-7401
2743,신대방삼거리,서울 도시철도 7호선,37.49968797,126.9280519,서울특별시 동작구 상도로 지하76 (대방동),02-6311-7411
2744,보라매,서울 도시철도 7호선,37.49989004,126.9203052,서울특별시 동작구 상도로 지하2(대방동),02-6311-7421
2745,신풍,서울 도시철도 7호선,37.50008919,126.9098598,서울특별시 영등포구 신풍로 지하27(신길동),02-6311-7431
2746,대림,서울 도시철도 7호선,37.49307207,126.8959105,서울특별시 영등포구 도림로 지하137,02-6311-7441
2747,남구로,서울 도시철도 7호선,37.48613283,126.8873355,서울특별시 구로구 도림로 지하7(구로동),02-6311-7451
2748,가산디지털단지,서울 도시철도 7호선,37.48121776,126.8825816,서울특별시 금천구 벚꽃로 309 (가산동),02-6311-7461
2749,철산,서울 도시철도 7호선,37.47611739,126.8680062,경기도 광명시 철산로 지하13 (철산동),02-6311-7471
2750,광명사거리,서울 도시철도 7호선,37.47941898,126.8547278,경기도 광명시 오리로 지하980(광명동),02-6311-7481
2751,천왕,서울 도시철도 7호선,37.48661459,126.8386245,서울특별시 구로구 오리로 지하1154(오류동),02-6311-7491
2752,온수,서울 도시철도 7호선,37.49215924,126.8237047,서울특별시 구로구 경인로3길 지하64 (온수동),02-6311-7501
2753,까치울,서울 도시철도 7호선,37.50632983,126.8113309,경기도 부천시 길주로 626,02-6311-7511
2754,부천종합운동장,서울 도시철도 7호선,37.50544153,126.7972468,경기도 부천시 길주로 지하 502,02-6311-7521
2756,신중동,서울 도시철도 7호선,37.50308369,126.776328,경기도 부천시 길주로 314,02-6311-7541
2757,부천시청,서울 도시철도 7호선,37.50454132,126.7637332,경기도 부천시 길주로 202,02-6311-7551
2758,상동,서울 도시철도 7호선,37.50570416,126.7529908,경기도 부천시 길주로 104,02-6311-7561
2759,삼산체육관,서울 도시철도 7호선,37.50636043,126.7417749,인천광역시 부평구 길주로 지하713 (삼산동),02-6311-7571
2760,굴포천,서울 도시철도 7호선,37.50708334,126.7311071,인천광역시 부평구 길주로 지하623 (삼산동),02-6311-7581
2761,부평구청,서울 도시철도 7호선,37.50795782,126.7211284,인천광역시 부평구 길주로 지하527(갈산동),02-6311-7591
2811,암사,서울 도시철도 8호선,37.54997529,127.1274183,서울특별시 강동구 올림픽로 지하776 (암사동),02-6311-8101
2812,천호,서울 도시철도 8호선,37.53842355,127.1236234,서울특별시 강동구 천호대로 지하997 (천호동),02-6311-5471
2813,강동구청,서울 도시철도 8호선,37.53047081,127.1202691,서울특별시 강동구 올림픽로 지하550 (성내동),02-6311-8121
2814,몽촌토성,서울 도시철도 8호선,37.51742473,127.1123921,서울특별시 송파구 올림픽로 지하383,02-6311-8131
2815,잠실,서울 도시철도 8호선,37.51386481,127.1024965,서울특별시 송파구 올림픽로 지하 265 (잠실동),02-6311-8141
2816,석촌,서울 도시철도 8호선,37.50535113,127.1069303,서울특별시 송파구 송파대로 지하439(석촌동),02-6311-8151
2817,송파,서울 도시철도 8호선,37.4997227,127.1118647,서울특별시 송파구 송파대로 지하354 (가락동),02-6311-8161
2818,가락시장,서울 도시철도 8호선,37.49292332,127.1180741,서울특별시 송파구 송파대로 지하 257 (가락동),02-6311-8171
2819,문정,서울 도시철도 8호선,37.4859849,127.1222272,서울특별시 송파구 송파대로 지하179 (문정동),02-6311-8181
2820,장지,서울 도시철도 8호선,37.47839756,127.1260529,서울특별시 송파구 송파대로 지하82(장지동),02-6311-8191
2821,복정,서울 도시철도 8호선,37.47008981,127.1264714,서울특별시 송파구 송파대로 지하6 (장지동),02-6311-8201
2822,산성,서울 도시철도 8호선,37.45668074,127.1498131,경기도 성남시 수정구 수정로 지하365(신흥동),02-6311-8211
2823,남한산성입구,서울 도시철도 8호선,37.45156254,127.1597963,경기도 성남시 수정구 산성대로 지하 445,02-6311-8221
2824,단대오거리,서울 도시철도 8호선,37.44512808,127.1566517,경기도 성남시 수정구 산성대로 지하365 (신흥동),02-6311-8231
2825,신흥,서울 도시철도 8호선,37.44088706,127.1473884,경기도 성남시 수정구 산성대로 지하280 (신흥동),02-6311-8241
2826,수진,서울 도시철도 8호선,37.43732537,127.1406475,경기도 성남시 수정구 산성대로 지하200 (수진동),02-6311-8251
2827,모란,서울 도시철도 8호선,37.43291644,127.1294298,경기도 성남시 수정구 산성대로 지하100 (수진동),02-6311-8261
4126,언주,서울 도시철도 9호선,37.50744596,127.0342849,서울특별시 강남구 봉은사로 지하 201,02-2656-0926
4127,선정릉,서울 도시철도 9호선,37.51085355,127.043641,서울특별시 강남구 선릉로 지하 580,02-2656-0927
4128,삼성중앙,서울 도시철도 9호선,37.51288248,127.052705,서울특별시 강남구 봉은사로 지하 501,02-2656-0928
4129,봉은사,서울 도시철도 9호선,37.51436096,127.0608922,서울특별시 강남구 봉은사로 지하 601,02-2656-0929
4130,종합운동장,서울 도시철도 9호선,37.51096913,127.0733558,서울특별시 송파구 올림픽로 지하 23,02-2656-0930
4131,삼전,서울 도시철도 9호선,37.50474464,127.0877814,서울특별시 송파구 백제고분로 187,02-2656-0931
4132,석촌고분,서울 도시철도 9호선,37.50202826,127.0966224,서울특별시 송파구 삼학사로 53,02-2656-0932
4133,석촌,서울 도시철도 9호선,37.50594926,127.1063458,서울특별시 송파구 송파대로 439,02-2656-0933
4134,송파나루,서울 도시철도 9호선,37.51012026,127.1131234,서울특별시 송파구 오금로 165,02-2656-0934
4135,한성백제,서울 도시철도 9호선,37.51686537,127.118185,서울특별시 송파구 위례성대로 51,02-2656-0935
4136,올림픽공원,서울 도시철도 9호선,37.51608795,127.1306004,서울특별시 송파구 양재대로 1233,02-2656-0936
4137,둔촌오륜,서울 도시철도 9호선,37.51797547,127.1401702,서울특별시 송파구 강동대로 327,02-2656-0937
4138,중앙보훈병원,서울 도시철도 9호선,37.52961418,127.142757,서울특별시 강동구 명일로 117,02-2656-0938
